Event 17187335 Off east coast of Honshu
   Date       Time        Err   RMS Latitude Longitude  Smaj  Smin  Az Depth   Err Ndef Nsta Gap  mdist  Mdist Qual   Author      OrigID
2010/12/20 15:27:00                  33.3000  141.0000f                 62.0                                          NIED      17047838
2010/12/20 15:27:30.14   3.40 0.690  33.2584  141.1059  27.9  21.9  80  36.2  33.7   10      165   1.09  57.02     uk IDC       16692831
2010/12/20 15:27:31.00   0.10        33.3200  140.9900   1.1   1.9  -1  54.0                                          JMA       00348013
2010/12/20 15:27:29.02   1.96 1.315  33.2606  141.1095 11.30 6.831  80  29.3  18.2   29   23 165   1.09  57.02 m i ke ISC       01613979
 (#PRIME)

Magnitude  Err Nsta Author      OrigID
Mw     3.7          NIED      17047838
mb     3.9 0.1    2 IDC       16692831
mb1    4.0 0.1    6 IDC       16692831
mb1mx  3.4 0.2   48 IDC       16692831
mbtmp  4.1 0.2    6 IDC       16692831
ML     3.4 0.3    4 IDC       16692831
       3.6          JMA       00348013

Sta     Dist  EvAz Phase        Time      TRes  Azim AzRes   Slow   SRes Def   SNR       Amp   Per Qual Magnitude    ArrID
JHJ2    1.09 262.6 Pn       15:27:49.2     0.8                           T__                        __            05930734
JHCJ    1.12 260.7 Pn       15:27:49.3     0.6                           T__                        __            05930735
JHJ     1.12 263.1 Pn       15:27:49.3     0.6  75.3        19.90        T__ 352.5     688.8  0.33  __            58648919
JHJ     1.12 263.1 Sn       15:28:02.425  -0.7  78.1        19.60        T__  25.3     567.8  0.33  __            58648920
JHJ     1.12 263.1 LR       15:28:16.48        186.0        42.40        ___           110.6 18.57  __            58648921
BSO1    1.39 355.5 Pb       15:27:53.8    -0.3                           T__                        __            05930736
BSO3    1.62 342.2 Pn       15:27:56.5     1.2                           T__                        __            05930737
BSO3    1.62 342.2 Sn       15:28:14.8    -0.2                           T__                        _e            05930738
JIM2    2.01 316.6 Pn       15:28:01.5     0.4                           T__                        __            05930739
JIM2    2.01 316.6 Sn       15:28:23.0    -2.3                           T__                        _e            05930740
JIZS    2.36 308.7 Pn       15:28:06.9     1.2                           T__                        __            05930741
JIZS    2.36 308.7 Sn       15:28:32.8    -0.8                           T__                        _e            05930742
JOD2    2.61 320.6 Pn       15:28:09.9     0.7                           T__                        __            05930743
JOD2    2.61 320.6 Sn       15:28:37.4    -2.5                           T__                        _e            05930744
TK02    2.88 284.7 Pn       15:28:14.7     2.0                           T__                        __            05930745
TK04    2.92 293.5 Pn       15:28:15.6     2.3                           T__                        __            05930746
JYN     3.08 317.2 Pn       15:28:17.6     1.9                           T__                        __            05930747
JRY     3.30 327.1 Pn       15:28:20.0     1.3                           T__                        __            05930748
JRY     3.30 327.1 Sn       15:28:56.3    -0.6                           T__                        _e            05930749
JAG     3.44 337.1 Pn       15:28:21.7     1.1                           T__                        __            05930750
MJAR    4.05 324.8 Pn       15:28:29.435   0.4 149.3        11.60        T__  48.3       5.5  0.33  __            58648924
MJAR    4.05 324.8 Sn       15:29:15.822   0.4 145.1        21.80        T__   7.0       2.0  0.33  __            58648925
MAT     4.05 324.7 Pn       15:28:31.8     2.7                           T__                        __            05955599
MAT     4.05 324.7 Sn       15:29:16.2     0.7                           T__                        __            05955600
JCJ     6.21 171.1 Pn       15:28:59.125   0.3 304.5        19.70        T__  14.0       5.8  0.33  __            58648917
JCJ     6.21 171.1 Sn       15:30:08.275  -0.6 336.0        19.90        T__   2.8       2.4  0.33  __            58648918
JNU     8.58 271.9 Pn       15:29:32.125   0.9  79.2         7.30        T__   2.4       0.1  0.33  __            58648923
ASAJ   10.90   5.7 Pn       15:30:02.55   -0.4 214.4        12.90        T__   9.0       0.5  0.33  __            58648922
H11N2  26.64 113.9 T        16:02:06.863       305.7        75.10        ___  43.7                  __            58648915
H11N1  26.64 114.0 T        16:01:56.239       305.7        75.10        ___  21.5                  __            58648914
H11N3  26.65 113.9 T        16:02:15.616       305.7        75.10        ___  19.0                  __            58648916
WRA    53.30 188.0 P        15:36:45.475   0.1   4.5         7.60        T__  48.5       1.8  0.46  __            58648926
ASAR   57.02 187.9 P        15:37:12.3     0.1   5.0         6.80        T__  40.2       0.9  0.51  __            58648913

Event 17187336 Central Peru
   Date       Time        Err   RMS Latitude Longitude  Smaj  Smin  Az Depth   Err Ndef Nsta Gap  mdist  Mdist Qual   Author      OrigID
2010/12/20 15:30:07.06   1.74 0.820 -14.8479  -71.8692  28.1  13.4  36  69.2  17.8   15      122   3.88 151.47     uk IDC       16692832
2010/12/20 15:30:07.21   0.62 1.485 -14.8842  -71.9001 16.40 7.572  34 100.0f        13   14 122   3.89  84.04 m i ke ISCJB     02145575
2010/12/20 15:30:08.39   0.74 1.910 -14.9065  -71.9235 18.66 10.27  34 100.0f        13   14 123   3.90 151.46 m i ke ISC       01613980
 (#PRIME)

Magnitude  Err Nsta Author      OrigID
mb     3.5 0.0    5 IDC       16692832
mb1    3.8 0.1   11 IDC       16692832
mb1mx  3.6 0.1   32 IDC       16692832
mbtmp  3.9 0.1   11 IDC       16692832
mb     3.5        5 ISCJB     02145575
mb     3.7 0.0    5 ISC       01613980

Sta     Dist  EvAz Phase        Time      TRes  Azim AzRes   Slow   SRes Def   SNR       Amp   Per Qual Magnitude    ArrID
LPAZ    3.90 111.1 Pn       15:31:06.475  -0.4 294.5         9.80        T__   8.6       0.3  0.33  __            58648929
NNA     5.60 300.6 Pn       15:31:26.575  -2.7 131.2        10.70        T__   6.7       3.4  0.33  __            58648932
NNA     5.60 300.6 Sn       15:32:32.475   0.1 241.5        17.90        T__   3.5       1.3  0.33  __            58648933
LVC     8.18 160.0 Pn       15:32:02.794  -1.8 331.7        14.90        T__   8.3      26.7  0.33  __            58648930
LVC     8.18 160.0 Sn       15:33:26.824  -8.7 237.6         8.50        ___   2.5                  __            58648931
SIV    10.52  97.3 Pn       15:32:34.06   -2.2 286.9        11.70        T__   6.2       0.8  0.33  __            58648937
CPUP   17.75 132.1 Pn       15:34:10.285   1.1 254.4         3.20        T__   3.5       0.1  0.33  __            58648927
PTGA   18.39  41.1 Pn       15:34:15.444  -1.4 221.2        13.30        T__   4.7       0.7  0.33  __            58648936
PLCA   25.76 177.6 P        15:35:32.05    2.2  22.6        13.10        T__   2.5       1.6  0.93  __            58648935
TXAR   53.61 325.2 P        15:39:21.233   1.6 152.3         5.70        T__   5.5       0.6  0.83  __            58648940
PDAR   66.99 330.8 P        15:40:53.226   2.4 114.0         7.30        ___   4.9       0.6  0.78  __            58648934
TORD   78.00  72.8 P        15:41:57.225   0.8 251.2         5.70        T__   3.1       0.8  0.64  __            58648939
YKA    84.06 341.6 P        15:42:29.8     2.3 135.1         5.10        ___  12.3       0.6  0.66  __            58648941
ZALV  136.99  20.0 PKPdf    15:49:21.967   2.6 299.9         2.60        T__   6.3       1.3  0.64  __            58648942
SONM  147.14   2.1 PKPab    15:49:41.987   0.1 341.2         2.90        T__   5.8       0.8  0.74  __            58648938
KSRS  151.46 325.6 PKPbc    15:49:52.709   1.7 355.8         2.50        T__   4.4       1.1  0.68  __            58648928

Event 16327763 Turkey
   Date       Time        Err   RMS Latitude Longitude  Smaj  Smin  Az Depth   Err Ndef Nsta Gap  mdist  Mdist Qual   Author      OrigID
2010/12/20 15:40:32.40               39.8910   33.0900                   5.0              13                          ISK       15712922
2010/12/20 15:40:33.06        0.490  39.8887   33.1278                   7.0                  89                      DDA       01392018
2010/12/20 15:40:33.20   0.19 0.940  39.8847   33.1223   5.3   3.9  67  10.0         20   14  61   0.34   1.77     ke CSEM      01398104
2010/12/20 15:40:33.23   0.64 0.835  39.8798   33.1262 5.847 4.335 158   6.8  6.27   43   29  61   0.34   1.76 m i ke ISCJB     02145576
2010/12/20 15:40:32.72   1.29 0.539  39.8800   33.1134 4.177 3.216  72   4.4  11.7   43   29  61   0.34   1.77 m i ke ISC       01613982
 (#PRIME)

Magnitude  Err Nsta Author      OrigID
MD     2.8          ISK       15712922
Md     2.6          DDA       01392018
MD     2.6          CSEM      01398104

Sta     Dist  EvAz Phase        Time      TRes  Azim AzRes   Slow   SRes Def   SNR       Amp   Per Qual Magnitude    ArrID
BBAL    0.34 178.7 Pg       15:40:39.63    0.3                           T__                        __            27531201
BBAL    0.34 178.7 Sb       15:40:46.07   -1.0                           T__                        __            27531202
BBAL    0.34 178.7 Pg       15:40:39.6     0.3                           T__                        _i            27596563
BBAL    0.34 178.7 Sb       15:40:46.1    -1.0                           T__                        _i            27596564
ELDT    0.66  21.4 Pg       15:40:44.93   -0.4                           T__                        __            27531207
ELDT    0.66  21.4 Sb       15:40:55.77   -0.6                           T__                        __            27531208
ELDT    0.66  21.4 Pg       15:40:44.9    -0.4                           T__                        _i            27596569
ELDT    0.66  21.4 Sb       15:40:55.8    -0.6                           T__                        _i            27596570
KAMT    0.69 137.6 Pg       15:40:46.05    0.1                           T__                        _e            34514753
KAMT    0.69 137.6 Sb       15:40:56.65   -0.6                           T__                        _e            34514754
KAMT    0.69 137.6 Pg       15:40:46.1     0.1                           T__                        _e            27596572
KAMT    0.69 137.6 Sb       15:40:56.7    -0.6                           T__                        _e            27596573
SERE    1.00 159.3 Pb       15:40:52.5    -0.1                           T__                        _e            34514755
SERE    1.00 159.3 Sb       15:41:06.72    0.7                           T__                        _e            34514756
SERE    1.00 159.3 Pb       15:40:52.5    -0.1                           T__                        _e            27596576
SERE    1.00 159.3 Sb       15:41:06.7     0.7                           T__                        _e            27596577
CDAG    1.00 104.4 Pg       15:40:52.0     0.0                           T__                        __            27531205
CDAG    1.00 104.4 Sn       15:41:09.12    0.9                           T__                        __            27531206
CDAG    1.00 104.4 Pg       15:40:52.0     0.0                           T__                        _i            27596567
YAYX    1.08 149.9 Pb       15:40:54.14    0.0                           T__                        _e            34514757
YAYX    1.08 149.9 Sn       15:41:09.71   -0.5                           T__                        _e            34514758
YAYX    1.08 149.9 Pb       15:40:54.1     0.0                           T__                        _e            27596580
YAYX    1.08 149.9 Sn       15:41:09.7    -0.5                           T__                        _e            27596581
CORM    1.20  75.2 Pb       15:40:56.13    0.0                           T__                        _e            34514759
CORM    1.20  75.2 Pb       15:40:56.1     0.0                           T__                        _e            27596568
BCAM    1.23 319.7 Pb       15:40:56.57   -0.0                           T__                        __            27531203
BCAM    1.23 319.7 Sn       15:41:15.03    1.1                           T__                        __            27531204
BCAM    1.23 319.7 Pb       15:40:56.6    -0.0                           T__                        _i            27596565
BCAM    1.23 319.7 Sn       15:41:15.0     1.1                           T__                        _i            27596566
AUMIH   1.25 270.0 Pb       15:40:57.08    0.1                           T__                        __            27531199
AUMIH   1.25 270.0 Sg       15:41:13.3     0.2                           T__                        __            27531200
SVRH    1.30 251.1 Pn       15:40:56.83   -0.9                           T__                        _e            34514760
SVRH    1.30 251.1 Pn       15:40:56.8    -0.9                           T__                        _e            27596578
TOS     1.35  30.7 Pn       15:40:58.21   -0.2                           T__                        _e            34514761
TOS     1.35  30.7 Pn       15:40:58.2    -0.2                           T__                        _e            27596579
KIZT    1.38 224.1 Pn       15:40:58.85    0.0                           T__                        _e            34514762
KIZT    1.38 224.1 Pn       15:40:58.9     0.0                           T__                        _e            27596574
MDUB    1.58 292.5 Pn       15:41:01.87    0.3                           T__                        _e            34514763
MDUB    1.58 292.5 Pn       15:41:01.9     0.3                           T__                        _e            27596575
YOZ     1.72  97.3 Pn       15:41:04.02    0.5                           T__                        _e            34514764
YOZ     1.72  97.3 Pn       15:41:04.0     0.5                           T__                        _e            27596582
GULA    1.77 150.0 Pb       15:41:05.28   -0.4                           T__                        _e            34514765
GULA    1.77 150.0 Pb       15:41:05.3    -0.4                           T__                        _e            27596571

Event 16174446 Myanmar-India border region
   Date       Time        Err   RMS Latitude Longitude  Smaj  Smin  Az Depth   Err Ndef Nsta Gap  mdist  Mdist Qual   Author      OrigID
2010/12/20 15:40:51.05   0.56 1.340  23.0218   93.6216 19.41 4.171  36  53.0f        31   19 162   2.99  60.71 m i ke ISCJB     02145577
2010/12/20 15:40:56.64   3.16 0.300  23.3731   94.2636  63.5  13.5  55  87.1  32.4    9      185   6.56  60.57     uk IDC       16692833
2010/12/20 15:40:54.09   0.94 1.919  23.1655   93.7766 26.82 8.298  39  53.0f        28   19 165   2.95  38.89 m i ke ISC       01613983
 (#PRIME)

Magnitude  Err Nsta Author      OrigID
mb     3.9        7 ISCJB     02145577
mb     3.6 0.1    7 IDC       16692833
mb1    3.7 0.1    8 IDC       16692833
mb1mx  3.3 0.1   53 IDC       16692833
mbtmp  3.9 0.1    8 IDC       16692833
mb     4.0 0.4    7 ISC       01613983

Sta     Dist  EvAz Phase        Time      TRes  Azim AzRes   Slow   SRes Def   SNR       Amp   Per Qual Magnitude    ArrID
SHL     2.95 324.5 Pn       15:41:41.0     2.4                           T__                        _e            01502738
SHL     2.95 324.5 Sn       15:42:11.5    -1.4                           T__                        _e            01502739
CMAR    6.73 133.2 Pn       15:42:30.21   -0.2 311.2        13.50        T__  13.1       0.8  0.33  __            58648947
CMAR    6.73 133.2 Sn       15:43:44.96   -0.8 316.9        21.00        T__   3.2       0.5  0.33  __            58648948
ODAN    6.86 303.7 Pn       15:42:35.3     2.9                           T__                        _e            34604475
ODAN    6.86 303.7 Sn       15:43:48.2    -1.0                           T__           105.7  0.26  _e            34604476
TAPN    6.89 308.4 Pn       15:42:35.1     2.3                           T__                        _e            34604483
TAPN    6.89 308.4 Sn       15:43:48.5    -1.6                           T__            72.3  0.30  _e            34604484
RAMN    7.52 301.5 Pn       15:42:43.9     2.5                           T__                        _e            34604481
RAMN    7.52 301.5 Sn       15:44:04.2    -1.2                           T__            77.3  0.36  _e            34604482
JIRN    8.19 304.7 Pn       15:42:53.3     2.6                           T__                        _e            34604469
JIRN    8.19 304.7 Sn       15:44:20.2    -1.8                           T__            11.4  0.28  _e            34604470
GUN     8.55 305.2 Pn       15:42:57.6     2.0                           T__                        _e            34604467
GUN     8.55 305.2 Sn       15:44:28.8    -2.1                           T__            76.5  0.28  _e            34604468
PKI     8.74 301.8 Pn       15:43:00.2     1.9                           T__                        _e            34604477
PKI     8.74 301.8 Sn       15:44:33.7    -1.9                           T__            21.7  0.24  _e            34604478
PKIN    8.76 301.8 Pn       15:43:00.4     2.0                           T__                        _e            34604479
PKIN    8.76 301.8 Sn       15:44:34.0    -1.8                           T__            37.6  0.30  _e            34604480
KKN     8.95 302.7 Pn       15:43:03.4     2.4                           T__                        _e            34604471
KKN     8.95 302.7 Sn       15:44:39.0    -1.5                           T__            32.8  0.20  _e            34604472
DMN     9.00 301.2 Pn       15:43:04.5     2.8                           T__                        _e            34604465
DMN     9.00 301.2 Sn       15:44:40.4    -1.4                           T__                        _e            34604466
KOLN   10.27 298.6 Pn       15:43:19.9     0.9                           T__                        _e            34604473
KOLN   10.27 298.6 Sn       15:45:10.9    -2.0                           T__            45.6  0.30  _e            34604474
AAK    25.17 325.0 P        15:46:15.394   0.7 130.2         6.80        T__   4.4       0.7  0.55  __            58648943
MKAR   25.33 341.3 P        15:46:14.928  -0.9 142.3        10.10        T__  30.2       3.6  0.69  __            58648950
KURBB  29.87 340.3 P        15:46:55.299  -1.2 154.4         7.80        T__   8.4       0.9  0.64  __            58648949
BVAR   34.72 335.1 P        15:47:37.551  -1.3 132.7        10.30        ___   4.1       0.5  0.60  __            58648946
AKTO   38.89 323.5 P        15:48:14.325  -0.1 130.2         8.60        T__   5.5       1.7  0.69  __            58648944
WRA    58.32 134.0 P        15:50:41.366  -2.6 319.1         7.60        ___   2.9       1.2  0.50  __            58648951
ASAR   60.72 137.4 P        15:50:58.424  -2.0 316.6         7.10        ___   6.1       1.1  0.39  __            58648945

