Event 14219408 Tonga Islands
   Date       Time        Err   RMS Latitude Longitude  Smaj  Smin  Az Depth   Err Ndef Nsta Gap  mdist  Mdist Qual   Author      OrigID
2010/01/01 18:05:17.76   3.71 1.070 -16.2747 -173.3967 177.8  21.9 139   0.0f         9      207   2.82 147.00     uk IDC       16654489
2010/01/01 18:05:21.62   2.84 1.562 -16.0342 -173.3716 129.4 12.89 136  26.0f        10   25 204   2.62 146.77 m i ke ISC       00011683
 (#PRIME)

Magnitude  Err Nsta Author      OrigID
mb     3.9 0.1    6 IDC       16654489
mb1    4.1 0.1    7 IDC       16654489
mb1mx  3.9 0.1   21 IDC       16654489
mbtmp  3.8 0.1    7 IDC       16654489
ML     1.8 0.3    1 IDC       16654489
MS     3.5 0.1    4 IDC       16654489
Ms1    3.5 0.1    4 IDC       16654489
ms1mx  3.2 0.1   33 IDC       16654489
mb     3.9 0.2    6 ISC       00011683
MS     3.5 0.0    3 ISC       00011683

Sta     Dist  EvAz Phase        Time      TRes  Azim AzRes   Slow   SRes Def   SNR       Amp   Per Qual Magnitude    ArrID
AFI     2.62  36.3 Pn       18:06:02.235  -0.1 222.7        21.90        T__   9.2       8.1  0.33  __            57923744
AFI     2.62  36.3 Sn       18:06:31.01   -2.3 230.4        23.50        T__  13.2      23.3  0.33  __            57923745
RAR    13.88 113.8 LR       18:12:47.36        315.4        32.60        ___            68.3 18.07  __            57923760
DZM    19.99 249.4 LR       18:15:13.4                                   ___           107.6 25.75  _e            07357780
PAE    22.83  97.5 T        18:33:34.3                                   ___             1.3  0.30  _e            07357781
PPT    22.83  97.2 LR       18:16:57.701        88.4        30.70        ___           158.9 18.89  __            57923759
PPT2   22.83  97.3 LR       18:15:46.7                                   ___            77.2 25.25  _e            07357782
TBI    23.64 111.7 LR       18:16:01.4                                   ___            60.2 25.25  _e            07357784
TBI    23.64 111.7 T        18:34:35.9                                   ___             5.3  0.28  _e            07357785
HNR    26.82 280.9 LR       18:20:10.575       356.2        33.30        ___           123.1 19.69  __            57923756
RKT    36.78 107.2 T        18:51:00.2                                   ___             1.9  0.30  _e            07357783
PMG    39.01 274.8 LR       18:26:25.98         75.8        32.50        ___            74.4 19.10  __            57923758
H11S2  39.52 329.5 T        18:54:36.43        152.6        76.20        ___   3.6                  __            57923754
H11S3  39.53 329.4 T        18:54:37.586       152.6        76.20        ___   3.7                  __            57923755
H11S1  39.54 329.5 T        18:54:38.15        152.6        76.20        ___   3.1                  __            57923753
H11N3  40.47 330.7 T        18:55:57.456       154.8        74.90        ___                        __            57923752
H11N1  40.48 330.7 T        18:56:01.205       154.8                     ___                        __            57923750
H11N2  40.49 330.7 T        18:56:01.13        154.8        74.90        ___                        __            57923751
STKA   43.75 240.5 P        18:13:23.6    -1.5  65.9         7.20        T__   3.3       2.4  0.82  __            57923761
WRA    49.73 257.3 P        18:14:10.925  -1.2  91.1         7.30        T__   8.3       0.5  0.63  __            57923762
ASAR   49.94 252.4 P        18:14:12.25   -1.5  88.5         8.30        T__  91.4       3.4  0.53  __            57923746
ILAR   83.06  11.1 P        18:17:45.7     1.3 212.9         6.30        T__   5.8       0.5  0.84  __            57923757
YKA    90.67  23.4 P        18:18:22.595   1.0 238.5         4.00        T__   4.0       0.3  0.89  __            57923763
CMAR   92.84 288.3 P        18:18:34.45    1.8 103.6         2.90        T__   4.5       0.6  0.93  __            57923748
BRTR  146.66 320.4 PKPab    18:25:03.15    0.5  94.9         2.20        T__   5.3       1.0  0.65  __            57923747
GERES 146.77 351.5 PKPab    18:25:02.875   0.2  71.6         1.70        T__   4.8       0.3  0.55  __            57923749

Event 16110902 Carlsberg Ridge
   Date       Time        Err   RMS Latitude Longitude  Smaj  Smin  Az Depth   Err Ndef Nsta Gap  mdist  Mdist Qual   Author      OrigID
2010/01/01 18:06:18.56   0.36 1.050   1.3981   67.6867 11.63 6.077 162  10.0f        52   63  54   8.35  91.37 m i se ISCJB     00508795
2010/01/01 18:06:19.26   0.60 0.860   1.4499   67.7256  18.6  15.5  50   0.0f        20       66  34.97 148.30     uk IDC       16654490
2010/01/01 18:06:20.43   0.46 1.120   1.4020   67.6560  11.5  11.1 151  10.0f        29       54  32.99 148.33     se NEIC      16339031
2010/01/01 18:06:20.70   0.47 1.007   1.4117   67.6592 13.33 11.08  70  10.0f        56   63  54   8.38 148.32 m i se ISC       00011684
 (#PRIME)

Magnitude  Err Nsta Author      OrigID
mb     4.1       22 ISCJB     00508795
MS     3.7       13 ISCJB     00508795
mb     4.0 0.1   18 IDC       16654490
mb1    4.1 0.1   18 IDC       16654490
mb1mx  3.9 0.1   31 IDC       16654490
mbtmp  4.0 0.1   18 IDC       16654490
MS     3.7 0.0   13 IDC       16654490
Ms1    3.7 0.0   13 IDC       16654490
ms1mx  3.5 0.1   39 IDC       16654490
mb     4.5        5 NEIC      16339031
mb     4.2 0.4   22 ISC       00011684
MS     3.7 0.1   13 ISC       00011684

Sta     Dist  EvAz Phase        Time      TRes  Azim AzRes   Slow   SRes Def   SNR       Amp   Per Qual Magnitude    ArrID
H08N2   8.38 156.6 Pn       18:08:22.567   0.6                           T__                        __            57923785
H08N2   8.38 156.6 T        18:16:57.773       336.5        75.40        ___ 187.6                  __            57923786
H08N3   8.39 156.7 Pn       18:08:22.783   0.6                           T__                        __            57923787
H08N3   8.39 156.7 T        18:16:56.781       336.5        75.40        ___ 183.6                  __            57923788
H08N1   8.40 156.5 Pn       18:08:23.143   0.8                           T__                        __            57923783
H08N1   8.40 156.5 T        18:16:59.377       336.5        75.40        ___ 248.8                  __            57923784
H08S3  10.19 151.9 Pn       18:08:47.597   0.7                           T__                        __            57923791
H08S1  10.20 152.0 Pn       18:08:47.469   0.4                           T__                        __            57923789
H08S2  10.21 151.9 Pn       18:08:48.153   1.0                           T__                        __            57923790
KBL    32.98   2.1 P        18:12:57.44    1.3                           T__                        __            50541963
KULM   33.15  82.5 P        18:12:55.82   -1.8                           T__            15.1  1.00  __            50541964
CMAR   35.05  59.1 P        18:13:15.25    1.1                           T__                        __            50541957
CMAR   35.05  59.1 PcP      18:15:47.5     1.3                           T__                        __            50541958
CMAR   35.05  59.1 P        18:13:15.253   1.1 249.2        10.30        T__   6.6       0.9  0.90  __            57923772
CMAR   35.05  59.1 PcP      18:15:47.5     1.3 240.3         5.10        T__   2.5       0.2  0.62  __            57923773
CMAR   35.05  59.1 LR       18:27:22.325       336.3        36.10        ___            66.9 18.50  __            57923774
CHTO   35.20  58.6 P        18:13:17.42    2.0                           T__             5.1  0.90  _e            50541956
LSA    35.93  36.2 P        18:13:22.52    0.5                           T__                        __            50541966
EKS2   41.43   6.8 P        18:14:08.1     0.4                           T__             6.2  1.30  _e            50541960
AAK    41.49   7.6 P        18:14:07.74   -0.5                           T__                        __            50541949
AAK    41.49   7.6 P        18:14:07.744  -0.5 185.4         7.60        T__   4.8       0.9  0.69  __            57923764
EIL    41.91 315.3 LR       18:29:54.457       308.4        33.70        ___           149.6 18.02  __            57923777
TKM2   41.93   8.7 P        18:14:09.88   -2.0                           T__                        __            50541973
LSZ    42.41 245.5 P        18:14:16.12    0.1                           T__                        __            50541967
LSZ    42.41 245.5 P        18:14:16.119   0.1  90.0        18.70        T__   1.5       1.2  0.67  __            57923794
GNI    43.82 334.5 P        18:14:27.08   -0.1                           T__            11.4  1.00  _e            50541962
GNI    43.82 334.5 P        18:14:28.685   1.5 274.0        13.10        T__   4.7       5.0  0.74  __            57923779
QIZ    44.87  64.2 P        18:14:35.72    0.0                           T__                        __            50541970
MKAR   46.97  13.7 P        18:14:50.21   -1.7                           T__                        __            50541968
MKAR   46.97  13.7 P        18:14:50.209  -1.7 188.5         8.70        T__   7.0       0.7  0.76  __            57923795
MKAR   46.97  13.7 LR       18:35:47.156        97.4        37.70        ___            58.3 18.30  __            57923796
KBZ    47.55 335.7 LR       18:34:12.782       169.2        35.20        ___            61.4 19.26  __            57923792
ABKAR  48.12 353.2 P        18:15:00.38   -0.4                           T__             4.9  0.90  _e            50541950
LBTB   48.46 234.3 P        18:15:01.3    -2.7                           T__                        __            50541965
BRTR   49.11 325.2 P        18:15:09.1     0.4                           T__                        __            50541955
BRTR   49.11 325.2 P        18:15:09.1     0.4 134.1        10.50        T__   7.2       1.0  0.68  __            57923770
BRTR   49.11 325.2 LR       18:36:32.897       123.6        36.90        ___            70.3 18.51  __            57923771
AKTO   49.53 351.9 P        18:15:11.35   -0.2                           T__                        __            50541952
AKTO   49.53 351.9 P        18:15:11.35   -0.2 173.8         8.30        T__  13.4       4.8  1.02  __            57923766
TSUM   53.25 244.8 LR       18:35:09.372       199.7        32.40        ___           134.0 21.10  __            57923803
ZAA0   54.24  12.4 P        18:15:44.93   -1.7                           T__                        _e            50541977
ZALV   54.24  12.4 P        18:15:45.6    -1.0                           T__                        __            50541978
ZALV   54.24  12.4 P        18:15:45.6    -1.0 209.8         7.50        T__  21.4       3.4  0.68  __            57923807
ZALV   54.24  12.4 LR       18:39:55.512       252.9        37.20        ___            60.5 18.67  __            57923808
H01W3  56.49 134.4 T        19:16:54.427       300.0        74.90        ___  15.8                  __            57923782
H01W2  56.50 134.4 T        19:16:54.882       300.0        74.90        ___  17.4                  __            57923781
H01W1  56.51 134.4 T        19:16:56.768       300.0        74.90        ___  13.1                  __            57923780
SONM   57.08  30.1 P        18:16:07.2    -0.1                           T__                        __            50541972
SONM   57.08  30.1 P        18:16:07.2    -0.1 220.7         7.00        T__   7.8       0.8  0.61  __            57923800
NWAO   57.86 130.9 P        18:16:12.6    -0.4                           T__                        __            50541969
NWAO   57.86 130.9 P        18:16:12.6    -0.4 180.0         7.10        T__   4.1       6.9  0.70  __            57923798
AKASG  58.88 332.5 P        18:16:18.95   -0.8                           T__                        __            50541951
AKASG  58.88 332.5 P        18:16:18.95   -0.8 133.5         5.50        T__   7.7       0.6  0.58  __            57923765
KEST   63.80 309.5 LR       18:42:14.022        89.1        33.80        ___            52.0 18.98  __            57923793
TORD   66.29 283.7 P        18:17:10.77    0.9                           T__                        __            50541974
TORD   66.29 283.7 P        18:17:10.766   0.9  85.3         5.70        T__   3.3       0.9  1.08  __            57923801
TORD   66.29 283.7 LR       18:43:38.746       315.0        33.80        ___            57.1 20.39  __            57923802
FINES  67.62 339.8 P        18:17:17.1    -0.4                           T__                        __            50541961
FINES  67.62 339.8 P        18:17:17.1    -0.4 157.2        10.30        T__   4.1       3.4  0.96  __            57923778
WRA    68.65 111.9 P        18:17:24.32   -0.5                           T__                        __            50541976
WRA    68.65 111.9 P        18:17:24.325  -0.5 290.1         5.70        T__   5.5       1.0  0.82  __            57923806
ASAR   68.93 115.9 P        18:17:25.85   -0.7                           T__                        __            50541954
ASAR   68.93 115.9 P        18:17:25.85   -0.7 290.3         6.00        T__   6.4       0.3  0.54  __            57923769
DBIC   72.47 276.5 P        18:17:49.45    1.2                           T__                        __            50541959
DBIC   72.47 276.5 P        18:17:49.45    1.2  92.3         6.10        T__   3.7       3.4  0.95  __            57923775
DBIC   72.47 276.5 LR       18:48:24.4         201.3        34.80        ___            80.5 19.65  __            57923776
NOA    73.12 334.9 LR       18:50:43.597       110.0        36.40        ___            32.5 19.25  __            57923797
ARCES  73.53 345.8 P        18:17:52.75   -0.7                           T__                        __            50541953
ARCES  73.53 345.8 P        18:17:52.75   -0.7 111.4         4.90        T__   7.7       3.1  0.96  __            57923767
ARCES  73.53 345.8 LR       18:49:35.67        103.1        35.30        ___            60.9 20.93  __            57923768
QSPA   91.39 179.9 P        18:19:27.45    0.6                           T__                        __            50541971
QSPA   91.39 179.9 P        18:19:27.448   0.6 280.0         0.70        T__   2.0       0.9  0.88  __            57923799
VNDA   92.28 167.5 LR       18:55:28.202        32.2        31.90        ___            33.1 18.37  __            57923805
TXAR  148.32 345.5 PKPbc    18:26:08.8     0.6                           T__                        __            50541975
TXAR  148.32 345.5 PKPbc    18:26:08.8     0.6  41.3         3.00        T__  22.6       1.6  0.72  __            57923804

