Event 15622572 Talaud Islands
   Date       Time        Err   RMS Latitude Longitude  Smaj  Smin  Az Depth   Err Ndef Nsta Gap  mdist  Mdist Qual   Author      OrigID
2010/01/01 17:23:51.46   0.27 1.268   3.6861  126.8921 7.210 3.889 166  48.0f        82   83 107   1.36  92.03 m i se ISCJB     00508791
2010/01/01 17:23:52.17   5.47 0.850   3.5833  126.6294  27.8  12.4  76  40.0  50.7   21      134  21.57 122.87     uk IDC       16654486
2010/01/01 17:23:53.50   0.80 1.500   3.5100  126.8100                  10.0f                213                      DJA       15298057
2010/01/01 17:23:54.72   1.33 0.950   3.6210  126.7800  11.8   6.7  77  66.6  12.5   38      131   3.63 123.00     se NEIC      16339027
2010/01/01 17:23:53.26   0.40 1.214   3.6772  126.8161 11.49 6.373  76  48.0f        83   83 106   1.28 123.02 m i se ISC       00011680
 (#PRIME)

Magnitude  Err Nsta Author      OrigID
mb     4.2       33 ISCJB     00508791
mb     3.9 0.1   18 IDC       16654486
mb1    4.0 0.1   18 IDC       16654486
mb1mx  3.9 0.1   27 IDC       16654486
mbtmp  3.9 0.1   18 IDC       16654486
M      4.5        8 DJA       15298057
mb     4.7 0.2    5 DJA       15298057
mB     4.9        3 DJA       15298057
MLv    4.5 0.2    8 DJA       15298057
       4.2        3 DJA       15298057
mb     4.3       15 NEIC      16339027
mb     4.2 0.3   33 ISC       00011680

Sta     Dist  EvAz Phase        Time      TRes  Azim AzRes   Slow   SRes Def   SNR       Amp   Per Qual Magnitude    ArrID
SGSI    1.28 270.4 Pn       17:24:13.5    -1.3                           T__            35.2        __            27768331
TNTI    2.94 169.2 Pn       17:24:38.1     0.6                           T__             2.0        __            27768332
TNTI    2.94 169.2 Sn       17:25:10.2    -1.4                           T__             2.0        __            27768333
MATI    3.29 350.3 Pn       17:24:43.95    1.5                           T__                        _e            60425783
DAV     3.59 340.0 Pn       17:24:48.09    1.6                           T__                        __            50541790
KMSI    4.19 222.7 Pn       17:24:57.0     2.4                           T__             2.0        __            27768334
LBMI    4.34 170.9 Pn       17:24:58.3     1.5                           T__             0.6        __            27768335
CTBH    4.35 324.1 Pn       17:24:58.62    1.7                           T__         78200.0        _e            60425784
BUKP    4.52 337.4 Pn       17:25:01.1     1.8                           T__                        _e            60425785
GTOI    4.86 231.6 Pn       17:25:04.9     1.1                           T__             0.2        __            27768336
PAGZ    5.37 320.6 Pn       17:25:12.8     1.9                           T__                        _e            60425786
BUTP    5.39 347.3 Pn       17:25:17.4     6.2                           ___                        _e            60425787
MRSI    5.82 237.0 Pn       17:25:18.5     1.5                           T__             0.2        __            27768337
LUWI    6.19 220.8 Pn       17:25:25.2     3.0                           T__             0.5        __            27768338
LUWI    6.19 220.8 Pn       17:25:25.77    3.6   6.3                     ___   5.9                  __            62601883
SWI     6.33 135.4 Pn       17:25:24.9     0.8                           T__             0.1        __            27768339
NLAI    6.88 177.6 Pn       17:25:32.9     1.3                           T__           773.7        __            27768340
APSI    6.89 228.7 Pn       17:25:36.6     4.9                           ___                        __            27768341
MYLDM   8.43 280.5 x        17:25:55.5                                   ___                        __            27768342
FAKI    8.51 140.3 Pn       17:25:55.72    1.7   8.4                     T__   5.6                  __            62601879
KSM    16.64 262.9 P        17:27:45.19    0.1                           T__                        __            50541798
MTN    16.96 165.4 Pn       17:27:44.645  -2.7  17.0                     T__  10.7                  __            62601885
KDU    17.20 161.0 Pn       17:27:50.7     0.4  17.2                     T__   5.3                  __            62601881
JAGI   17.47 226.3 P        17:27:56.569   2.3  17.6                     T__   4.8                  __            62601880
KNRA   19.33 174.3 P        17:28:14.495  -0.2  19.4                     T__  12.9                  __            62601882
YHNB   21.52 346.4 P        17:28:39.18    0.7                           T__            47.7  1.30  __            50541816
FITZ   21.67 183.0 P        17:28:38.56   -1.5                           T__                        __            50541794
FITZ   21.67 183.0 P        17:28:38.562  -1.5  28.0        12.70        T__  15.9       5.8  0.68  __            57923615
WRA    24.61 162.8 P        17:29:08.15   -1.1                           T__                        __            50541814
WRA    24.61 162.8 P        17:29:08.15   -1.1 343.7        10.10        T__  94.0      17.4  0.81  __            57923626
QIS    27.16 153.0 P        17:29:38.545   6.2  27.2                     ___   3.3                  __            62601887
AS31   28.04 166.1 P        17:29:39.12   -1.1                           T__                        _e            50541782
ASAR   28.04 166.1 P        17:29:39.05   -1.2                           T__                        __            50541783
ASAR   28.04 166.1 PcP      17:32:55.1     0.9                           T__                        __            50541784
ASAR   28.04 166.1 P        17:29:39.05   -1.2 349.7        13.30        T__  33.4       0.5  0.31  __            57923610
ASAR   28.04 166.1 PcP      17:32:55.1     0.9 351.8         2.30        T__   8.9       1.0  0.44  __            57923611
WRKA   28.58 177.2 P        17:29:45.12    0.1  28.7                     T__   5.2                  __            62601889
CM31   30.97 300.4 P        17:30:05.93   -0.3                           T__             1.0  0.60  __            50541788
CMAR   30.97 300.4 P        17:30:06.05   -0.2                           T__                        __            50541789
CMAR   30.97 300.4 P        17:30:06.05   -0.2 117.3         7.20        T__  11.7       0.8  0.67  __            57923613
ENH    31.12 330.1 P        17:30:06.52   -0.9                           T__             3.3  0.70  _e            50541792
CHTO   31.12 301.0 P        17:30:06.85   -0.7                           T__             1.4  0.60  __            50541787
MEEK   31.16 194.3 P        17:30:07.945   0.1  31.3                     T__   4.5                  __            62601884
KSAR   33.62   1.5 P        17:30:30.15    1.0                           T__                        __            50541797
KSRS   33.63   1.6 P        17:30:30.15    0.9 179.9         9.30        T__   7.3       2.6  0.74  __            57923617
MAJO   34.35  16.4 P        17:30:33.19   -2.4                           T__                        __            50541800
BJT    37.44 346.5 P        17:31:02.61    0.7                           T__            24.5  0.60  _e            50541785
STKA   38.05 159.4 P        17:31:06.6    -0.6                           T__                        __            50541809
STKA   38.05 159.4 PcP      17:33:22.6     0.7                           T__                        __            50541810
STKA   38.05 159.4 P        17:31:06.6    -0.6 346.0         9.00        T__  13.0       3.6  0.59  __            57923622
STKA   38.05 159.4 PcP      17:33:22.6     0.7 302.9         7.80        T__   3.2       2.2  0.74  __            57923623
STKA   38.05 159.4 P        17:31:07.475   0.3  38.2                     T__   8.2                  __            62601888
USRK   40.61   5.7 P        17:31:29.217   0.8 198.0         6.10        T__   7.0       1.5  0.68  __            57923625
MDJ    40.84   3.0 P        17:31:30.94    0.6                           T__            11.4  0.90  _e            50541802
LSA    42.54 311.4 P        17:31:44.96   -0.0                           T__             3.4  0.70  _e            50541799
SONM   47.38 341.4 P        17:32:22.74   -0.0                           T__                        __            50541808
SONM   47.38 341.4 P        17:32:22.74   -0.0 160.0         7.60        T__   8.8       0.9  0.65  __            57923621
PETK   55.45  22.1 P        17:33:24.13    1.2                           T__                        __            50541805
PETK   55.45  22.1 P        17:33:24.125   1.2 188.9         4.80        T__  17.8       2.5  0.55  __            57923619
MK31   57.65 325.2 P        17:33:37.73   -1.0                           T__                        _e            50541803
MKAR   57.65 325.2 P        17:33:38.28   -0.4                           T__                        __            50541804
MKAR   57.65 325.2 P        17:33:38.282  -0.4 121.4         8.00        T__  31.9       1.7  0.49  __            57923618
YAK    58.26   1.6 P        17:33:43.41    0.8                           T__             9.4  0.80  _e            50541815
TKM2   59.84 318.5 P        17:33:53.42   -0.9                           T__             1.9  0.80  _e            50541811
ZALV   60.67 333.0 P        17:33:57.83   -1.6                           T__                        __            50541817
ZALV   60.67 333.0 P        17:33:57.825  -1.6 122.8         7.70        T__   4.0       0.4  0.39  __            57923627
EKS2   60.95 317.6 P        17:34:00.85   -0.9                           T__             1.7  0.60  _e            50541791
SEY    62.06  12.9 P        17:34:10.43    1.8                           T__                        __            50541807
SEY    62.06  12.9 P        17:34:10.425   1.8   4.9        22.60        T__   5.6       2.4  0.78  __            57923620
KKAR   63.33 317.0 P        17:34:16.97   -0.6                           T__             1.6  0.80  _e            50541796
BVAR   67.41 327.0 P        17:34:43.4    -0.3                           T__                        __            50541786
BVAR   67.41 327.0 P        17:34:43.4    -0.3 126.0         9.20        T__  11.1       1.1  0.63  __            57923612
ABKAR  72.25 320.8 P        17:35:12.27   -1.2                           T__             0.9  0.60  _e            50541778
AKTO   73.75 321.6 P        17:35:21.02   -1.4                           T__                        __            50541780
AKTO   73.75 321.6 P        17:35:21.025  -1.4  78.1         6.10        T__   4.5       0.7  0.35  __            57923608
VNDA   83.36 172.8 P        17:36:15.42    0.7                           T__             1.3  0.80  __            50541813
PMR    83.95  28.6 P        17:36:18.27    0.2                           T__             4.6  1.00  _e            50541806
MCK    84.17  26.4 P        17:36:20.26    1.0                           T__             4.6  0.90  _e            50541801
ILAR   85.11  25.4 P        17:36:22.58   -1.4                           T__                        __            50541795
ILAR   85.11  25.4 P        17:36:22.581  -1.4 249.1         5.70        T__   3.2       0.1  0.42  __            57923616
ARCES  90.53 339.8 P        17:36:49.28   -0.5                           T__                        __            50541781
ARCES  90.53 339.8 P        17:36:49.275  -0.5  73.6         6.40        T__   9.2       2.0  0.55  __            57923609
FINES  91.92 331.8 P        17:36:55.45   -0.9                           T__                        __            50541793
FINES  91.92 331.8 P        17:36:55.45   -0.9  86.6         6.50        T__   4.6       3.7  1.04  __            57923614
AKASG  91.99 320.9 P        17:36:55.7    -1.2                           T__                        __            50541779
AKASG  91.99 320.9 P        17:36:55.7    -1.2  64.0         5.50        T__   4.2       0.7  0.61  __            57923607
TORD  123.02 288.2 PKPdf    17:42:44.78   -0.7                           T__                        __            50541812
TORD  123.02 288.2 PKPdf    17:42:44.778  -0.7  53.9         1.80        T__   2.7       0.3  0.61  __            57923624

