Event 15854226 Poland
   Date       Time        Err   RMS Latitude Longitude  Smaj  Smin  Az Depth   Err Ndef Nsta Gap  mdist  Mdist Qual   Author      OrigID
2010/12/21 15:29:26.90   0.58 1.376  50.1579   19.0154 6.477 2.593   9   0.0f        45   29 161   0.51   3.68 m i ki ISCJB     02145714
2010/12/21 15:29:27.90   0.31 1.050  50.1489   19.0591   8.3   3.3   7   2.0         24   15 159   0.48   3.71     ki CSEM      01406814
2010/12/21 15:29:28.70               50.1400   19.0500                   0.0         21                            ki PRU       00086077
2010/12/21 15:29:28.09   0.83 0.853  50.1270   19.0555 6.047 2.797   5   0.0f        45   29 156   0.49   3.70 m i ki ISC       01614151
 (#PRIME)

Magnitude  Err Nsta Author      OrigID
ML     2.7 0.3    7 CSEM      01406814

Sta     Dist  EvAz Phase        Time      TRes  Azim AzRes   Slow   SRes Def   SNR       Amp   Per Qual Magnitude    ArrID
OJC     0.49  78.7 Pg       15:29:37.1    -0.3                           T__                        _e            30885087
OJC     0.49  78.7 Sg       15:29:43.5    -0.2                           T__                        _e            30885088
OJC     0.49  78.7 Pg       15:29:37.1    -0.3                           T__                        _e            27674357
OJC     0.49  78.7 Sg       15:29:43.5    -0.2                           T__                        _e            27674358
OKC     0.65 244.0 Pb       15:29:41.8    -0.6                           T__                        _e            01294822
OKC     0.65 244.0 Sg       15:29:50.7     1.6                           T__            15.5  0.40  _e            01294823
OKC     0.65 244.0 Pb       15:29:41.8    -0.6                           T__                        __            27674359
OKC     0.65 244.0 Sg       15:29:50.7     1.6                           T__            15.5  0.40  __            27674360
LANS    1.01 164.5 Pg       15:29:47.1    -0.4                           T__                        _e            27674351
LANS    1.01 164.5 Sg       15:30:00.6    -0.0                           T__                        _e            27674352
LANS    1.01 164.5 Pg       15:29:47.1    -0.4                           T__                        _e            30430090
LANS    1.01 164.5 Sg       15:30:00.6    -0.0                           T__                        _e            30430091
MORC    1.04 250.8 Pb       15:29:48.8    -0.2                           T__                        _e            27674353
MORC    1.04 250.8 Sb       15:30:02.9    -0.2                           T__                        _e            27674354
NIE     1.07 130.9 Pg       15:29:47.8    -0.9                           T__                        _e            30885089
NIE     1.07 130.9 Sb       15:30:03.6    -0.6                           T__                        _e            30885090
NIE     1.07 130.9 Pg       15:29:47.8    -0.9                           T__                        _e            27674355
NIE     1.07 130.9 Sb       15:30:03.6    -0.6                           T__                        _e            27674356
KRLC    1.47 268.8 Pn       15:29:56.0     0.2                           T__                        _e            01294820
KRLC    1.47 268.8 Sn       15:30:16.0     0.3                           T__                        _e            01294821
KRLC    1.47 268.8 Pn       15:29:56.0     0.2                           T__                        __            27674349
KRLC    1.47 268.8 Sn       15:30:16.0     0.3                           T__                        __            27674350
STHS    1.59 115.8 Pb       15:29:58.1    -0.2                           T__                        _e            27674363
STHS    1.59 115.8 Sg       15:30:19.6     0.6                           T__                        _e            27674364
STHS    1.59 115.8 Pb       15:29:58.1    -0.2                           T__                        _e            30429545
STHS    1.59 115.8 Sg       15:30:19.6     0.6                           T__                        _e            30429546
STHS    1.59 115.8 Lg       15:30:22.4                                   ___                        _e            30429547
DPC     1.77 278.3 Pn       15:30:00.7     0.7                           T__                        _e            01294816
DPC     1.77 278.3 Sg       15:30:25.2     0.3                           T__             6.3  0.20  _e            01294817
DPC     1.77 278.3 Pn       15:30:00.7     0.7                           T__                        __            27674345
DPC     1.77 278.3 Sg       15:30:25.2     0.3                           T__             6.3  0.20  __            27674346
VRAC    1.80 243.8 Pb       15:30:01.7    -0.1                           T__                        _e            27674367
VRAC    1.80 243.8 Sg       15:30:25.9     0.2                           T__                        _e            27674368
UPC     1.99 282.2 Sg       15:30:31.7    -0.2                           T__             3.6  0.30  _e            01294827
UPC     1.99 282.2 Sg       15:30:31.7    -0.2                           T__             3.6  0.30  __            27674366
KOLS    2.41 118.5 Pb       15:30:13.1     0.7                           T__                        _e            30428999
TREC    2.46 251.6 Sb       15:30:45.7     1.6                           T__             4.2  0.30  _e            01294826
TREC    2.46 251.6 Sb       15:30:45.7     1.6                           T__             4.2  0.30  __            27674365
GOPC    2.76 267.2 Sg       15:30:55.8    -1.0                           T__             2.1  0.20  _e            01294818
GOPC    2.76 267.2 Sg       15:30:55.8    -1.0                           T__             2.1  0.20  __            27674347
PVCC    2.90 279.7 Sg       15:31:01.4     0.1                           T__             8.2  0.30  _e            01294825
PVCC    2.90 279.7 Sg       15:31:01.4     0.1                           T__             8.2  0.30  __            27674362
PRU     2.91 269.0 Sg       15:31:00.1    -1.5                           T__             2.8  0.40  _e            01294824
PRU     2.91 269.0 Sg       15:31:00.1    -1.5                           T__             2.8  0.40  __            27674361
KHC     3.70 256.5 Sg       15:31:24.9    -1.9                           T__                        _e            01294819
KHC     3.70 256.5 Sg       15:31:24.9    -1.9                           T__                        __            27674348

Event 16868088 Aegean Sea
   Date       Time        Err   RMS Latitude Longitude  Smaj  Smin  Az Depth   Err Ndef Nsta Gap  mdist  Mdist Qual   Author      OrigID
2010/12/21 15:30:56.60   0.10 0.400  40.4936   24.1028   2.1   1.8 129  15.0         19    9 119   0.18   1.09     ke CSEM      01406809
2010/12/21 15:30:56.70        0.540  40.4980   24.1232   2.8   1.0 113  17.1   2.0   12    6 182   0.20            ke THE       00980531
2010/12/21 15:30:56.90        0.400  40.5100   24.1300   0.8   0.7  -1  10.0   5.4   16      119                      ATH       00230327
2010/12/21 15:30:57.00   0.75 0.366  40.4955   24.1147 6.051 4.865 151  13.8  6.36   46   23 119   0.19   1.08 m i ke ISCJB     02145715
2010/12/21 15:30:56.86   0.94 0.280  40.5050   24.1099 3.940 3.277 145  16.5  8.21   46   23 118   0.20   1.08 m i ke ISC       01614152
 (#PRIME)

Magnitude  Err Nsta Author      OrigID
ML     1.7          CSEM      01406809
ML     1.7 0.2    5 THE       00980531
MD     2.6        6 ATH       00230327

Sta     Dist  EvAz Phase        Time      TRes  Azim AzRes   Slow   SRes Def   SNR       Amp   Per Qual Magnitude    ArrID
OUR     0.20 209.9 Pg       15:31:01.6     0.0                           T__                        _e            03901481
OUR     0.20 209.9 Sg       15:31:04.6    -0.1                           T__                        _e            03901482
OUR     0.20 209.9 Pg       15:31:01.6     0.0                           T__                        __            19862068
OUR     0.20 209.9 Sg       15:31:04.8     0.1                           T__           660.0        __            19862069
OUR     0.20 209.9 Pg       15:31:01.6     0.0                           T__                        __            27674314
OUR     0.20 209.9 Sg       15:31:04.8     0.1                           T__                        __            27674315
PLG     0.52 255.7 Pg       15:31:06.8    -0.5                           T__                        _e            03901483
PLG     0.52 255.7 Sg       15:31:14.4     0.1                           T__                        _e            03901484
PLG     0.52 255.7 Pg       15:31:06.8    -0.5                           T__                        _e            27674319
PLG     0.52 255.7 Sg       15:31:14.4     0.1                           T__                        _e            27674320
KAVA    0.58  31.9 Pg       15:31:08.1    -0.2                           T__                        __            19862066
KAVA    0.58  31.9 Sg       15:31:15.9    -0.2                           T__                        __            19862067
KAVA    0.58  31.9 Pg       15:31:08.1    -0.2                           T__                        __            27674310
KAVA    0.58  31.9 Sg       15:31:15.9    -0.2                           T__                        __            27674311
SOH     0.66 299.1 Pg       15:31:09.6    -0.2                           T__                        _e            03901485
SOH     0.66 299.1 Sb       15:31:19.5     0.7                           T__                        _e            03901486
SOH     0.66 299.1 Pg       15:31:09.7    -0.1                           T__                        __            19862072
SOH     0.66 299.1 Sb       15:31:19.5     0.7                           T__            67.5        __            19862073
SOH     0.66 299.1 Pg       15:31:09.7    -0.1                           T__                        __            27674323
SOH     0.66 299.1 Sb       15:31:19.5     0.7                           T__                        __            27674324
PAIG    0.67 209.9 Pg       15:31:09.8    -0.1                           T__                        _e            03901487
PAIG    0.67 209.9 Sg       15:31:18.5    -0.2                           T__                        _e            03901488
PAIG    0.67 209.9 Pg       15:31:09.8    -0.1                           T__                        __            19862070
PAIG    0.67 209.9 Sg       15:31:18.2    -0.5                           T__            72.5        __            19862071
PAIG    0.67 209.9 Pg       15:31:09.8    -0.1                           T__                        __            27674316
PAIG    0.67 209.9 Sg       15:31:18.2    -0.5                           T__                        __            27674317
SRS     0.73 327.4 Pb       15:31:11.3     0.2                           T__                        _e            03901489
SRS     0.73 327.4 Sg       15:31:20.5    -0.2                           T__                        _e            03901490
SRS     0.73 327.4 Pb       15:31:11.3     0.2                           T__                        __            19862074
SRS     0.73 327.4 Sg       15:31:20.6    -0.2                           T__            77.5        __            19862075
SRS     0.73 327.4 Pb       15:31:11.3     0.2                           T__                        __            27674325
SRS     0.73 327.4 Sg       15:31:20.6    -0.2                           T__                        __            27674326
HORT    0.78 277.2 Pg       15:31:11.8    -0.2                           T__                        _e            03901491
HORT    0.78 277.2 Sb       15:31:22.4     0.1                           T__                        _e            03901492
HORT    0.78 277.2 Pg       15:31:11.8    -0.2                           T__                        __            19862064
HORT    0.78 277.2 Sb       15:31:22.3     0.0                           T__            30.0        __            19862065
HORT    0.78 277.2 Pg       15:31:11.8    -0.2                           T__                        __            27674308
HORT    0.78 277.2 Sb       15:31:22.3     0.0                           T__                        __            27674309
NVR     0.86 347.5 Pb       15:31:13.4    -0.1                           T__                        _e            03901493
NVR     0.86 347.5 Sg       15:31:25.0    -0.1                           T__                        _e            03901494
NVR     0.86 347.5 Pb       15:31:13.4    -0.1                           T__                        _e            27674312
NVR     0.86 347.5 Sg       15:31:25.0    -0.1                           T__                        _e            27674313
SMTH    1.08  91.3 Pg       15:31:17.7    -0.1                           T__                        _e            03901495
SMTH    1.08  91.3 Sb       15:31:31.4     0.3                           T__                        _e            03901496
SMTH    1.08  91.3 Pg       15:31:17.7    -0.1                           T__                        _e            27674321
SMTH    1.08  91.3 Sb       15:31:31.4     0.3                           T__                        _e            27674322

Event 15925393 Sea of Japan
   Date       Time        Err   RMS Latitude Longitude  Smaj  Smin  Az Depth   Err Ndef Nsta Gap  mdist  Mdist Qual   Author      OrigID
2010/12/21 15:44:14.35   0.33 0.795  36.9240  134.5887 12.17 9.987 154 395.0  4.30   39   34  43   1.25  94.39 m i ke ISCJB     02145716
2010/12/21 15:44:14.50   0.10        36.9100  134.5900   1.1   0.9  -1 395.0   1.0                                    JMA       00348296
2010/12/21 15:44:15.31   0.89 0.630  36.8693  134.5544  12.0  10.2 124 392.5   9.4   29       85   2.99  94.45     uk IDC       16692972
2010/12/21 15:44:15.16   0.61 0.852  36.9402  134.6072 12.16 10.27 147 388.4  6.25   44   34  43   1.27  94.37 m i ke ISC       01614153
 (#PRIME)

Magnitude  Err Nsta Author      OrigID
mb     3.5       21 ISCJB     02145716
       3.6          JMA       00348296
mb     3.2 0.1   20 IDC       16692972
mb1    3.4 0.1   24 IDC       16692972
mb1mx  3.3 0.1   54 IDC       16692972
mbtmp  4.0 0.1   24 IDC       16692972
mb     3.7 0.3   21 ISC       01614153

Sta     Dist  EvAz Phase        Time      TRes  Azim AzRes   Slow   SRes Def   SNR       Amp   Per Qual Magnitude    ArrID
JOI     1.27 239.7 Pn       15:45:06.3     0.2                           T__                        __            05932974
JKSM    1.35 178.0 Pn       15:45:06.3    -0.2                           T__                        __            05932975
JKSM    1.35 178.0 S        15:45:47.4    -0.5                           T__                        __            05932976
JKY     1.37 162.8 Pn       15:45:06.7     0.0                           T__                        __            05932977
JKY     1.37 162.8 S        15:45:47.6    -0.5                           T__                        __            05932978
JKG     1.54 115.0 Pn       15:45:07.7     0.3                           T__                        __            05932979
JKG     1.54 115.0 S        15:45:49.5     0.1                           T__                        __            05932980
JWT     1.77 158.5 Pn       15:45:08.9     0.1                           T__                        __            05932981
JWT     1.77 158.5 S        15:45:51.5    -0.4                           T__                        __            05932982
JHG     2.05  63.1 Pn       15:45:11.0     0.7                           T__                        __            05932983
MAT     2.92  96.7 Pn       15:45:16.8    -0.0                           T__                        __            05955636
MAT     2.92  96.7 S        15:46:06.3    -0.3                           T__                        __            05955637
MJAR    2.92  96.8 Pn       15:45:17.338   0.5 275.4        10.00        T__ 143.2      10.0  0.33  __            58651805
JNU     4.89 219.9 Pn       15:45:35.625   0.1  61.3         7.70        T__  40.9       4.1  0.33  __            58651803
KSRS    5.36 277.5 Pn       15:45:41.15    0.8  98.2        10.70        T__  32.2       1.2  0.33  __            58651804
USRK    7.52 345.5 P        15:46:05.15    0.2 160.0        11.00        T__  18.0       1.0  0.33  __            58651817
ASAJ    9.40  37.8 Pn       15:46:23.975  -2.0 249.2        10.70        T__ 106.6      14.4  0.33  __            58651802
SONM   23.38 306.6 P        15:48:51.88    0.8 113.5         9.70        T__  13.1       1.9  0.73  __            58651813
SEY    28.22  17.2 P        15:49:34.1     0.4 238.8         8.50        T__   3.4       3.7  1.03  __            58651812
CMAR   36.28 249.3 P        15:50:43.1    -0.4  44.9         8.00        T__   8.4       0.9  0.68  __            58651796
CMAR   36.28 249.3 ScP      15:56:07.8     0.3  42.9         2.20        T__   4.9       0.5  0.77  __            58651797
ZALV   37.96 312.8 P        15:50:57.039  -0.0 110.3         8.30        T__   3.1       0.4  0.39  __            58651820
ZALV   37.96 312.8 PcP      15:53:02.55   -0.8  78.2         3.60        T__   5.8       1.0  0.52  __            58651821
ZALV   37.96 312.8 ScP      15:56:11.35   -1.9 101.7         3.40        T__   4.0       0.6  0.60  __            58651822
MKAR   39.53 301.3 P        15:51:09.65   -0.4  85.2         9.90        T__   7.1       0.6  0.54  __            58651806
MKAR   39.53 301.3 ScP      15:56:18.625  -0.8  65.1         5.80        T__   4.8       0.5  0.74  __            58651807
BVAR   46.58 311.5 P        15:52:04.962  -0.7  69.0         8.60        T__   5.8       0.3  0.40  __            58651794
BVAR   46.58 311.5 PcP      15:53:31.962  -0.4 109.9         4.10        T__   5.3       0.7  0.64  __            58651795
ILAR   52.48  32.0 P        15:52:49.7     0.3 266.6         6.20        T__  37.0       1.4  0.62  __            58651800
WRA    56.58 180.3 P        15:53:18.075  -0.9 356.2         7.50        T__  12.3       0.4  0.36  __            58651818
INK    56.92  26.3 P        15:53:21.375   0.6 298.5         5.00        T__  20.7       2.3  0.43  __            58651801
ASAR   60.28 180.7 P        15:53:43.162  -1.1 359.5         6.50        T__   3.9       0.2  0.48  __            58651793
ARCES  62.10 337.9 P        15:53:55.6    -0.1  51.9         7.90        T__   6.4       3.9  0.90  __            58651792
RES    63.98  13.0 P        15:54:08.05    0.2 308.1         6.90        T__  10.0       2.5  0.55  __            58651811
FINES  66.27 330.2 P        15:54:22.1    -0.5 104.5         6.10        T__   6.6       1.1  0.52  __            58651798
YKA    66.55  28.2 P        15:54:24.795   0.5 305.5         6.70        T__  15.1       0.6  0.67  __            58651819
STKA   68.77 173.6 P        15:54:41.05    2.7 303.7         7.30        T__   3.2       2.6  1.03  __            58651814
NB2    72.05 334.7 P        15:54:57.2    -0.6  43.9         6.20        T__             0.6  0.60  __            29274736
NOA    72.05 334.7 P        15:54:55.943  -1.8  43.8         5.90        T__   4.1       0.8  0.63  __            58651808
FRB    77.97  10.3 P        15:55:31.125   0.1 357.0         6.20        T__   4.1       4.9  0.96  __            58651799
NVAR   79.31  49.8 P        15:55:40.375   1.3 286.9         5.20        T__  10.0       1.0  0.61  __            58651809
PDAR   81.50  42.1 P        15:55:51.0     0.4 300.2         0.80        T__   9.1       0.9  0.63  __            58651810
ULM    82.44  30.0 P        15:55:54.775  -0.2 290.1         4.60        T__   5.6       3.6  0.83  __            58651816
TXAR   94.37  48.1 P        15:56:51.875  -0.2 298.2         2.90        T__   4.8       0.4  0.70  __            58651815

