DATA_TYPE BULLETIN IMS1.0:short
Reviewed ISC Bulletin
Event 17187412 Southern Sumatera
   Date       Time        Err   RMS Latitude Longitude  Smaj  Smin  Az Depth   Err Ndef Nsta Gap  mdist  Mdist Qual   Author      OrigID
2010/12/21 14:00:30.31  36.94 0.680  -3.1432  105.3663 645.8 212.1 140   0.0f         3      349  32.83  44.45     uk IDC       16692964
2010/12/21 14:00:38.98   1.26 1.160  -4.2464  105.3149 15.93   8.7  23  33.0f        11    8 214   1.16  43.73 m i ke ISCJB     02145708
2010/12/21 14:00:47.40   0.70 0.700  -4.9800  104.7000                  93.0  11.0           196                      DJA       01269813
2010/12/21 14:00:41.49   1.37 1.684  -4.4143  105.2068 17.34 9.383  29  35.0f        10    8 209   1.29  43.69 m i ke ISC       01614144
 (#PRIME)

Magnitude  Err Nsta Author      OrigID
mb     3.7 0.2    3 IDC       16692964
mb1    3.9 0.1    3 IDC       16692964
mb1mx  3.4 0.2   44 IDC       16692964
mbtmp  3.7 0.2    3 IDC       16692964
mb     3.6        3 ISCJB     02145708
M      3.3        5 DJA       01269813
MLv    3.3 0.4    5 DJA       01269813
mb     3.7 0.6    3 ISC       01614144

Sta     Dist  EvAz Phase        Time      TRes  Azim AzRes   Slow   SRes Def   SNR       Amp   Per Qual Magnitude    ArrID
MDSI    1.03 266.0 Pn       14:01:05.9     6.5                           ___             0.5        __            25886139
LWLI    1.29 242.3 Pn       14:01:04.4     1.2                           T__             3.4        __            25886138
KASI    1.31 212.7 Pn       14:01:03.9     0.6                           T__             1.7        __            25886136
KASI    1.31 212.7 Sn       14:01:17.4    -2.2                           T__             1.7        __            25886137
CGJI    2.24 167.5 Pn       14:01:17.0     0.9                           T__                        __            25886142
CGJI    2.24 167.5 Sn       14:01:44.4     1.9                           T__                        __            25886143
MNAI    2.25 271.3 Pn       14:01:17.7     1.5                           T__             2.6        __            25886140
MNAI    2.25 271.3 Sn       14:01:42.2    -0.5                           T__             2.6        __            25886141
WRA    32.30 121.0 P        14:07:04.92   -2.5 297.4         9.30        T__   4.3       0.1  0.37  __            58651597
ASAR   33.65 127.4 P        14:07:19.3     0.1 301.7         7.90        T__  26.4       0.7  0.28  __            58651595
STKA   43.69 133.1 P        14:08:43.525   0.2 296.6         9.00        T__   6.1       0.5  0.34  __            58651596

Event 15908362 Tonga Islands
   Date       Time        Err   RMS Latitude Longitude  Smaj  Smin  Az Depth   Err Ndef Nsta Gap  mdist  Mdist Qual   Author      OrigID
2010/12/21 14:03:25.05   0.76 1.150 -15.5339 -173.8750  37.5  17.3 144   0.0f        12      124  38.49 145.97     uk IDC       16692965
2010/12/21 14:03:25.07   0.51 1.226 -15.5139 -173.7880 24.56 9.307 148  10.0f        23   35 123   2.52  90.35 m i se ISCJB     02145709
2010/12/21 14:03:26.60   0.61 1.490 -15.4760 -173.7200  30.0  10.8 148  10.0f        21      124   2.44 146.02     se NEIC      01602459
2010/12/21 14:03:26.50   0.64 1.366 -15.4695 -173.6833 29.06 8.016 145  10.0f        24   35 123   2.41 146.04 m i se ISC       01614145
 (#PRIME)

Magnitude  Err Nsta Author      OrigID
mb     4.1 0.1   11 IDC       16692965
mb1    4.4 0.1   11 IDC       16692965
mb1mx  4.2 0.1   34 IDC       16692965
mbtmp  4.1 0.1   11 IDC       16692965
MS     4.4 0.2    2 IDC       16692965
Ms1    4.4 0.2    2 IDC       16692965
ms1mx  4.0 0.1   31 IDC       16692965
mb     4.5       17 ISCJB     02145709
mb     5.1        6 NEIC      01602459
mb     4.4 0.5   17 ISC       01614145

Sta     Dist  EvAz Phase        Time      TRes  Azim AzRes   Slow   SRes Def   SNR       Amp   Per Qual Magnitude    ArrID
AFI     2.41  50.2 Pn       14:04:04.369  -1.7 215.3         1.50        T__  21.7       8.7  0.33  __            58651598
AFI     2.41  50.2 Sg       14:04:43.869  -0.2  26.1        19.00        T__   3.9      17.5  0.33  __            58651599
AFI     2.41  50.2 Pn       14:04:03.95   -2.1                           T__                        _e            32822414
AFI     2.41  50.2 Sg       14:04:43.87   -0.2                           T__                        __            32822415
MSVF    8.24 253.0 Pn       14:05:27.09    0.8                           T__            56.0  1.30  _e            32822423
RAR    14.38 115.5 LR       14:11:30.482       290.0        33.40        ___          1007.9 19.65  __            58651610
DZM    19.92 247.8 Pn       14:08:00.58    0.3   6.5         1.10        T__   3.0       0.3  0.33  __            58651602
DZM    19.92 247.8 LR       14:14:51.554        12.5        34.80        ___          1692.9 20.82  __            58651603
PAE    23.20  98.8 T        14:32:36.8                                   ___             7.2  0.26  _e            30139670
PPT2   23.20  98.6 LQ       14:13:22.2                                   ___          4009.9 22.50  _e            30139672
PPT2   23.20  98.6 LR       14:14:18.0                                   ___           710.5 20.75  _e            30139673
PPT2   23.20  98.6 T        14:32:38.4                                   ___            15.7  0.32  _e            30139674
TIAR   23.42  98.5 T        14:32:54.0                                   ___            11.3  0.30  _e            30139681
TVO    23.52  99.0 T        14:33:01.6                                   ___             6.7  0.34  _e            30139682
TBI    24.13 112.7 LQ       14:13:46.0                                   ___          4608.9 22.75  _e            30139678
TBI    24.13 112.7 LR       14:15:00.2                                   ___          1282.1 25.50  _e            30139679
TBI    24.13 112.7 T        14:33:57.7                                   ___            54.4  0.24  _e            30139680
MEH    24.65  99.2 T        14:34:27.0                                   ___            12.8  0.26  _e            30139669
PMOR   24.88  92.4 T        14:34:37.8                                   ___            14.7  0.29  _e            30139671
VAH    25.12  93.0 T        14:34:55.5                                   ___            26.4  0.29  _e            30139683
RKT    37.23 107.9 LQ       14:19:17.8                                   ___           976.7 23.25  _e            30139675
RKT    37.23 107.9 LR       14:20:50.6                                   ___           801.5 23.00  _e            30139676
RKT    37.23 107.9 T        14:50:17.1                                   ___            26.6  0.34  _e            30139677
PMG    38.67 274.2 P        14:10:51.144   0.4 105.2        10.40        T__   4.4       4.3  0.75  __            58651608
STKA   43.77 239.9 P        14:11:31.6    -0.9  74.9         6.40        T__   9.4       5.3  0.79  __            58651611
WRAB   49.55 256.8 P        14:12:17.11   -0.9                           T__            25.1  1.40  __            32822434
WRA    49.56 256.8 P        14:12:15.4    -2.7  88.8         7.20        T__  16.9       1.7  0.60  __            58651613
ASAR   49.83 252.0 P        14:12:17.3    -2.9  85.0         8.20        T__  23.9      10.1  0.91  __            58651600
FITZ   57.93 258.1 P        14:13:18.45   -1.0                           T__            79.8  1.80  _e            32822420
SBA    63.16 184.6 P        14:13:54.02   -0.2                           T__            31.4  1.80  _e            32822428
NVAR   74.56  42.1 P        14:15:06.675   0.6 238.3         4.70        T__   7.4       0.6  0.61  __            58651606
QSPA   74.58 180.1 P        14:15:05.623   0.0  49.2         2.10        T__   4.1       2.3  0.29  __            58651609
SHPR   75.60  45.2 P        14:15:12.73    0.7                           T__            36.3  2.20  _e            32822429
TXAR   80.88  56.2 P        14:15:43.3     2.0 203.1         6.70        T__   5.1       0.4  0.81  __            58651612
COLA   82.48  10.8 P        14:15:48.31   -0.5                           T__             9.6  0.90  _e            32822418
PDAR   82.50  41.9 P        14:15:51.05    1.3 250.2         3.90        T__   6.2       1.1  0.79  __            58651607
SMCO   82.56  46.1 P        14:15:51.98    1.6                           T__            20.1  0.80  _e            32822430
ILAR   82.57  11.2 P        14:15:48.6    -0.7 230.3         6.20        T__  10.3       1.2  0.92  __            58651604
INK    88.40  13.9 P        14:16:19.25    1.0 193.5         6.90        T__   4.5       1.9  1.03  __            58651605
YKA    90.27  23.5 P        14:16:27.938   0.8 236.9         4.50        T__   9.9       0.9  0.94  __            58651614
BRTR  146.04 320.7 PKPab    14:23:08.635   0.9  73.1         5.00        T__   2.9       0.7  0.78  __            58651601

