Event 15820930 Banda Sea
   Date       Time        Err   RMS Latitude Longitude  Smaj  Smin  Az Depth   Err Ndef Nsta Gap  mdist  Mdist Qual   Author      OrigID
2010/12/21 16:15:28.40        0.910  -5.9200  129.0000                 311.0         44      316  33.90  66.60     uk BJI       16011134
2010/12/21 16:15:29.07   0.17 1.103  -5.8127  128.8631 3.833 2.823 158 300.0f       250  250  19   1.65  97.69 m i se ISCJB     02145722
2010/12/21 16:15:29.50   0.81        -5.8710  128.7560  14.3   6.8 116 312.0         46                               MOS       16742898
2010/12/21 16:15:29.78   1.17 1.300  -5.8587  128.8260  11.9   6.3  72 297.6  11.9   43       74   5.52 152.33     uk IDC       16692976
2010/12/21 16:15:30.60   0.19 0.950  -5.8210  128.8510   6.0   4.0  55 307.5         75       29   3.24 152.34     se NEIC      01602463
2010/12/21 16:15:31.31   0.01 1.560  -5.8600  128.8857   0.7   0.5  41 316.3   0.1   44            1.68  70.24     uk AUST      16827884
2010/12/21 16:15:32.00   0.20 1.800  -5.7300  129.0300                 314.0   2.0            66                      DJA       01269809
2010/12/21 16:15:33.62               -6.0394  128.9922                 413.5                                          KLM       00192412
2010/12/21 16:15:30.18   0.28 1.531  -5.8450  128.8893 6.444 4.998  61 300.0f       270  250  17   1.66 152.30 m i se ISC       01614159
 (#PRIME)

Magnitude  Err Nsta Author      OrigID
mb     4.4       39 BJI       16011134
mB     4.5       27 BJI       16011134
mb     4.4       63 ISCJB     02145722
mb     4.4       28 MOS       16742898
mb     3.9 0.1   21 IDC       16692976
mb1    4.0 0.1   27 IDC       16692976
mb1mx  3.9 0.0   37 IDC       16692976
mbtmp  4.6 0.1   27 IDC       16692976
mb     4.6       29 NEIC      01602463
M      4.5       39 DJA       01269809
mb     4.7 0.2   39 DJA       01269809
mB     5.1 0.3   14 DJA       01269809
MLv    4.7 0.6   11 DJA       01269809
       4.5 0.4   14 DJA       01269809
Mwp    5.9        1 DJA       01269809
mb     4.8          KLM       00192412
mb     4.4 0.3   63 ISC       01614159

Sta     Dist  EvAz Phase        Time      TRes  Azim AzRes   Slow   SRes Def   SNR       Amp   Per Qual Magnitude    ArrID
BNDI    1.66  37.6 Pn       16:16:17.02    2.6   1.7                     T__  35.4                  __            62673400
BNDI    1.66  37.6 Pn       16:16:17.0     2.6                           T__             5.7        __            25885961
BNDI    1.66  37.6 S        16:16:53.9     4.2                           T__             5.7        __            25885962
MSAI    2.48   0.9 Pn       16:16:23.4     2.3                           T__             0.7        __            25885963
MSAI    2.48   0.9 S        16:17:00.3    -1.4                           T__             0.7        __            25885964
NLAI    3.14 325.4 Pn       16:16:31.6     4.2                           ___             5.6        __            25885966
NLAI    3.14 325.4 S        16:17:17.6     4.4                           T__             5.6        __            25885967
SAUI    3.20 131.7 Pn       16:16:29.92    1.9   3.2                     T__  78.1                  __            62673426
SAUI    3.20 131.7 Pn       16:16:29.9     1.9                           T__             5.3        __            25885968
SAUI    3.20 131.7 Pn       16:16:29.75    1.8                           T__                        _e            32823382
FAKI    4.43  49.2 Pn       16:16:42.22    0.9   4.5                     T__ 227.3                  __            62673405
FAKI    4.43  49.2 Pn       16:16:42.5     1.2                           T__                        __            25885969
FAKI    4.43  49.2 S        16:17:35.6    -2.8                           T__                        __            25885970
FAKI    4.43  49.2 Pn       16:16:42.24    0.9                           T__                        _e            32823347
FAKI    4.43  49.2 S        16:17:21.26  -17.1                           ___                        _e            32823348
SANI    4.75 322.4 Pn       16:16:47.52    2.6   4.8                     T__  25.5                  __            62673425
SANI    4.75 322.4 Pn       16:16:47.5     2.6                           T__             0.4        __            25885971
LBMI    5.36 345.0 Pn       16:16:54.4     2.5                           T__                        __            25885972
SIJI    5.48  25.7 Pn       16:16:54.0     0.5  46.0        21.80        T__  57.5      13.4  0.33  __            58651883
SIJI    5.48  25.7 S        16:17:57.875  -2.6 254.4        23.40        T__  19.5      45.0  0.33  __            58651884
SWI     5.49  25.6 Pn       16:16:54.03    0.6   5.5                     T__  37.2                  __            62673429
SWI     5.49  25.6 Pn       16:16:54.4     0.9                           T__                        __            25885975
SWI     5.49  25.6 S        16:17:58.6    -1.9                           T__                        __            25885976
SOEI    6.00 229.4 Pn       16:17:01.02    1.3   6.0                     T__ 191.6                  __            62673427
SOEI    6.00 229.4 Pn       16:17:00.6     0.9                           T__             2.4        __            25885977
SOEI    6.00 229.4 Pn       16:17:00.74    1.0                           T__                        _e            32823386
SOEI    6.00 229.4 S        16:18:10.35   -1.5                           T__                        _e            32823387
TNTI    6.75 346.9 Pn       16:17:09.82    1.3                           T__                        _e            32823392
MMRI    7.16 246.8 Pn       16:17:15.869   2.3   7.2                     T__   7.8                  __            62673418
MMRI    7.16 246.8 Pn       16:17:16.4     2.9                           T__             0.6        __            25885978
MMRI    7.16 246.8 Pn       16:17:15.4     1.9                           T__                        _e            32823375
MTN     7.30 162.5 Pn       16:17:15.745   0.5   7.3                     T__  1000                  __            62673419
MTN     7.30 162.5 Pn       16:17:15.61    0.4                           T__                        _e            32823376
KDU     7.66 152.8 Pn       16:17:20.15    0.5   7.7                     T__ 373.4                  __            62673410
LUWI    7.75 307.8 Pn       16:17:24.17    3.4   7.8                     ___   4.1                  __            62673414
LUWI    7.75 307.8 Pn       16:17:23.27    2.5                           T__                        _e            32823368
GTOI    8.71 317.5 P        16:17:37.6    -0.1                           T__                        __            25885980
BKSI    8.74 273.0 Pn       16:17:35.2     2.3                           T__             0.2        __            25885979
KAPI    9.13 274.7 Pn       16:17:36.644  -1.1  95.6         4.40        T__   3.5       1.6  0.33  __            58651870
KAPI    9.13 274.7 P        16:17:40.2    -2.2                           T__                        _e            32823359
SPSI    9.28 281.2 P        16:17:45.9     2.0                           T__           565.1        __            25885982
MRSI    9.36 311.9 Pn       16:17:42.4     1.9                           T__                        __            25885981
TTSI    9.46 286.7 P        16:17:48.4     2.4                           T__            49.2  0.92  __            25885984
KNRA    9.77 180.7 Pn       16:17:45.87    0.3   9.8                     T__  53.7                  __            62673412
PCI    10.28 298.2 P        16:17:58.3     3.2                           ___                        __            25885985
MMPI   11.70 103.5 P        16:18:13.05    2.2  11.7                     T__   5.3                  __            62673417
GENI   11.70  74.4 P        16:18:11.52    0.6  11.7                     T__   6.1                  __            62673406
GENI   11.70  74.4 P        16:18:11.5     0.6                           T__          4123.1        __            25885988
JAY    12.24  74.8 P        16:18:18.011   1.1  12.2                     T__  15.4                  __            62673409
TWSI   12.25 255.7 Pn       16:18:15.0    -0.9                           T__                        __            25885989
FITZ   12.59 194.3 Pn       16:18:19.287  -0.6  25.3         9.60        T__  18.5       1.3  0.33  __            58651862
FITZ   12.59 194.3 S        16:20:37.737  -1.9  44.7        14.40        T__   3.2       3.3  0.33  __            58651863
KBKI   12.93 280.7 P        16:18:28.1     3.5                           ___            34.7  1.09  __            25885990
BBKI   14.20 279.0 Pn       16:18:42.1     2.8                           T__                        __            25885991
MTKI   14.79 288.7 Pn       16:18:47.8     1.5                           T__          2242.3        __            25885992
JAGI   14.85 259.0 P        16:18:45.52   -0.3  14.8                     T__   5.5                  __            62673408
JAGI   14.85 259.0 P        16:18:45.42   -0.3                           T__                        _e            32823357
TSM    14.91 312.2 Pn       16:18:49.194   1.4                           T__                        __            02875888
WRAB   14.98 159.7 P        16:18:47.6     0.5                           T__                        _i            60126871
WRAB   14.98 159.7 pmax                                                  ___            96.0  0.80  __            60126872
WRAB   14.98 159.7 P        16:18:47.52    0.5                           T__            25.0  0.40  _e            32823404
WRA    14.98 159.8 P        16:18:47.675   0.5 341.7        12.10        T__ 368.2       9.5  0.33  __            58651891
WRA    14.98 159.8 S        16:21:26.525  -4.2 344.9        18.50        T__   7.7       2.4  0.33  __            58651892
WRA    14.98 159.8 P        16:18:47.7     0.5                           T__                        __            60126873
WRA    14.98 159.8 S        16:21:26.5    -4.2                           T__                        __            60126875
WRA    14.98 159.8 pmax                                                  ___                        __            60126874
WRA    14.98 159.8 smax                                                  ___                        __            60126876
WC3    15.01 159.7 P        16:18:48.08    0.6                           T__            47.4  0.80  _e            32823401
MYLDM  15.09 316.4 Pn       16:18:51.02    1.3                           T__                        __            02875889
BLJI   15.30 262.1 Pn       16:18:55.2     2.9                           T__         27597.8        __            25885993
COEN   16.21 120.9 P        16:19:01.77    1.1  16.2                     T__ 447.1                  __            62673404
COEN   16.21 120.9 P        16:19:01.77    1.1                           T__           235.3  0.70  _e            32823342
SDKM   16.32 314.1 Pn       16:19:03.673  -0.6                           T__                        __            02875890
KKM    17.31 312.8 P        16:19:13.17    0.5  17.4                     T__  21.7                  __            62673411
KKM    17.31 312.8 P        16:19:13.138   0.5                           T__                        __            02875891
KKM    17.31 312.8 P        16:19:13.05    0.4                           T__            48.0  0.80  _e            32823361
PBKI   17.45 279.6 Pn       16:19:16.8    -0.6                           T__            83.8  1.18  __            25885995
KDM    17.48 316.3 P        16:19:14.068  -0.3                           T__                        __            02875892
QIS    17.95 145.6 P        16:19:20.095   0.7  18.0                     T__  59.8                  __            62673422
BTM    18.16 299.3 P        16:19:21.641  -0.1                           T__                        __            02875893
ASAR   18.36 165.3 P        16:19:24.65    0.8 346.0        11.80        T__ 801.2      11.4  0.33  __            58651852
ASAR   18.36 165.3 S        16:22:35.6    -2.2 346.9        21.20        T__  35.3       1.7  0.33  __            58651853
ASAR   18.36 165.3 ScP      16:26:45.3    -2.0 348.2         2.10        T__   8.4       0.6  0.33  __            58651854
ASAR   18.36 165.3 P        16:19:24.7     0.8                           T__                        __            60126877
ASAR   18.36 165.3 S        16:22:35.6    -2.2                           T__                        __            60126879
ASAR   18.36 165.3 pmax                                                  ___                        __            60126878
ASAR   18.36 165.3 smax                                                  ___                        __            60126880
ASAR   18.36 165.3 pmax                                                  ___                        __            60126881
AS01   18.38 165.1 P        16:19:24.87    0.9                           T__                        _e            32823326
PMG    18.45 102.2 P        16:19:25.444   0.6 130.0         1.00        T__  48.3      11.1  0.33  __            58651881
PMG    18.45 102.2 P        16:19:25.8     1.0                           T__                        _e            60126882
PMG    18.45 102.2 pmax                                                  ___                        __            60126883
PMG    18.45 102.2 P        16:19:25.745   1.0  18.4                     T__  23.5                  __            62673421
PMG    18.45 102.2 P        16:19:25.92    1.1                           T__            74.2  0.60  _e            32823378
SBUM   18.57 295.9 P        16:19:25.87   -0.3                           T__                        __            02875894
SBUM   18.57 295.9 P        16:19:26.07   -0.1                           T__            22.9  0.80  _e            32823383
WRKA   19.09 181.6 P        16:19:32.595   1.0  19.2                     T__  43.0                  __            62673431
MTSU   19.39 130.4 P        16:19:35.595   0.7  19.4                     T__  12.9                  __            62673420
KSM    19.93 290.8 P        16:19:40.97    0.4  19.9                     T__   8.4                  __            62673413
KSM    19.93 290.8 P        16:19:38.341  -2.2                           T__                        __            02875895
KSM    19.93 290.8 P        16:19:38.77   -1.8                           T__            19.4  0.80  _e            32823364
CISI   21.00 264.2 P        16:19:49.619  -1.7  21.0                     T__   8.9                  __            62673401
CISI   21.00 264.2 P        16:19:48.5    -2.8                           T__                        __            25885999
CISI   21.00 264.2 P        16:19:49.77   -1.5                           T__            44.4  0.60  _e            32823337
LEM    21.16 266.2 P        16:19:57.625   4.6 353.8         7.60        T__  12.2      38.8  0.69  __            58651873
LEM    21.16 266.2 P        16:19:57.6     4.6                           T__                        __            60126884
LEM    21.16 266.2 pmax                                                  ___            39.0  0.70  __            60126885
LEM    21.16 266.2 P        16:19:59.3     6.3                           ___                        __            25886000
CNJI   21.66 264.9 P        16:19:58.1     0.7                           T__           111.2  0.89  __            25886001
GIRL   21.89 218.8 P        16:20:00.72    1.5  21.9                     T__   3.7                  __            62673407
CBJI   21.92 267.3 P        16:20:00.2     0.5                           T__           174.6  0.88  __            25886002
CTA    22.03 131.6 P        16:20:01.8     1.2 314.7        11.90        T__  26.8      20.1  0.69  __            58651859
CTA    22.03 131.6 P        16:20:01.8     1.2                           T__                        __            60126886
CTA    22.03 131.6 pmax                                                  ___                        __            60126887
CTAO   22.03 131.6 P        16:20:01.9     1.3                           T__                        _e            60126888
CTAO   22.03 131.6 pmax                                                  ___            29.0  0.90  __            60126889
CTAO   22.03 131.6 P        16:20:01.88    1.3                           T__            29.3  0.90  _e            32823345
MEEK   22.88 204.2 P        16:20:07.895  -0.4  23.0                     T__   7.1                  __            62673415
RABL   23.24  87.0 P        16:20:12.69    0.9                           T__            70.3  0.60  _e            32823380
QLP    25.29 146.3 P        16:20:30.395   0.4  25.4                     T__   6.3                  __            62673423
MYKOM  26.13 286.1 P        16:20:33.603  -4.1                           T__                        __            02875896
KGM    26.70 286.3 P        16:20:38.714  -4.1                           T__                        __            02875897
BBOO   27.65 166.9 P        16:20:51.195   0.2  27.8                     T__  13.3                  __            62673399
BBOO   27.65 166.9 P        16:20:50.83   -0.1                           T__                        _e            32823331
BBOO   27.65 166.9 pP       16:21:49.3     1.1                           T__                        _e            32823332
RMQ    27.94 139.5 P        16:20:47.885  -5.8  28.0                     ___  10.0                  __            62673424
KTGM   28.01 292.9 P        16:20:48.679  -5.7                           ___                        __            02875898
STKA   28.50 156.9 P        16:20:59.0     0.5 337.4         5.60        T__  35.7       9.0  0.69  __            58651886
STKA   28.50 156.9 P        16:20:59.0     0.5                           T__                        __            60126890
STKA   28.50 156.9 pmax                                                  ___                        __            60126891
STKA   28.50 156.9 P        16:20:59.0     0.5  28.6                     T__  20.0                  __            62673428
STKA   28.50 156.9 P        16:20:58.79    0.3                           T__                        _e            32823389
STKA   28.50 156.9 pP       16:21:56.8     0.9                           T__                        _e            32823390
FRIM   28.68 287.7 P        16:20:55.773  -4.6                           ___                        __            02875899
PPI    28.94 279.6 P        16:21:01.4    -1.2                           T__            21.6  0.69  __            25886003
MNSI   30.00 281.8 P        16:21:11.1    -0.8                           T__           828.5        __            25886004
CMSA   30.02 150.4 P        16:21:12.695   0.8  30.1                     T__  34.2                  __            62673402
TPUB   30.07 344.7 P        16:21:10.42   -2.0                           T__            19.7  1.00  _e            32823395
HNR    30.98  98.5 P        16:21:20.719   0.2 173.4         3.60        T__   7.5      78.8  0.70  __            58651866
HNR    30.98  98.5 P        16:21:20.7     0.2                           T__                        __            60126894
HNR    30.98  98.5 pmax                                                  ___            79.0  0.70  __            60126895
HNR    30.98  98.5 P        16:21:20.11   -0.4                           T__            84.3  0.90  _e            32823355
PSI    31.13 285.2 P        16:21:19.975  -2.0 358.0        23.50        T__   5.5       6.6  0.55  __            58651882
PSI    31.13 285.2 P        16:21:19.0    -3.0                           T__                        _e            60126892
