Event 15977162 Albania
   Date       Time        Err   RMS Latitude Longitude  Smaj  Smin  Az Depth   Err Ndef Nsta Gap  mdist  Mdist Qual   Author      OrigID
2010/12/20 16:30:06.70        1.500  41.8060   19.8320                   9.0               5                          TIR       15378821
2010/12/20 16:30:08.60        0.300  41.9000   19.9200   3.9   3.4  -1   7.0   6.0    6      293                      ATH       00230308
2010/12/20 16:30:09.05   0.42 1.364  41.8704   19.9026 3.813 3.229 153   3.8  5.17   94   54  58   0.50   2.85 m i ke ISCJB     02145582
2010/12/20 16:30:09.50   0.16 0.960  41.8705   19.8638   3.3   2.7  52   2.0         41   25 101   0.47   2.87     ke CSEM      01398086
2010/12/20 16:30:09.70   0.20 0.580  41.8088   19.8215   0.4   0.5   0  12.1   0.8   28   14 114   0.45   1.55     ke PDG       15418822
2010/12/20 16:30:09.80   0.34        41.8600   19.8500   0.0   0.0      12.1   3.4   18    9       0.51   2.88     ke BEO       16102243
2010/12/20 16:30:09.59   1.00 0.874  41.8167   19.8336 3.195 2.351  61  10.3  9.07   95   55  64   0.46   4.17 m i ke ISC       01613989
 (#PRIME)

Magnitude  Err Nsta Author      OrigID
ML     2.5          TIR       15378821
MD     3.1        4 ATH       00230308
ML     2.6          CSEM      01398086
ML     2.2 0.1   11 PDG       15418822
ML     2.1        1 BEO       16102243

Sta     Dist  EvAz Phase        Time      TRes  Azim AzRes   Slow   SRes Def   SNR       Amp   Per Qual Magnitude    ArrID
ULC     0.46 288.6 Pg       16:30:18.0    -0.7                           T__                        ci            30137421
ULC     0.46 288.6 Sg       16:30:25.6     0.8                           T__           100.0        _e            30137422
ULC     0.46 288.6 Pg       16:30:17.7    -1.0                           T__                        __            27596469
ULC     0.46 288.6 Pg       16:30:18.0    -0.7                           T__                        ci            27596470
ULC     0.46 288.6 Sg       16:30:25.6     0.8                           T__                        _e            27596471
TIR     0.47 177.1 Pg       16:30:16.39   -2.4                           T__                        _i            29392277
TIR     0.47 177.1 Sb       16:30:27.55    0.7                           T__                        _i            29392278
TIR     0.47 177.1 Pg       16:30:18.5    -0.3                           T__                        _e            47009882
TIR     0.47 177.1 Sb       16:30:27.8     0.9                           T__                        _e            47009883
TIR     0.47 177.1 Sb       16:30:28.0     1.1                           T__                        __            00700870
TIR     0.47 177.1 Pg       16:30:18.9     0.1                           T__                        _e            03901227
TIR     0.47 177.1 Sb       16:30:27.2     0.3                           T__                        _e            03901228
TIR     0.47 177.1 Pg       16:30:18.5    -0.3                           T__                        _e            27596464
TIR     0.47 177.1 Pg       16:30:18.9     0.1                           T__                        _e            27596465
TIR     0.47 177.1 Sb       16:30:27.2     0.3                           T__                        _e            27596466
PDG     0.75 325.1 Pg       16:30:23.0    -1.1                           T__                        _e            47009876
PDG     0.75 325.1 Sg       16:30:33.9     0.0                           T__                        _e            47009877
PDG     0.75 325.1 Sn       16:30:36.7    -0.9                           T__                        __            00700872
PDG     0.75 325.1 Pg       16:30:23.6    -0.5                           T__                        di            27596451
PDG     0.75 325.1 Sg       16:30:33.9     0.0                           T__                        _e            27596452
TTG     0.75 325.1 Pg       16:30:23.6    -0.5                           T__                        di            30137419
TTG     0.75 325.1 Sb       16:30:35.4     0.4                           T__           133.0        _e            30137420
PVY     0.78   6.8 Pg       16:30:24.4    -0.3                           T__                        ci            30137417
PVY     0.78   6.8 Sb       16:30:36.6     0.5                           T__            75.0        _e            30137418
PVY     0.78   6.8 Pg       16:30:24.4    -0.3                           T__                        ci            27596458
PVY     0.78   6.8 Sb       16:30:36.6     0.5                           T__                        _e            27596459
BUM     0.85 305.0 Pg       16:30:25.5    -0.5                           T__                        di            30137403
BUM     0.85 305.0 Sb       16:30:38.8     0.8                           T__           126.0        _e            30137404
BUM     0.85 305.0 Pg       16:30:25.5    -0.5                           T__                        di            27596431
BUM     0.85 305.0 Sb       16:30:38.8     0.8                           T__                        _e            27596432
ZATK    0.86  42.7 Pg       16:30:25.6    -0.6                           T__                        __            27596474
PEJK    0.89  21.7 Pg       16:30:26.2    -0.5                           T__                        __            27596454
CEME    1.00 317.3 Pg       16:30:28.5    -0.3                           T__                        ci            30137405
CEME    1.00 317.3 Sn       16:30:44.3     0.5                           T__           145.0        _e            30137406
CEME    1.00 317.3 Pg       16:30:28.5    -0.3                           T__                        ci            27596433
CEME    1.00 317.3 Sn       16:30:44.3     0.5                           T__                        _e            27596434
BEY     1.05   2.4 Pb       16:30:29.6    -0.4                           T__                        di            27596429
BEY     1.05   2.4 Sn       16:30:45.7     0.4                           T__                        _e            27596430
IVA     1.05   2.4 Pb       16:30:29.6    -0.4                           T__                        di            30137409
IVA     1.05   2.4 Sn       16:30:45.7     0.4                           T__            33.0        _e            30137410
NKME    1.15 325.8 Pb       16:30:31.1    -0.5                           T__                        di            30137411
NKME    1.15 325.8 Sn       16:30:49.1     1.5                           T__            54.0        _e            30137412
NKME    1.15 325.8 Pb       16:30:31.1    -0.5                           T__                        di            27596447
NKME    1.15 325.8 Sn       16:30:49.1     1.5                           T__                        _e            27596448
NKY     1.18 328.2 Pb       16:30:31.9    -0.1                           T__                        ci            30137413
NKY     1.18 328.2 Sn       16:30:50.2     1.9                           T__            45.0        _e            30137414
NKY     1.18 328.2 Pb       16:30:31.9    -0.1                           T__                        ci            27596449
NKY     1.18 328.2 Sn       16:30:50.2     1.9                           T__                        _e            27596450
HCY     1.18 302.8 Pb       16:30:31.2    -0.8                           T__                        ci            30137407
HCY     1.18 302.8 Sn       16:30:48.2    -0.0                           T__            77.0        _e            30137408
HCY     1.18 302.8 Pb       16:30:31.2    -0.8                           T__                        ci            27596439
HCY     1.18 302.8 Sn       16:30:48.2    -0.0                           T__                        _e            27596440
SKO     1.21  82.1 Pn       16:30:31.6    -0.9                           T__                        _e            47009880
SKO     1.21  82.1 Sg       16:30:48.6     0.1                           T__                        _e            47009881
SKO     1.21  82.1 Pn       16:30:31.6    -0.9                           T__                        _e            27596462
SKO     1.21  82.1 Sg       16:30:48.6     0.1                           T__                        _e            27596463
GJIK    1.35  61.1 Pg       16:30:35.5    -0.1                           T__                        __            27596437
TREB    1.42 309.7 Sn       16:30:53.8    -0.4                           T__                        _e            47009884
TREB    1.42 309.7 Sn       16:30:53.8    -0.4                           T__                        _e            27596468
SJES    1.45   4.0 Pn       16:30:35.7    -0.2                           T__                        _e            47009878
SJES    1.45   4.0 Sn       16:30:54.6    -0.4                           T__                        _e            47009879
SJES    1.45   4.0 Pn       16:30:35.7    -0.2                           T__                        _e            27596460
SJES    1.45   4.0 Sn       16:30:54.6    -0.4                           T__                        _e            27596461
UPM     1.55 334.0 Pb       16:30:38.0    -0.4                           T__                        di            30137423
UPM     1.55 334.0 Sg       16:31:00.9     1.5                           T__            19.0        _e            30137424
UPM     1.55 334.0 Pb       16:30:38.0    -0.4                           T__                        di            27596472
UPM     1.55 334.0 Sg       16:31:00.9     1.5                           T__                        _e            27596473
PLE     1.55 347.9 Pb       16:30:38.8     0.4                           T__                        di            30137415
PLE     1.55 347.9 Sg       16:31:01.0     1.6                           T__            62.0        _e            30137416
PLE     1.55 347.9 Pb       16:30:38.8     0.4                           T__                        di            27596456
PLE     1.55 347.9 Sg       16:31:01.0     1.6                           T__                        _e            27596457
NEST    1.68 146.4 Pb       16:30:41.2     0.7                           T__                        _e            03901229
NEST    1.68 146.4 Sg       16:31:04.0     0.6                           T__                        _e            03901230
NEST    1.68 146.4 Pb       16:30:41.2     0.7                           T__                        _e            27596445
NEST    1.68 146.4 Sg       16:31:04.0     0.6                           T__                        _e            27596446
IVAS    1.77   7.5 Pn       16:30:41.2     0.8                           T__                        _e            47009872
IVAS    1.77   7.5 Sb       16:31:04.5    -0.1                           T__                        _e            47009873
IVAS    1.77   7.5 Pn       16:30:41.2     0.8                           T__                        _e            27596441
IVAS    1.77   7.5 Sb       16:31:04.5    -0.1                           T__                        _e            27596442
BARS    1.78  55.1 Pb       16:30:41.9    -0.3                           T__                        _e            47009868
BARS    1.78  55.1 Sb       16:31:03.9    -0.7                           T__                        _e            47009869
PENT    1.90 148.2 Pb       16:30:44.3    -0.0                           T__                        _e            03901231
PENT    1.90 148.2 Pb       16:30:44.3    -0.0                           T__                        _e            27596455
PE1     2.08 241.7 Pn       16:30:42.0    -2.4                           T__                        _e            27596453
GRG     2.11 113.1 Pn       16:30:46.1     1.1                           T__                        _e            03901232
GRG     2.11 113.1 Pn       16:30:46.1     1.1                           T__                        _e            27596438
DIVS    2.28   2.9 Pn       16:30:47.8     0.4                           T__                        _e            47009870
DIVS    2.28   2.9 Sn       16:31:14.4    -1.2                           T__                        _e            47009871
DIVS    2.28   2.9 Pn       16:30:47.8     0.4                           T__                        _e            27596435
DIVS    2.28   2.9 Sn       16:31:14.4    -1.2                           T__                        _e            27596436
KUBS    2.92  26.8 Pn       16:30:55.6    -0.5                           T__                        _e            47009874
KUBS    2.92  26.8 Sn       16:31:29.2    -2.1                           T__                        _e            47009875
KUBS    2.92  26.8 Pn       16:30:55.6    -0.5                           T__                        _e            27596443
KUBS    2.92  26.8 Sn       16:31:29.2    -2.1                           T__                        _e            27596444
GZR     4.17  29.9 Pn       16:31:13.3     0.1                           T__                        __            00700874

