Event 14213517 Southern Sumatera
   Date       Time        Err   RMS Latitude Longitude  Smaj  Smin  Az Depth   Err Ndef Nsta Gap  mdist  Mdist Qual   Author      OrigID
2010/01/01 18:29:40.70        3.490  -2.2000  100.5000                  10.0          9      321  32.10  50.10     uk BJI       14211227
2010/01/01 18:29:40.80   0.30 2.000  -2.2700  100.3800                  10.0f                192                      DJA       15298055
2010/01/01 18:29:41.63   0.47 0.880  -1.9075  101.1342  19.0  11.5  50   0.0f        34       81   5.08 145.06     uk IDC       16654495
2010/01/01 18:29:43.70   1.35 1.624  -1.8303  101.0938 11.96 4.203 145  22.7  9.91  211  224  71   0.95  99.56 m i se ISCJB     00508798
2010/01/01 18:29:45.20   4.18 1.430  -1.9000  101.1360  17.9   8.6  51  27.4  28.8   54       35   5.07 145.07     se NEIC      16339033
2010/01/01 18:29:45.30   1.30        -1.8710  101.2830  15.6   6.6 119  33.0         58                               MOS       14580947
2010/01/01 18:29:43.81   0.73 1.946  -1.9367  100.8838 7.951 4.235  53  15.7  4.02  212  224  35   1.10 145.03 m i se ISC       00011687
 (#PRIME)

Magnitude  Err Nsta Author      OrigID
mb     4.4        7 BJI       14211227
mB     5.0        5 BJI       14211227
Ms     4.7        2 BJI       14211227
Ms7    4.5        2 BJI       14211227
M      4.8       24 DJA       15298055
mb     4.7 0.2   22 DJA       15298055
mB     5.4 0.5    4 DJA       15298055
MLv    4.9 0.2   24 DJA       15298055
       4.8 0.5    4 DJA       15298055
mb     4.4 0.1   25 IDC       16654495
mb1    4.5 0.1   26 IDC       16654495
mb1mx  4.4 0.1   31 IDC       16654495
mbtmp  4.4 0.1   26 IDC       16654495
ML     3.4 0.3    1 IDC       16654495
MS     3.7 0.1   13 IDC       16654495
Ms1    3.7 0.1   13 IDC       16654495
ms1mx  3.4 0.1   34 IDC       16654495
mb     4.5       51 ISCJB     00508798
MS     3.8       14 ISCJB     00508798
mb     4.3       12 NEIC      16339033
mb     4.8       19 MOS       14580947
mb     4.7 0.2   50 ISC       00011687
MS     3.9 0.3   14 ISC       00011687

Sta     Dist  EvAz Phase        Time      TRes  Azim AzRes   Slow   SRes Def   SNR       Amp   Per Qual Magnitude    ArrID
PDSI    1.10 337.5 Pb       18:30:02.5    -2.1                           T__            22.7        __            27768234
PDSI    1.10 337.5 Sn       18:30:19.9     0.3                           T__            22.7        __            27768235
SDSI    1.14  28.6 Pg       18:30:07.2     1.4                           T__            12.2        __            27768236
PPI     1.55 341.7 Pn       18:30:10.9     0.1                           T__            13.4        __            27768237
PPI     1.55 341.7 Pn       18:30:10.35   -0.4   1.7                     T__ 292.5                  __            62601931
RGRI    2.14  42.6 Pg       18:30:23.1    -1.9                           T__             7.5        __            27768240
RGRI    2.14  42.6 Sg       18:30:59.4     6.6                           ___             7.5        __            27768241
BKNI    2.25   4.0 Pg       18:30:26.3    -0.8                           T__            18.9        __            27768238
BKNI    2.25   4.0 Sg       18:30:59.1     2.7                           T__            18.9        __            27768239
BKNI    2.25   4.0 Pg       18:30:26.22   -0.8   2.5                     T__  23.8                  __            62601921
BKNI    2.25   4.0 Sg       18:30:59.22    2.9   2.5                     T__   8.3                  __            62601922
JMBI    2.77  83.8 Pb       18:30:32.8    -0.3                           T__            13.1        __            27768244
JMBI    2.77  83.8 Sg       18:31:17.1     4.1                           T__            13.1        __            27768245
MNAI    3.17 139.4 Pn       18:30:32.9    -0.3                           T__             9.0        __            27768242
MNAI    3.17 139.4 Sb       18:31:19.1     0.7                           T__             9.0        __            27768243
MNAI    3.17 139.4 Pn       18:30:32.22   -1.0   3.1                     T__  12.8                  __            62601930
LHSI    3.24 125.5 Pb       18:30:37.1    -3.9                           ___             3.4        __            27768246
MDSI    4.15 127.7 Pn       18:30:46.4    -0.2                           T__             0.8        __            27768247
BTDF    4.37  41.4 Pb       18:30:54.47   -5.8   4.6                     ___  26.4                  __            62601923
LWLI    4.41 134.1 Pn       18:30:50.3     0.1                           T__             3.2        __            27768249
GSI     4.62 314.2 Pn       18:30:50.1    -2.9                           ___             1.2        __            27768248
TPRI    4.62  52.1 Pn       18:30:57.3     4.3                           ___             0.8        __            27768253
KLSI    4.71 125.6 Pn       18:30:54.3    -0.1                           T__             1.0        __            27768250
MYKOM   4.74  38.7 x        18:30:58.2                                   ___             0.7        __            27768255
KLI     4.92 126.3 Pn       18:30:58.9     1.7                           T__             1.7        __            27768252
KASI    5.07 134.8 Pn       18:30:58.2    -1.0                           T__             0.8        __            27768254
PSI     5.10 337.4 x        18:30:59.3                                   ___             0.4        __            27768251
PSI     5.10 337.4 Pn       18:30:59.0    -0.8                           T__                        __            50542091
PSI     5.10 337.4 Lg       18:32:21.63                                  ___                        __            50542092
PSI     5.10 337.4 Pn       18:30:59.0    -0.8 161.1        11.50        T__   5.9       1.3  0.33  __            57923914
PSI     5.10 337.4 Lg       18:32:21.625       203.6        17.70        ___   2.7       1.7  0.33  __            57923915
PSI     5.10 337.4 LR       18:33:29.564       146.9        44.90        ___           522.8 19.45  __            57923916
PSI     5.10 337.4 Pn       18:31:01.061   1.3   5.2                     T__   5.3                  __            62601932
BLSI    5.53 128.2 Pn       18:31:08.1     2.5                           T__             0.5        __            27768256
TPTI    6.35 324.3 Pn       18:31:15.9    -1.0                           T__             3.2        __            27768257
IPM     6.38   1.3 x        18:31:20.1                                   ___             0.4        __            27768258
IPM     6.38   1.3 Pn       18:31:20.34    3.1                           ___            22.2  0.60  _e            50542070
IPM     6.38   1.3 Sg       18:33:09.19    0.6                           T__                        _e            50542071
CGJI    6.68 134.2 Pn       18:31:19.0    -2.3                           T__             0.2        __            27768259
TPI     6.81  97.0 Pn       18:31:23.1    -0.1                           T__             0.3        __            27768260
KULM    7.18 358.1 x        18:31:29.8                                   ___             0.3        __            27768261
KULM    7.18 358.1 Pn       18:31:30.16    1.9                           T__            11.3  0.60  _e            50542076
KULM    7.18 358.1 Sn       18:32:47.72   -1.9                           T__                        _e            50542077
KULM    7.18 358.1 Sg       18:33:33.06   -1.4                           T__                        _e            50542078
DBJI    7.43 128.3 Pn       18:31:32.1     0.3                           T__             0.3        __            27768262
LEM     8.29 126.1 Pn       18:31:46.2     2.6                           T__            40.8  1.21  __            27768263
CISI    8.88 129.2 Pn       18:31:49.0    -2.7                           T__            68.9  0.60  __            27768264
CISI    8.88 129.2 Pn       18:31:49.42   -2.2   8.9                     T__   8.6                  __            62601924
CMJI    9.51 127.9 Pn       18:31:56.4    -3.9                           ___            62.4  2.01  __            27768265
TGJI    9.56 121.1 x        18:32:03.3                                   ___            29.0  1.57  __            27768266
KPJI    9.64 124.0 Pn       18:32:03.5     1.4                           T__            31.7  0.89  __            27768267
CLJI    9.93 125.6 x        18:32:06.9                                   ___            60.4  1.18  __            27768268
KSM    10.01  70.3 Pn       18:32:04.31   -2.9                           T__                        __            50542075
UGM    11.29 122.1 Pn       18:32:23.619  -1.0  11.3                     T__   8.1                  __            62601935
SBUM   12.14  69.0 x        18:32:42.2                                   ___            20.0  1.34  __            27768269
PWJI   12.44 119.4 Pn       18:32:38.1    -2.3                           T__            28.0  1.30  __            27768270
KMMI   13.99 111.7 Pn       18:32:55.8    -5.8                           ___                        __            27768271
GMJI   14.00 117.2 Pn       18:33:03.6     1.9                           T__            18.1  2.34  __            27768272
BBKI   14.02  96.5 P        18:33:09.3    -0.6                           T__                        __            27768273
JAGI   14.72 116.6 Pn       18:33:09.97   -1.6  14.8                     T__   7.4                  __            62601928
SRBI   15.52 113.7 Pn       18:33:17.7    -4.5                           T__                        __            27768274
CM31   20.36 354.7 P        18:34:18.87   -1.0                           T__             4.0  0.70  _e            50542059
CMAR   20.36 354.7 P        18:34:18.65   -1.2                           T__                        __            50542060
CMAR   20.36 354.7 PcP      18:38:35.05    2.2                           T__                        __            50542061
CMAR   20.36 354.7 P        18:34:18.65   -1.2 186.5        10.40        T__  31.9       4.4  0.74  __            57923886
CMAR   20.36 354.7 PcP      18:38:35.05    2.2 210.2         4.00        T__   6.2       0.6  0.60  __            57923887
CMAR   20.36 354.7 LR       18:42:11.781       174.1        36.90        ___           188.7 18.33  __            57923888
CHTO   20.71 354.8 P        18:34:21.6    -2.1                           T__                        __            18251555
CHTO   20.71 354.8 pmax                                                  ___             2.0  0.80  __            18251556
CHTO   20.71 354.8 P        18:34:21.57   -2.1                           T__             1.6  0.80  __            50542058
SLVN   23.32   7.1 P        18:34:50.02   -1.4                           T__             3.9  0.70  _e            50542095
H08S2  28.84 257.7 T        19:04:41.697        81.1        75.20        ___  30.5                  __            57923897
H08S3  28.85 257.7 T        19:04:46.937        81.1        75.20        ___  30.4                  __            57923898
H08S1  28.86 257.7 T        19:04:45.53         81.1        75.20        ___  25.6                  __            57923896
ODAN   31.45 336.5 P        18:36:03.2    -1.8                           T__            13.1  0.46  _e            08739511
TAPN   31.76 337.4 P        18:36:06.1    -1.8                           T__            63.9  1.00  _e            08739514
RAMN   31.85 335.3 P        18:36:07.2    -1.4                           T__                        _e            08739513
JIRN   32.65 335.4 P        18:36:13.8    -1.9                           T__            28.9  0.76  _e            08739509
LSA    32.81 344.2 P        18:36:16.5    -0.7                           T__                        __            18251557
LSA    32.81 344.2 P        18:36:16.46   -0.7                           T__                        __            50542079
PKI    32.90 334.1 P        18:36:16.0    -1.9                           T__             6.3  0.58  _e            08739512
GUN    33.00 335.1 P        18:36:16.6    -2.2                           T__            33.3  0.58  _e            08739508
ENH    33.06  13.7 P        18:36:19.42    0.5                           T__                        __            50542066
DMN    33.07 333.8 P        18:36:17.4    -1.9                           T__                        _e            08739506
KKN    33.15 334.2 P        18:36:17.7    -2.2                           T__            11.4  0.64  _e            08739510
GKN    33.62 333.5 P        18:36:21.9    -2.0                           T__                        _e            08739507
NWAO   34.44 155.3 P        18:36:30.47   -0.4                           T__                        __            50542089
NWAO   34.44 155.3 P        18:36:30.475  -0.4 315.0         4.30        T__   2.8       7.6  0.88  __            57923912
WRKA   35.02 133.3 P        18:36:37.795   1.7  35.1                     T__   4.4                  __            62601936
H01W3  35.03 160.8 T        19:13:18.947       336.6        75.70        ___  56.5                  __            57923895
H01W2  35.04 160.8 T        19:13:20.039       336.6        75.70        ___  52.7                  __            57923894
H01W1  35.04 160.8 T        19:13:18.269       336.6        75.70        ___  45.2                  __            57923893
XAN    36.58  11.2 P        18:36:49.1    -0.1                           T__                        __            14835600
XAN    36.58  11.2 pmax                                                  ___             8.0  0.50  __            14835601
XAN    36.58  11.2 pmax                                                  ___            33.0  5.40  __            14835602
WRA    37.27 121.1 P        18:36:52.62   -2.7                           T__                        __            50542105
WRA    37.27 121.1 P        18:36:52.62   -2.7 305.0         8.70        T__  17.6       2.9  0.79  __            57923930
WRAB   37.27 121.1 P        18:36:52.9    -2.5                           T__                        _e            18251559
AS31   38.58 126.7 P        18:37:02.96   -3.4                           ___                        _e            50542049
ASAR   38.58 126.8 P        18:37:03.75   -2.6                           T__                        __            50542050
ASAR   38.58 126.8 PcP      18:39:20.75    1.8                           T__                        __            50542051
ASAR   38.58 126.8 S        18:42:56.95   -5.2                           T__                        __            50542052
ASAR   38.58 126.8 P        18:37:03.75   -2.6 305.1         7.90        T__  33.3      10.0  0.86  __            57923880
ASAR   38.58 126.8 PcP      18:39:20.75    1.8 300.6         2.30        T__   6.2       1.2  0.62  __            57923881
ASAR   38.58 126.8 S        18:42:56.95   -5.2 296.2        14.70        T__   5.8       0.7  0.94  __            57923882
JNU    44.92  36.5 LR       18:57:54.741       306.1        37.80        ___            88.2 18.68  __            57923900
KSAR   46.49  29.9 P        18:38:09.55   -0.9                           T__                        __            50542074
KSRS   46.52  29.9 P        18:38:09.55   -1.1 224.5         7.00        T__   4.0       0.6  0.67  __            57923902
KSRS   46.52  29.9 LR       19:02:04.009       155.0        41.90        ___            24.2 18.82  __            57923903
PMG    46.60 101.1 P        18:38:09.64   -2.1                           T__                        __            50542090
PMG    46.60 101.1 LR       18:57:54.456        59.8        36.50        ___            46.0 19.05  __            57923913
KSH    47.16 333.6 P        18:38:15.3    -0.6                           T__                        _e            14835589
KSH    47.16 333.6 sP       18:38:23.4     0.7                           T__                        _e            14835590
KSH    47.16 333.6 PP       18:40:05.3    -1.6                           T__                        _e            14835591
KSH    47.16 333.6 S        18:45:07.3    -0.8                           T__                        _e            14835592
KSH    47.16 333.6 sS       18:45:15.1    -1.1                           T__                        _e            14835593
KSH    47.16 333.6 SS       18:48:29.0    -6.5                           T__                        _e            14835594
KSH    47.16 333.6 LR                                                    ___           150.0  5.70  __            14835597
KSH    47.16 333.6 LR                                                    ___           140.0  5.50  __            14835598
KSH    47.16 333.6 LR                                                    ___           200.0  5.10  __            14835599
KSH    47.16 333.6 pmax                                                  ___             3.0  0.60  __            14835595
KSH    47.16 333.6 pmax                                                  ___            51.0  4.80  __            14835596
HTT    47.42 135.6 P        18:38:17.54   -0.3  47.5                     T__   4.2                  __            62601927
CTAO   47.83 115.5 P        18:38:19.4    -1.8                           T__                        __            18251566
CTAO   47.83 115.5 P        18:38:19.43   -1.8                           T__                        __            50542063
QLP    48.26 124.5 P        18:38:27.395   2.9  48.3                     T__   7.9                  __            62601933
STKA   48.53 132.2 P        18:38:25.24   -1.2                           T__             1.8  0.70  _e            50542098
STKA   48.53 132.2 P        18:38:25.3    -1.2 303.8         7.40        T__  18.2       8.6  0.74  __            57923922
STKA   48.53 132.2 LR       18:57:44.344       265.7        34.80        ___           113.3 19.15  __            57923923
STKA   48.53 132.2 P        18:38:27.95    1.5  48.6                     T__   8.4                  __            62601934
ULHL   49.31 335.9 P        18:38:36.0     3.5                           ___                        _i            18251569
ULHL   49.31 335.9 P        18:38:36.01    3.5                           ___   5.2                  __            19590510
SONM   49.80   4.9 P        18:38:34.66   -1.4                           T__                        __            50542096
SONM   49.80   4.9 PcP      18:39:56.42   -0.3                           T__                        __            50542097
SONM   49.80   4.9 P        18:38:34.66   -1.4 186.7        10.80        T__  11.8       1.1  0.61  __            57923920
SONM   49.80   4.9 PcP      18:39:56.42   -0.3 182.5         4.00        T__  13.2       1.7  0.44  __            57923921
ULN    49.89   5.4 P        18:38:36.59   -0.2                           T__             3.4  1.10  _e            50542103
UCH    50.02 334.5 P        18:38:36.46   -1.7                           T__  12.7                  __            19590509
TKM2   50.13 335.9 P        18:38:37.0    -1.7                           T__                        _e            18251574
TKM2   50.13 335.9 pmax                                                  ___            24.0  0.80  __            18251575
TKM2   50.13 335.9 P        18:38:36.77   -2.0                           T__   9.4                  __            19590508
TKM2   50.13 335.9 P        18:38:37.02   -1.7                           T__            24.1  0.80  _e            50542099
KBK    50.18 335.2 P        18:38:38.02   -1.1                           T__  14.2                  __            19590507
AML    50.29 333.8 P        18:38:43.6     3.4                           ___                        _i            18251576
