Event 14213434 Taiwan
   Date       Time        Err   RMS Latitude Longitude  Smaj  Smin  Az Depth   Err Ndef Nsta Gap  mdist  Mdist Qual   Author      OrigID
2010/01/01 17:34:00                  23.8000  121.6000f                 23.0                                          NIED      17046403
2010/01/01 17:34:43.90   0.96        23.7520  121.8170  10.9   6.0 118  33.0         62                               MOS       14580944
2010/01/01 17:34:45.10   0.10        23.7600  121.6500   1.1   2.0  -1  33.0   2.0                                    JMA       15218179
2010/01/01 17:34:45.62   0.67 0.980  23.7860  121.6770   5.7   4.4 122  30.3   4.9   66       45   0.40 145.37     fe NEIC      16339028
2010/01/01 17:34:46.12        0.240  23.7850  121.6270   0.2            33.7   0.2            99   0.10               TAP       16957835
2010/01/01 17:34:46.60        2.070  23.9100  121.4400                  27.0         53      232   2.80  41.50     uk BJI       14211224
2010/01/01 17:34:47.85   3.08 0.590  23.7977  121.7204  16.6  11.5  69  53.9  28.7   28       96  12.29  96.38     uk IDC       16654487
2010/01/01 17:34:44.80   0.42 1.389  23.7463  121.7057 2.702 1.971 133  24.4  2.83  372  266  33   0.16 145.40 m i fe ISC       00011681
 (#PRIME)

Magnitude  Err Nsta Author      OrigID
Mw     4.4          NIED      17046403
mb     4.8       24 MOS       14580944
       4.6          JMA       15218179
mb     4.5       20 NEIC      16339028
ML     5.1          TAP       16339028
ML     4.9          TAP       16957835
mb     4.3       34 BJI       14211224
mB     4.7       26 BJI       14211224
ML     4.5        9 BJI       14211224
Ms     4.3       30 BJI       14211224
Ms7    4.1       26 BJI       14211224
mb     4.0 0.1   21 IDC       16654487
mb1    4.1 0.1   24 IDC       16654487
mb1mx  4.0 0.0   32 IDC       16654487
mbtmp  3.9 0.1   24 IDC       16654487
ML     3.2 0.3    3 IDC       16654487
MS     3.7 0.1    7 IDC       16654487
Ms1    3.8 0.1    7 IDC       16654487
ms1mx  3.4 0.1   54 IDC       16654487
mb     4.5 0.2   64 ISC       00011681
MS     3.7 0.1    6 ISC       00011681

Sta     Dist  EvAz Phase        Time      TRes  Azim AzRes   Slow   SRes Def   SNR       Amp   Per Qual Magnitude    ArrID
TEGC    0.16 256.3 Pn       17:34:53.0     1.3 223.0                     T__                        ce            64335054
TEGC    0.16 256.3 Sb       17:34:57.34    4.0 223.0                     T__                        _e            64335055
ESF     0.22 304.3 Pn       17:34:52.87    0.3 295.0                     T__                        __            64335056
ESF     0.22 304.3 Sb       17:34:57.65    3.0 295.0                     T__                        __            64335057
HWA     0.25 338.1 Pn       17:34:52.79   -0.2   2.0                     T__                        di            64335060
ESL     0.26 285.2 Pn       17:34:52.42   -0.7 279.0                     T__                        ci            64335058
ESL     0.26 285.2 Sb       17:34:56.24    0.7 279.0                     T__                        _e            64335059
TWD     0.35 343.2 Pn       17:34:53.8    -0.5 359.0                     T__                        di            64335061
TWD     0.35 343.2 Sn       17:34:59.55   -1.0 359.0                     T__                        _e            64335062
EHY     0.43 235.9 Pb       17:34:54.73    1.0 225.0                     T__                        ci            64335063
EHY     0.43 235.9 Sb       17:35:00.4     0.5 225.0                     T__                        _e            64335064
NACB    0.44 346.6 Pb       17:34:54.36    0.4                           T__                        _e            50541862
NACB    0.44 346.6 Sb       17:35:00.74    0.5                           T__                        _e            50541863
YULB    0.51 226.9 Pb       17:34:55.82    0.6                           T__                        _e            50541895
TWF1    0.54 223.8 Pn       17:34:56.69   -0.3 225.0                     T__                        ci            64335066
TWF1    0.54 223.8 Sb       17:35:03.64    0.5 225.0                     T__                        _e            64335067
EHP     0.56   3.3 Pn       17:34:57.74    0.4  21.0                     T__                        _e            64335068
EHP     0.56   3.3 Sn       17:35:05.87    0.0  21.0                     T__                        _e            64335069
WHF     0.57 314.6 Pb       17:34:56.43    0.0 318.0                     T__                        ci            64335065
ENA     0.68   2.7 Pn       17:34:58.94    0.0  16.0                     T__                        ci            64335072
SSLB    0.69 273.6 Pb       17:34:57.67   -0.6                           T__                        _e            50541879
SSLB    0.69 273.6 Sb       17:35:07.19   -0.2                           T__                        _e            50541880
TWT     0.70 316.3 Pb       17:34:58.98    0.5 311.0                     T__                        ci            64335070
TWT     0.70 316.3 Sb       17:35:06.98   -0.8 311.0                     T__                        _e            64335071
CHKT    0.72 206.0 Pn       17:34:59.75    0.4 185.0                     T__                        _e            64335081
CHKT    0.72 206.0 Sn       17:35:10.0     0.4 185.0                     T__                        _e            64335082
YUS     0.74 249.8 Pn       17:35:00.2     0.1 245.0                     T__                        ci            64335075
YUS     0.74 249.8 Sb       17:35:09.09   -0.1 245.0                     T__                        __            64335076
SMLT    0.75 280.6 Pb       17:34:59.54    0.2 280.0                     T__                        ci            64335073
SMLT    0.75 280.6 Sb       17:35:08.49   -0.7 280.0                     T__                        __            64335074
NNS     0.76 336.3 Pb       17:34:59.46    0.1 339.0                     T__                        ci            64335077
NNS     0.76 336.3 Sb       17:35:09.13   -0.2 339.0                     T__                        _e            64335078
TYC     0.79 281.6 Pb       17:34:59.98    0.0 283.0                     T__                        ci            64335079
TYC     0.79 281.6 Sb       17:35:10.02   -0.3 283.0                     T__                        __            64335080
ELDTW   0.84 228.9 Pb       17:35:00.85    0.0 216.0                     T__                        ci            64335085
ALS     0.86 254.3 Pn       17:35:01.99    0.3 251.0                     T__                        ci            64335083
ALS     0.86 254.3 Sb       17:35:12.53    0.1 251.0                     T__                        __            64335084
TWC     0.87   8.6 Pn       17:35:02.05    0.5  25.0                     T__                        ce            64335086
TWC     0.87   8.6 Sn       17:35:14.08    0.7  25.0                     T__                        __            64335087
ENTT    0.90 351.9 Pn       17:35:01.86   -0.1 345.0                     T__                        ci            64335088
ENTT    0.90 351.9 Sb       17:35:13.15   -0.2 345.0                     T__                        _e            64335089
WNT     0.94 278.2 Pn       17:35:03.39    0.8 276.0                     T__                        ci            64335090
WNT     0.94 278.2 Sn       17:35:15.4     0.1 276.0                     T__                        _i            64335091
CHN5    0.95 261.2 Pn       17:35:03.57    0.8 258.0                     T__                        ci            64335092
YHNB    0.97 341.9 Pb       17:35:02.77   -0.2                           T__                        _e            50541892
NSK     0.98 341.1 Pb       17:35:03.25    0.1 351.0                     T__                        ci            64335093
NSK     0.98 341.1 Sb       17:35:14.8    -0.9 351.0                     T__                        _i            64335094
ILA     1.01   2.2 Pb       17:35:03.98    0.2 351.0                     T__                        _e            64335101
ILA     1.01   2.2 Sn       17:35:18.09    1.1 351.0                     T__                        _e            64335102
TCU     1.02 293.2 Pb       17:35:04.58    0.7 291.0                     T__                        ci            64335095
TCU     1.02 293.2 Sn       17:35:18.18    1.0 291.0                     T__                        _e            64335096
TWQ1    1.04 305.3 Pb       17:35:04.97    0.8 304.0                     T__                        ci            64335097
TWQ1    1.04 305.3 Sb       17:35:17.39   -0.1 304.0                     T__                        __            64335098
STYT    1.05 236.5 Pb       17:35:04.92    0.6 228.0                     T__                        di            64335103
STYT    1.05 236.5 Sb       17:35:17.78    0.1 228.0                     T__                        __            64335104
WGK     1.05 267.0 Pb       17:35:04.86    0.6 264.0                     T__                        ci            64335099
WGK     1.05 267.0 Sn       17:35:18.29    0.4 264.0                     T__                        _e            64335100
TPUB    1.08 246.0 Pb       17:35:05.4     0.5                           T__                        _e            50541887
TWG     1.09 212.4 Pn       17:35:03.42   -1.1                           T__                        _e            50541888
TWG     1.09 212.4 Pn       17:35:03.97   -0.6 209.0                     T__                        di            64335109
TWG     1.09 212.4 Sb       17:35:17.59   -1.2 209.0                     T__                        _e            64335110
NSTT    1.09 324.0 Pb       17:35:05.43    0.4 324.0                     T__                        ci            64335107
NSTT    1.09 324.0 Sb       17:35:18.27   -0.6 324.0                     T__                        __            64335108
NSY     1.09 307.9 Pb       17:35:05.83    0.8 307.0                     T__                        ci            64335105
NSY     1.09 307.9 Sn       17:35:19.15    0.2 307.0                     T__                        _i            64335106
EGS     1.11  10.6 Pb       17:35:05.16   -0.2  28.0                     T__                        _e            64335111
EGS     1.11  10.6 Sn       17:35:20.48    1.0  28.0                     T__                        _e            64335112
TTN     1.11 207.6 Pn       17:35:05.15    0.3 201.0                     T__                        _e            64335113
TTN     1.11 207.6 Sn       17:35:19.6     0.2 201.0                     T__                        _e            64335114
CHY     1.20 258.4 Pb       17:35:07.25    0.4 256.0                     T__                        _e            64335115
CHY     1.20 258.4 Sb       17:35:22.49    0.5 256.0                     T__                        _e            64335116
TWK     1.22 247.1 Pb       17:35:07.46    0.3 245.0                     T__                        _e            64335117
TWK     1.22 247.1 Sb       17:35:23.03    0.6 245.0                     T__                        _e            64335118
CHN1    1.22 242.9 Pb       17:35:07.72    0.5 241.0                     T__                        de            64335119
CHN1    1.22 242.9 Sb       17:35:23.04    0.5 241.0                     T__                        _e            64335120
SGST    1.23 237.6 Pb       17:35:08.14    0.8 228.0                     T__                        de            64335121
SGST    1.23 237.6 Sb       17:35:23.45    0.7 228.0                     T__                        _e            64335122
TWA     1.23 354.8 Pb       17:35:07.52    0.1 355.0                     T__                        c_            64335125
TWA     1.23 354.8 Sb       17:35:22.65   -0.3 355.0                     T__                        _e            64335126
TATO    1.24 350.8 Pb       17:35:07.24   -0.3                           T__                        _e            50541884
HSN     1.25 327.6 Pb       17:35:08.54    0.9 315.0                     T__                        _e            64335123
HSN     1.25 327.6 Sb       17:35:24.41    1.1 315.0                     T__                        _e            64335124
TWB1    1.28  11.5 Pb       17:35:08.48    0.2  16.0                     T__                        _e            64335135
TWB1    1.28  11.5 Sb       17:35:24.47    0.1  16.0                     T__                        _e            64335136
TAP1    1.30 352.7 Pb       17:35:08.08   -0.5 352.0                     T__                        __            64335131
TAP1    1.30 352.7 Sn       17:35:23.82   -0.2 352.0                     T__                        _e            64335132
TAP     1.30 352.0 Pb       17:35:08.3    -0.3 352.0                     T__                        _e            64335133
TAP     1.30 352.0 Sb       17:35:24.87    0.0 352.0                     T__                        _e            64335134
NCU     1.31 338.9 Pb       17:35:08.49   -0.2 338.0                     T__                        _e            64335129
NCU     1.31 338.9 Sb       17:35:25.79    0.7 338.0                     T__                        _e            64335130
WTCT    1.31 275.4 Pb       17:35:08.59   -0.1 273.0                     T__                        c_            64335127
WTCT    1.31 275.4 Sb       17:35:25.1    -0.0 273.0                     T__                        __            64335128
NWF     1.32   3.0 Pb       17:35:08.86   -0.1 350.0                     T__                        _e            64335139
NWF     1.32   3.0 Sb       17:35:26.24    0.7 350.0                     T__                        __            64335140
ECL     1.34 211.3 Pn       17:35:07.08   -0.9 195.0                     T__                        _e            64335143
ECL     1.34 211.3 Sn       17:35:25.3     0.3 195.0                     T__                        _e            64335144
WSF     1.36 265.8 Pb       17:35:09.42   -0.2 264.0                     T__                        _e            64335137
WSF     1.36 265.8 Sb       17:35:26.67   -0.0 264.0                     T__                        _e            64335138
TWS1    1.37 349.0 Pb       17:35:09.41   -0.4 357.0                     T__                        _e            64335141
TWS1    1.37 349.0 Sb       17:35:26.77   -0.2 357.0                     T__                        _e            64335142
YOJ     1.39  58.9 Pb       17:35:10.3     0.2                           T__                        _e            18251273
YOJ     1.39  58.9 Pb       17:35:10.5     0.4                           T__                        __            26335322
YOJ     1.39  58.9 Sb       17:35:28.7     1.3                           T__                        __            26335323
YOJ     1.39  58.9 Pb       17:35:10.33    0.2                           T__                        _e            50541894
YOJ     1.39  58.9 Pb       17:35:10.63    0.5  65.0                     T__                        di            64335151
YOJ     1.39  58.9 Sb       17:35:28.48    1.1  65.0                     T__                        _i            64335152
CHN3    1.40 241.8 Pb       17:35:11.08    0.8 241.0                     T__                        _e            64335145
CHN3    1.40 241.8 Sb       17:35:29.17    1.4 241.0                     T__                        _e            64335146
SSD     1.40 225.0 Pn       17:35:09.65    0.8 225.0                     T__                        _e            64335149
SSD     1.40 225.0 Sb       17:35:28.13    0.3 225.0                     T__                        _e            64335150
CHN8    1.43 254.1 Pn       17:35:09.97    0.8 253.0                     T__                        _e            64335147
CHN8    1.43 254.1 Sb       17:35:28.0    -0.5 253.0                     T__                        _e            64335148
TWM1    1.50 232.3 Pb       17:35:12.14    0.2 243.0                     T__                        _e            64335155
TWM1    1.50 232.3 Sb       17:35:33.34    2.8 243.0                     T__                        _e            64335156
SCLT    1.50 248.0 Pb       17:35:11.41   -0.6 247.0                     T__                        _e            64335153
SCLT    1.50 248.0 Sb       17:35:30.72    0.1 247.0                     T__                        _e            64335154
SGLT    1.51 227.9 Pb       17:35:13.69    1.5 218.0                     T__                        de            64335159
SGLT    1.51 227.9 Sb       17:35:34.03    3.1 218.0                     T__                        _e            64335160
TWY     1.53 356.4 Pb       17:35:11.51   -0.9 356.0                     T__                        _e            64335161
TAI1    1.53 242.9 Pb       17:35:12.62    0.2 254.0                     T__                        _e            64335157
TAI1    1.53 242.9 Sn       17:35:30.68    1.0 254.0                     T__                        _e            64335158
EAST    1.57 210.4 Pn       17:35:11.0    -0.2 197.0                     T__                        d_            64335162
EAST    1.57 210.4 Sb       17:35:32.23   -0.4 197.0                     T__                        _e            64335163
TAW     1.57 208.5 Pn       17:35:10.91   -0.2 194.0                     T__                        _e            64335164
TAW     1.57 208.5 Sn       17:35:31.13    0.4 194.0                     T__                        _e            64335165
SCZT    1.69 216.4 Pn       17:35:14.12    1.3 218.0                     T__                        _e            64335166
SCZT    1.69 216.4 Sn       17:35:34.85    1.1 218.0                     T__                        _e            64335167
LAY     1.71 184.8 Pn       17:35:13.0    -0.1 173.0                     T__                        ce            64335169
LAY     1.71 184.8 Sn       17:35:33.18   -0.9 173.0                     T__                        _e            64335170
KAU     1.74 227.9 Pb       17:35:15.17   -0.9 243.0                     T__                        _e            64335168
TWP     1.86 221.9 Pb       17:35:17.47   -0.7 222.0                     T__                        _e            64335171
WDGT    1.94 256.0 Pn       17:35:16.77    0.5 255.0                     T__                        _e            64335172
WDGT    1.94 256.0 Sn       17:35:38.61   -1.2 255.0                     T__                        _e            64335173
IRIF    1.94  72.0 Pb       17:35:18.4    -1.1                           T__                        __            26335324
IRIF    1.94  72.0 Sb       17:35:42.6    -0.7                           T__                        __            26335325
HATJ    1.95  80.4 Pb       17:35:18.4    -1.2                           T__                        __            26335326
HATJ    1.95  80.4 Sb       17:35:42.8    -0.6                           T__                        __            26335327
HEN     1.95 207.4 Pb       17:35:18.53   -1.1 195.0                     T__                        _e            64335174
HEN     1.95 207.4 Sn       17:35:41.66    1.6 195.0                     T__                        _e            64335175
TWK1    1.98 205.0 Pn       17:35:17.91    1.1 187.0                     T__                        _e            64335176
TWK1    1.98 205.0 Sn       17:35:42.54    1.8 187.0                     T__                        _e            64335177
TSEB    1.98 202.2 Pn       17:35:18.24    1.4 198.0                     T__                        _e            64335178
TSEB    1.98 202.2 Sn       17:35:42.75    1.9 198.0                     T__                        _e            64335179
JKRS    2.16  76.5 Pb       17:35:21.7    -1.6                           T__                        __            26335328
