Event 14245324 Carlsberg Ridge
   Date       Time        Err   RMS Latitude Longitude  Smaj  Smin  Az Depth   Err Ndef Nsta Gap  mdist  Mdist Qual   Author      OrigID
2010/01/01 17:42:02.09   0.28 1.037   1.4384   67.7483 7.148 4.927 163  10.0f       132  224  65   8.37  92.29 m i se ISCJB     00508793
2010/01/01 17:42:02.50   1.02         1.5280   67.7070  11.4   7.1  95  10.0         47                               MOS       14580945
2010/01/01 17:42:02.78   0.62 1.000   1.4845   67.7686  19.0  13.4  31   0.0f        29      122  31.16 148.28     uk IDC       16654488
2010/01/01 17:42:03.90   0.35 0.980   1.4380   67.7630   9.6   8.0 188  10.0f        46       66  30.61 148.32     se NEIC      16339029
2010/01/01 17:42:03.90   0.20         1.4200   67.7800 1.112 1.112  -1  15.8   1.1  186   88                          GCMT      17050682
 (#CENTROID)
2010/01/01 17:42:04.30        1.270   1.6000   67.9000                  10.0         13      306  38.00  51.20     uk BJI       14211225
2010/01/01 17:42:04.45   0.40 1.099   1.4952   67.7659 10.15 9.421  86  10.0f       191  224  65   8.41 150.84 m i se ISC       00011682
 (#PRIME)

Magnitude  Err Nsta Author      OrigID
mb     4.4       58 ISCJB     00508793
MS     4.1       36 ISCJB     00508793
mb     4.8       19 MOS       14580945
mb     4.2 0.1   24 IDC       16654488
mb1    4.2 0.1   24 IDC       16654488
mb1mx  4.1 0.1   34 IDC       16654488
mbtmp  4.2 0.1   24 IDC       16654488
MS     4.0 0.0   32 IDC       16654488
Ms1    4.0 0.0   32 IDC       16654488
ms1mx  3.9 0.0   50 IDC       16654488
mb     4.7       15 NEIC      16339029
MW     5.0       88 GCMT      17050682
mb     4.2       11 BJI       14211225
mB     4.8        6 BJI       14211225
mb     4.6 0.2   58 ISC       00011682
MS     4.1 0.1   36 ISC       00011682

Sta     Dist  EvAz Phase        Time      TRes  Azim AzRes   Slow   SRes Def   SNR       Amp   Per Qual Magnitude    ArrID
H08N2   8.41 157.5 Pn       17:44:06.014  -0.2                           T__                        __            57923705
H08N2   8.41 157.5 T        17:52:50.714       337.0        75.30        ___ 307.7                  __            57923706
H08N3   8.43 157.6 Pn       17:44:06.226  -0.2                           T__                        __            57923707
H08N3   8.43 157.6 T        17:52:53.926       337.0        75.30        ___ 557.6                  __            57923708
H08N1   8.43 157.4 Pn       17:44:06.582   0.1                           T__                        __            57923703
H08N1   8.43 157.4 T        17:52:43.055       337.0        75.30        ___ 396.3                  __            57923704
H08S3  10.21 152.6 Pn       17:44:31.264   0.3                           T__                        __            57923711
H08S1  10.22 152.7 Pn       17:44:30.85   -0.3                           T__                        __            57923709
H08S2  10.23 152.6 Pn       17:44:31.539   0.3                           T__                        __            57923710
GOA    15.14  22.9 Pn       17:45:38.61    0.1                           T__                        _e            30741520
GOA    15.14  22.9 AMB      17:45:42.96                                  ___            19.9  1.66  __            30741521
POO    17.95  19.0 P        17:46:14.75   -0.2                           T__                        _e            30741527
POO    17.95  19.0 AMB      17:46:24.33                                  ___            30.1  1.13  __            30741528
HYB    19.05  33.2 Pn       17:46:34.0     6.2                           ___                        _i            27285933
HYB    19.05  33.2 Pn       17:46:27.41   -0.4                           T__                        _e            30741522
HYB    19.05  33.2 AMB      17:46:36.2                                   ___            39.0  1.75  __            30741523
BHJ    21.71   4.7 P        17:46:55.71   -0.1                           T__                        _e            30741513
BHJ    21.71   4.7 AMB      17:47:04.67                                  ___            90.9  1.19  __            30741514
NGP    22.42  28.6 P        17:47:01.55   -2.0                           T__                        _e            30741525
NGP    22.42  28.6 AMB      17:47:15.98                                  ___            47.6  0.72  __            30741526
BHPL   23.56  22.7 P        17:47:15.82    0.5                           T__                        _e            30741515
BHPL   23.56  22.7 AMB      17:47:25.4                                   ___            48.2  1.16  __            30741516
KOLN   30.21  28.7 P        17:48:17.0     1.4                           T__            64.6  1.34  _e            08739491
KMBO   30.62 265.3 P        17:48:19.91    0.5                           T__             5.2  1.30  __            50541925
SMLA   30.79  15.9 P        17:48:20.45    0.1                           T__                        _e            30741531
SMLA   30.79  15.9 AMB      17:49:01.1                                   ___             6.5  1.27  __            30741532
DMN    30.82  31.1 P        17:48:22.0     0.9                           T__            27.7  0.88  _e            08739486
GKN    30.91  30.0 P        17:48:22.5     0.8                           T__            43.3  0.96  _e            08739487
PKI    30.95  31.5 P        17:48:22.9     0.6                           T__            11.5  0.90  _e            08739493
KKN    31.06  31.1 P        17:48:24.2     1.1                           T__            25.0  0.82  _e            08739490
RAMN   31.10  33.9 P        17:48:25.0     1.5                           T__            65.9  1.60  _e            08739494
PSI    31.16  87.1 P        17:48:25.37    1.3                           T__                        __            50541934
PSI    31.16  87.1 P        17:48:25.375   1.3 268.5         7.30        T__   6.2       7.2  0.81  __            57923728
JIRN   31.44  32.5 P        17:48:27.6     1.0                           T__                        _e            08739489
GUN    31.47  31.8 P        17:48:27.9     1.0                           T__            37.9  0.82  _e            08739488
ODAN   31.48  35.1 P        17:48:27.2     0.3                           T__            22.6  0.90  _e            08739492
DHRM   31.63  13.9 P        17:48:24.44   -3.6                           ___                        _e            30741518
DHRM   31.63  13.9 AMB      17:48:35.79                                  ___            14.2  1.59  __            30741519
KBL    32.90   1.9 P        17:48:40.4     1.2                           T__                        _e            18251395
KBL    32.90   1.9 pmax                                                  ___            10.0  1.20  __            18251396
KBL    32.90   1.9 P        17:48:40.4     1.2                           T__            10.4  1.20  _e            50541923
KULM   33.03  82.6 P        17:48:40.19   -0.2                           T__            35.5  1.30  _e            50541926
SHL    33.36  42.2 P        17:48:43.03   -0.3                           T__                        _e            30741529
SHL    33.36  42.2 AMB      17:48:51.94                                  ___            11.4  1.38  __            30741530
CM31   34.92  59.1 P        17:48:54.82   -1.9                           T__             8.8  1.10  _e            50541912
CMAR   34.92  59.1 P        17:48:57.68    1.0                           T__                        __            50541913
CMAR   34.92  59.1 PcP      17:51:31.45    1.9                           T__                        __            50541914
CMAR   34.92  59.1 P        17:48:57.683   1.0 245.0         9.60        T__  18.4       3.0  0.98  __            57923686
CMAR   34.92  59.1 PcP      17:51:31.45    1.9 252.8         2.70        T__   3.6       0.8  0.98  __            57923687
CMAR   34.92  59.1 LR       18:01:39.312        12.3        33.70        ___           209.3 20.14  __            57923688
CHTO   35.07  58.6 P        17:48:59.2     1.2                           T__                        _e            18251399
CHTO   35.07  58.6 pmax                                                  ___            20.0  1.20  __            18251400
CHTO   35.07  58.6 P        17:48:59.2     1.2                           T__            20.3  1.20  _e            50541911
LSA    35.80  36.2 P        17:49:05.5     0.8                           T__                        _e            18251401
LSA    35.80  36.2 P        17:49:05.53    0.8                           T__                        _e            50541927
KSH    38.58  10.2 P        17:49:24.8    -2.9                           T__                        __            14835488
KSH    38.58  10.2 sP       17:49:38.6     6.5                           ___                        _e            14835489
KSH    38.58  10.2 PP       17:50:55.2    -0.9                           T__                        _e            14835490
KSH    38.58  10.2 PcP      17:51:40.2    -0.1                           T__                        _e            14835491
KSH    38.58  10.2 S        17:55:14.5    -9.5                           ___                        _e            14835492
KSH    38.58  10.2 sS       17:55:30.2     1.1                           T__                        _e            14835493
KSH    38.58  10.2 SnSn     17:57:49.1   -22.4                           ___                        _e            14835494
KSH    38.58  10.2 pmax                                                  ___            10.0  1.30  __            14835495
KSH    38.58  10.2 pmax                                                  ___           190.0 11.40  __            14835496
KMI    41.11  52.2 P        17:49:58.8     9.6                           ___                        __            14407523
KMI    41.11  52.2 S        17:55:52.6    -9.9                           ___                        __            14407524
KMI    41.11  52.2 pmax                                                  ___            13.0  1.10  __            14407525
KMI    41.11  52.2 LR                                                    ___           310.0 13.60  __            14407526
KMI    41.11  52.2 LR                                                    ___           160.0 12.90  __            14407527
KMI    41.11  52.2 LR                                                    ___           190.0 25.80  __            14407528
EKS2   41.34   6.7 P        17:49:51.6     1.0                           T__                        _e            18251402
EKS2   41.34   6.7 pmax                                                  ___            19.0  1.30  __            18251403
EKS2   41.34   6.7 P        17:49:51.62    1.0                           T__            19.0  1.30  _e            50541917
AAK    41.40   7.5 P        17:49:52.4     1.2                           T__                        ce            18251404
AAK    41.40   7.5 pmax                                                  ___            13.0  1.20  __            18251405
AAK    41.40   7.5 P        17:49:52.02    0.8                           T__                        __            50541899
AAK    41.40   7.5 P        17:49:52.019   0.8 190.1        10.30        T__   5.5       2.1  0.76  __            57923671
TKM2   41.84   8.6 P        17:49:54.1    -0.7                           T__                        _e            18251406
TKM2   41.84   8.6 pmax                                                  ___             6.0  1.10  __            18251407
TKM2   41.84   8.6 P        17:49:54.09   -0.7                           T__             6.3  1.10  _e            50541940
EIL    41.93 315.1 P        17:49:56.75    1.2                           T__                        __            50541916
EIL    41.93 315.1 P        17:49:56.75    1.2 161.6         9.90        T__   2.8       2.7  0.94  __            57923692
EIL    41.93 315.1 LR       18:05:28.808       276.5        33.50        ___           347.7 18.23  __            57923693
ASF    42.15 319.6 P        17:49:55.69   -1.7                           T__                        __            50541907
ASF    42.15 319.6 P        17:49:55.687  -1.7  48.8        10.70        T__   2.8       2.2  0.84  __            57923680
ASF    42.15 319.6 LR       18:06:35.868        98.4        34.90        ___           298.0 20.08  __            57923681
LSZ    42.54 245.4 P        17:50:00.58   -0.3                           T__            15.4  1.30  _e            50541928
LSZ    42.54 245.4 P        17:50:01.319   0.5  68.4         8.60        T__   5.2       0.9  0.50  __            57923718
GNI    43.79 334.3 P        17:50:10.22   -0.5                           T__            26.9  1.10  _e            50541921
GNI    43.79 334.3 P        17:50:11.285   0.6 148.6        12.40        T__   6.1       1.9  0.35  __            57923698
GNI    43.79 334.3 LR       18:08:29.421       343.5        36.20        ___           129.0 21.08  __            57923699
QIZ    44.74  64.2 P        17:50:17.4    -1.0                           T__                        __            14835497
QIZ    44.74  64.2 S        17:56:54.5    -1.1                           T__                        __            14835498
QIZ    44.74  64.2 pmax                                                  ___            15.0  1.60  __            14835499
QIZ    44.74  64.2 pmax                                                  ___           140.0  5.10  __            14835500
MK31   46.87  13.7 P        17:50:33.5    -1.4                           T__                        _e            18251414
MK31   46.87  13.7 P        17:50:33.45   -1.4                           T__                        _e            50541929
MKAR   46.87  13.7 P        17:50:34.0    -0.8                           T__                        __            18251413
MKAR   46.87  13.7 P        17:50:33.99   -0.8                           T__                        __            50541930
MKAR   46.87  13.7 P        17:50:33.988  -0.8 198.7         8.50        T__  13.7       1.0  0.73  __            57923722
MKAR   46.87  13.7 LR       18:11:04.586       196.8        37.20        ___           119.3 21.90  __            57923723
KBZ    47.52 335.6 P        17:50:39.8    -0.1                           T__                        __            18251415
KBZ    47.52 335.6 P        17:50:39.83   -0.1                           T__                        __            50541924
KBZ    47.52 335.6 P        17:50:39.825  -0.1 167.3         5.40        T__   5.5       6.0  1.07  __            57923714
KBZ    47.52 335.6 LR       18:11:12.483       249.2        36.80        ___           150.0 18.04  __            57923715
KIV    47.79 335.6 P        17:50:43.7     1.5                           T__                        _e            18251416
KIV    47.79 335.6          17:52:08.8                                   ___                        _e            18251418
KIV    47.79 335.6 SS       18:01:04.6    -3.0                           ___                        _e            18251419
KIV    47.79 335.6 pmax                                                  ___             5.0  0.80  __            18251417
KIV    47.79 335.6 MLR                                                   ___           200.0 23.00  __            18251420
AB31   48.05 353.1 P        17:50:43.7    -0.3                           T__                        _i            18251421
AB31   48.05 353.1 pmax                                                  ___             9.0  0.80  __            18251422
ABKAR  48.05 353.1 P        17:50:43.77   -0.2                           T__            15.6  1.10  _e            50541900
ENH    48.81  49.9 P        17:50:49.34   -0.9                           T__             7.1  0.80  _e            50541918
BRTR   49.10 325.1 P        17:50:52.85    0.4                           T__                        __            50541909
BRTR   49.10 325.1 P        17:50:52.85    0.4 131.3        10.10        T__   5.0       1.3  0.77  __            57923683
BRTR   49.10 325.1 LR       18:12:16.123       128.3        36.90        ___           152.6 18.34  __            57923684
AKTO   49.46 351.8 P        17:50:54.7    -0.1                           T__                        __            18251424
AKTO   49.46 351.8 P        17:50:54.73   -0.1                           T__                        __            50541902
AKTO   49.46 351.8 P        17:50:54.725  -0.1 176.6         7.50        T__  19.3       5.2  0.87  __            57923673
AKTO   49.46 351.8 LR       18:09:47.259        11.1        33.60        ___           196.4 20.05  __            57923674
KURK   49.90   9.0 P        17:50:57.9    -0.2                           T__                        _i            18251425
XAN    50.25  45.3 P        17:51:00.6    -0.6                           T__                        __            14835501
XAN    50.25  45.3 pP       17:51:09.3     5.0                           T__                        __            14835502
XAN    50.25  45.3 pmax                                                  ___             3.0  0.90  __            14835503
XAN    50.25  45.3 pmax                                                  ___            22.0  4.80  __            14835504
BVAR   51.40   2.0 P        17:51:09.2    -0.2                           T__                        __            18251426
BVAR   51.40   2.0 P        17:51:09.21   -0.2                           T__                        __            50541910
BVAR   51.40   2.0 P        17:51:09.212  -0.2 180.5         7.90        T__   7.3       0.8  0.66  __            57923685
BRVK   51.43   1.9 P        17:51:09.2    -0.4                           T__                        ce            18251427
BRVK   51.43   1.9 pmax                                                  ___             5.0  2.50  __            18251428
WHN    52.71  52.0 P        17:51:27.4     7.8                           ___                        __            14407529
ZAA0   54.14  12.3 P        17:51:28.34   -1.3                           T__                        _e            50541947
ZALV   54.14  12.3 P        17:51:28.5    -1.1                           T__                        __            18251429
ZALV   54.14  12.3 P        17:51:28.52   -1.1                           T__                        __            50541948
ZALV   54.14  12.3 P        17:51:28.525  -1.1 204.2         7.50        T__  40.6       6.8  0.74  __            57923742
ZALV   54.14  12.3 LR       18:14:36.318        68.3        36.10        ___           119.8 20.35  __            57923743
VORD   54.85 338.4 P        17:51:32.9    -1.9                           T__                        _e            18251430
VORD   54.85 338.4 pmax                                                  ___            20.0  0.90  __            18251431
VORD   54.85 338.4 pmax                                                  ___            20.0  0.90  __            18251432
VORD   54.85 338.4 pmax                                                  ___            10.0  0.90  __            18251433
ARU    55.27 353.8 P        17:51:37.2    -0.6                           T__                        _i            18251434
ARU    55.27 353.8          17:53:40.2                                   ___                        __            18251436
ARU    55.27 353.8 S        17:59:19.4    -2.0                           T__                        __            18251437
ARU    55.27 353.8 pmax                                                  ___             8.0  1.20  __            18251435
SVE    55.46 355.2 P        17:51:38.7    -0.5                           T__                        _e            18251438
