DATA_TYPE BULLETIN IMS1.0:short
Reviewed ISC Bulletin
Event 600127517 Taiwan
   Date       Time        Err   RMS Latitude Longitude  Smaj  Smin  Az Depth   Err Ndef Nsta Gap  mdist  Mdist Qual   Author      OrigID
2010/12/20 14:02:13.50   0.20        24.7900  121.8200   6.7   2.0  -1  60.0                                          JMA       00347980
2010/12/20 14:02:15.04        0.220  24.2960  121.9040   0.6            15.9   0.6        38 203   0.20               TAP       00099068
2010/12/20 14:02:15.47   0.31 0.755  24.2964  121.9322 4.564 2.812 151  25.2  4.48   50   25 120   0.22   2.19 m i ke ISCJB     02145565
2010/12/20 14:02:15.25   0.94 0.759  24.3343  121.8898 4.328 3.561 160  24.9  7.61   50   25 116   0.17   2.22 m i ke ISC       01613969
 (#PRIME)

Magnitude  Err Nsta Author      OrigID
ML     2.6          TAP       00099068

Sta     Dist  EvAz Phase        Time      TRes  Azim AzRes   Slow   SRes Def   SNR       Amp   Per Qual Magnitude    ArrID
ENA     0.17 304.5 Pb       14:02:20.41   -0.1 312.0                     T__                        _i            01575433
ENA     0.17 304.5 Sb       14:02:24.08    0.0 312.0                     T__                        __            01575434
TWC     0.28 352.3 Pn       14:02:22.23   -1.5 352.0                     T__                        _i            01575435
TWC     0.28 352.3 Sb       14:02:27.51    1.0 352.0                     T__                        _i            01575436
TWD     0.37 226.7 Pb       14:02:22.87   -0.4 232.0                     T__                        _e            01575437
TWD     0.37 226.7 Sb       14:02:28.86    0.1 232.0                     T__                        _e            01575438
ENTT    0.42 316.0 Pn       14:02:24.74   -1.1 318.0                     T__                        __            01575439
ENTT    0.42 316.0 Sn       14:02:32.11   -0.7 318.0                     T__                        __            01575440
TWE     0.43 332.3 Pn       14:02:25.04   -0.9 334.0                     T__                        __            01575441
TWE     0.43 332.3 Sn       14:02:32.25   -0.8 334.0                     T__                        _e            01575442
NNS     0.48 282.7 Pn       14:02:25.54   -1.2 286.0                     T__                        _e            01575443
NNS     0.48 282.7 Sn       14:02:33.06   -1.4 286.0                     T__                        __            01575444
NSK     0.59 305.2 Pn       14:02:27.58   -0.6 307.0                     T__                        __            01575445
NSK     0.59 305.2 Sn       14:02:36.44   -0.6 307.0                     T__                        __            01575446
TWT     0.66 263.1 Pn       14:02:29.16    0.0 266.0                     T__                        _e            01575449
TWT     0.66 263.1 Sn       14:02:38.68   -0.1 266.0                     T__                        _e            01575450
ESL     0.67 219.0 Pb       14:02:27.54   -0.7 221.0                     T__                        _e            01575447
ESL     0.67 219.0 Sb       14:02:37.11    0.0 221.0                     T__                        _e            01575448
TWB1    0.68   7.6 Pn       14:02:29.76    0.5   6.0                     T__                        _e            01575451
TWB1    0.68   7.6 Sn       14:02:40.04    1.0   6.0                     T__                        _e            01575452
NWF     0.74 352.3 Pn       14:02:30.7     0.5 351.0                     T__                        _e            01575453
NWF     0.74 352.3 Sn       14:02:41.91    1.2 351.0                     T__                        _e            01575454
NSTT    0.86 290.2 Pn       14:02:31.84    0.0 292.0                     T__                        _e            01575455
NSTT    0.86 290.2 Sn       14:02:45.0     1.4 292.0                     T__                        _e            01575456
JYNG    0.97  82.9 Pn       14:02:32.7    -0.6                           T__                        __            05930519
JYNG    0.97  82.9 Sn       14:02:47.1     0.9                           T__                        __            05930520
EHY     0.97 212.3 Pb       14:02:33.35   -0.1 213.0                     T__                        _e            01575457
EHY     0.97 212.3 Sn       14:02:47.08    0.7 213.0                     T__                        _e            01575458
TWQ1    1.02 271.0 Pb       14:02:34.82    0.6 272.0                     T__                        _e            01575461
TWQ1    1.02 271.0 Sn       14:02:48.68    1.2 272.0                     T__                        _e            01575462
YOJ     1.03  82.7 Pn       14:02:33.5    -0.6                           T__                        __            05930521
YOJ     1.03  82.7 Sn       14:02:48.1     0.4                           T__                        __            05930522
TYC     1.04 245.8 Pb       14:02:34.96    0.4 247.0                     T__                        _e            01575459
TYC     1.04 245.8 Sn       14:02:49.34    1.4 247.0                     T__                        _e            01575460
TWF1    1.12 209.2 Pn       14:02:34.88   -0.5 210.0                     T__                        _e            01575463
TWF1    1.12 209.2 Sb       14:02:50.61    0.5 210.0                     T__                        _e            01575464
ALS     1.29 230.7 Pb       14:02:38.94   -0.1 231.0                     T__                        _e            01575465
ALS     1.29 230.7 Sb       14:02:54.93   -0.3 231.0                     T__                        _e            01575466
CHN5    1.33 236.7 Pb       14:02:39.13   -0.5 238.0                     T__                        _e            01575467
CHN5    1.33 236.7 Sb       14:02:56.96    0.7 238.0                     T__                        _e            01575468
STYT    1.56 221.9 Pn       14:02:41.41   -0.1 222.0                     T__                        _e            01575469
STYT    1.56 221.9 Sn       14:03:01.52    0.5 222.0                     T__                        _e            01575470
IRIF    1.68  89.6 Pn       14:02:43.1     0.1                           T__                        __            05930523
IRIF    1.68  89.6 Sn       14:03:04.6     0.8                           T__                        _e            05930524
JKRS    1.94  92.4 Pn       14:02:46.6     0.0                           T__                        __            05930525
JKRS    1.94  92.4 Sn       14:03:10.4     0.3                           T__                        _e            05930526
JIJ     2.06  88.7 Pn       14:02:47.6    -0.6                           T__                        __            05930527
JIJ     2.06  88.7 Sn       14:03:12.4    -0.7                           T__                        _e            05930528
JISG    2.22  83.0 Pn       14:02:49.7    -0.8                           T__                        __            05930529
JISG    2.22  83.0 Sn       14:03:16.4    -0.7                           T__                        _e            05930530

Event 600127520 Taiwan
   Date       Time        Err   RMS Latitude Longitude  Smaj  Smin  Az Depth   Err Ndef Nsta Gap  mdist  Mdist Qual   Author      OrigID
2010/12/20 14:02:47.50   0.20        24.7100  121.7700   7.8   2.0  -1  55.0                                          JMA       00347981
2010/12/20 14:02:49.34        0.300  24.3020  121.9150   0.7            10.3   0.7        50 204   0.20               TAP       00099069
2010/12/20 14:02:50.19   0.32 0.863  24.3117  121.9427 4.159 2.525 143  19.6  5.07   62   32 113   0.22   2.17 m i ke ISCJB     02145566
2010/12/20 14:02:49.52   0.92 0.470  24.3060  121.9382 3.570 2.705 134  17.2  7.35   62   32 113   0.22   2.18 m i ke ISC       01613970
 (#PRIME)

Magnitude  Err Nsta Author      OrigID
       2.1          JMA       00347981
ML     2.8          TAP       00099069

Sta     Dist  EvAz Phase        Time      TRes  Azim AzRes   Slow   SRes Def   SNR       Amp   Per Qual Magnitude    ArrID
ENA     0.22 304.1 Pg       14:02:54.71    0.1 309.0                     T__                        __            01575471
ENA     0.22 304.1 Sg       14:02:58.01   -0.1 309.0                     T__                        __            01575472
TWC     0.31 344.9 Pb       14:02:56.52   -0.1 350.0                     T__                        __            01575473
TWC     0.31 344.9 Sb       14:03:01.65    0.2 350.0                     T__                        _i            01575474
TWD     0.39 234.3 Pg       14:02:57.13   -0.3 232.0                     T__                        __            01575475
TWD     0.39 234.3 Sb       14:03:03.65    0.1 232.0                     T__                        __            01575476
ENTT    0.47 314.5 Pg       14:02:58.95   -0.2 316.0                     T__                        __            01575477
ENTT    0.47 314.5 Sb       14:03:06.51    0.3 316.0                     T__                        _i            01575478
TWE     0.48 329.2 Pg       14:02:59.3     0.1 332.0                     T__                        _i            01575479
TWE     0.48 329.2 Sb       14:03:06.88    0.6 332.0                     T__                        _e            01575480
ILA     0.49 339.3 Pb       14:02:59.96    0.3 342.0                     T__                        _e            01575481
ILA     0.49 339.3 Sb       14:03:07.76    1.2 342.0                     T__                        _e            01575482
NNS     0.53 284.6 Pg       14:02:59.86   -0.4 285.0                     T__                        _e            01575483
NNS     0.53 284.6 Sg       14:03:07.41   -0.0 285.0                     T__                        __            01575484
NSK     0.64 305.0 Pb       14:03:01.86   -0.5 306.0                     T__                        __            01575485
NSK     0.64 305.0 Sb       14:03:10.64   -0.5 306.0                     T__                        _e            01575486
ESL     0.67 223.4 Pb       14:03:02.11   -0.7 221.0                     T__                        _e            01575487
ESL     0.67 223.4 Sg       14:03:13.04    1.3 221.0                     T__                        _e            01575488
TWT     0.70 265.8 Pg       14:03:03.54    0.2 265.0                     T__                        _e            01575489
TWT     0.70 265.8 Sg       14:03:12.89    0.3 265.0                     T__                        __            01575490
TWB1    0.70   3.7 Pb       14:03:03.07   -0.2   6.0                     T__                        _e            01575491
TWB1    0.70   3.7 Sg       14:03:13.31    0.7   6.0                     T__                        _e            01575492
NWF     0.78 349.4 Pn       14:03:05.46   -0.3 350.0                     T__                        _e            01575493
NWF     0.78 349.4 Sn       14:03:16.71   -0.3 350.0                     T__                        __            01575494
NSTT    0.91 290.9 Pb       14:03:06.63   -0.3 291.0                     T__                        _e            01575495
NSTT    0.91 290.9 Sn       14:03:19.85   -0.5 291.0                     T__                        _e            01575496
JYNG    0.93  80.8 Pb       14:03:06.9    -0.3                           T__                        __            05930531
JYNG    0.93  80.8 Sn       14:03:21.3     0.6                           T__                        __            05930532
EHY     0.98 215.4 Pb       14:03:07.92   -0.1 214.0                     T__                        _e            01575497
EHY     0.98 215.4 Sn       14:03:22.08    0.2 214.0                     T__                        _e            01575498
YOJ     0.99  80.8 Pb       14:03:07.8    -0.4                           T__                        __            05930533
YOJ     0.99  80.8 Sn       14:03:22.6     0.4                           T__                        __            05930534
SMLT    1.04 246.3 Pn       14:03:09.43    0.0 245.0                     T__                        _e            01575499
SMLT    1.04 246.3 Sn       14:03:23.56    0.0 245.0                     T__                        _e            01575500
TWQ1    1.06 272.5 Pn       14:03:09.52   -0.1 272.0                     T__                        _e            01575503
TWQ1    1.06 272.5 Sg       14:03:24.6     0.5 272.0                     T__                        _e            01575504
TYC     1.07 248.2 Pg       14:03:09.98   -0.2 247.0                     T__                        _e            01575501
TYC     1.07 248.2 Sb       14:03:22.54   -0.6 247.0                     T__                        _e            01575502
TWF1    1.12 211.9 Pb       14:03:10.61    0.2 210.0                     T__                        _e            01575505
TWF1    1.12 211.9 Sg       14:03:26.19    0.4 210.0                     T__                        _e            01575506
YUS     1.22 228.2 Pn       14:03:11.64   -0.5 227.0                     T__                        _e            01575507
YUS     1.22 228.2 Sb       14:03:27.31   -0.6 227.0                     T__                        _e            01575508
ALS     1.30 232.9 Pn       14:03:13.48    0.3 231.0                     T__                        _e            01575509
ALS     1.30 232.9 Sn       14:03:30.56    0.2 231.0                     T__                        _e            01575510
CHN5    1.35 238.8 Pb       14:03:14.27   -0.2 238.0                     T__                        _e            01575511
CHN5    1.35 238.8 Sg       14:03:32.83   -0.5 238.0                     T__                        _e            01575512
ELDTW   1.40 217.4 Pn       14:03:14.61    0.3 216.0                     T__                        _e            01575513
ELDTW   1.40 217.4 Sb       14:03:33.55    0.8 216.0                     T__                        _e            01575514
CHN4    1.56 232.6 Pb       14:03:18.2     0.3 231.0                     T__                        _e            01575515
CHN4    1.56 232.6 Sb       14:03:38.08    0.8 231.0                     T__                        _e            01575516
STYT    1.57 223.8 Pb       14:03:18.2     0.0 222.0                     T__                        _e            01575517
STYT    1.57 223.8 Sb       14:03:37.63   -0.1 222.0                     T__                        _e            01575518
WTP     1.61 229.2 Pb       14:03:18.43   -0.4 228.0                     T__                        _e            01575519
WTP     1.61 229.2 Sn       14:03:37.4    -0.1 228.0                     T__                        _e            01575520
IRIF    1.64  88.6 Pn       14:03:17.4    -0.1                           T__                        __            05930535
IRIF    1.64  88.6 Sn       14:03:38.9     0.8                           T__                        _e            05930536
HATJ    1.72  97.9 Sb       14:03:42.3     0.2                           T__                        _e            05930537
JKRS    1.89  91.6 Pn       14:03:21.2     0.2                           T__                        __            05930538
JKRS    1.89  91.6 Sb       14:03:46.2    -0.7                           T__                        _e            05930539
JIJ     2.01  87.9 Pn       14:03:21.9    -0.8                           T__                        __            05930540
JISG    2.18  82.1 Pn       14:03:24.2    -0.8                           T__                        __            05930541
JISG    2.18  82.1 Sn       14:03:51.5    -0.1                           T__                        _e            05930542

Event 600242752 Off east coast of North Island
   Date       Time        Err   RMS Latitude Longitude  Smaj  Smin  Az Depth   Err Ndef Nsta Gap  mdist  Mdist Qual   Author      OrigID
2010/12/20 14:05:41.49   0.76 0.260 -36.6902  176.9928   6.1   5.5  90  33.0f        10      301   1.24   1.71     ke WEL       00254470

Magnitude  Err Nsta Author      OrigID
ML     3.5 0.1    5 WEL       00254470

Sta     Dist  EvAz Phase        Time      TRes  Azim AzRes   Slow   SRes Def   SNR       Amp   Per Qual Magnitude    ArrID
HAZ     1.24 149.6 Pn       14:06:01.958  -0.5                           ___                        __            04177196
HAZ     1.24 149.6 Sn       14:06:17.658  -0.3                           ___                        __            04177197
MXZ     1.36 130.1 Pn       14:06:04.078  -0.1                           ___                        __ ML     3.5 04177202
MXZ     1.36 130.1 Sn       14:06:19.718  -1.5                           ___           113.3        __ ML     3.7 04177203
MXZ     1.36 130.1 AML      14:06:20.778                                 ___            96.9        __ ML     3.6 04177204
PKGZ    1.46 143.9 Pn       14:06:04.998  -0.6                           ___                        __            04177205
URZ     1.57 176.6 Pn       14:06:07.529   0.5                           ___                        __ ML     3.6 04177209
WMGZ    1.60 135.2 Pn       14:06:04.948  -2.5                           ___                        __            04177210
TWGZ    1.68 152.4 Pn       14:06:08.818   0.2                           ___                        __            04177208
MWZ     1.70 165.6 Pn       14:06:08.288  -0.6                           ___                        __ ML     3.5 04177200
MWZ     1.70 165.6 Sn       14:06:28.278  -1.2                           ___                        __            04177201
PUZ     1.71 144.3 Pn       14:06:07.301  -1.7                           ___                        __ ML     3.3 04177206
PUZ     1.71 144.3 Sn       14:06:29.471  -0.3                           ___                        __            04177207
KNZ     2.39 167.2 Pn       14:06:14.458  -3.8                           ___                        __            04177198
BKZ     2.50 188.9 Pn       14:06:21.361   1.4                           ___                        __ ML     3.6 04177195
KWHZ    2.77 189.2 Pn       14:06:23.388  -0.2                           ___                        __            04177199
BHHZ    2.89 194.4 Pn       14:06:26.068   0.8                           ___                        __            04177194

