Event 601851986 Off west coast of northern Sumatera
   Date       Time        Err   RMS Latitude Longitude  Smaj  Smin  Az Depth   Err Ndef Nsta Gap  mdist  Mdist Qual   Author      OrigID
2010/12/21 14:07:44.84   0.33 0.890   2.7632   95.8265  10.9   8.5  28   0.0f        67       31   3.09 159.27     uk IDC       16692966
2010/12/21 14:07:45.50        0.800   2.6700   95.9400                  19.0         96      293  21.20  54.40     uk BJI       16011133
2010/12/21 14:07:45.87   0.49 1.039   2.7216   95.8775 3.111 2.372  39  15.2  3.59  863 1235  37   0.55  99.52 m i ke ISCJB     02145710
2010/12/21 14:07:46.50   0.98         2.7840   95.9050   6.0   3.8 114  21.0        184                               MOS       16742897
2010/12/21 14:07:48.30   0.10         2.4400   95.5900 1.112 1.112  -1  23.2   0.5  527  121                          GCMT      00126011
 (#CENTROID)
2010/12/21 14:07:48.60                2.7447   95.7803                  25.0                                          KLM       00192411
2010/12/21 14:07:49.00   0.00         2.7100   95.9100   0.0   0.0      21.0   0.0                                 se NEIC      01602461
 (#CENTROID)
2010/12/21 14:07:49.30   0.10 1.800   2.6600   95.8700                  10.0f                 63                      DJA       01269812
2010/12/21 14:07:50.70   0.62 0.920   2.7600   95.8939   6.3   3.6  41  37.7   6.2   67            2.69  74.47     uk AUST      16827882
2010/12/21 14:07:56.03        0.490   3.9500   94.5900                  33.0                 157  81.04  86.00     ke BGR       16816068
2010/12/21 14:07:49.05   0.31 1.438   2.7174   95.8302 4.176 3.463  56  26.9  1.86 1110 1235  20   0.58 159.24 m i ke ISC       01614146
 (#PRIME)

Magnitude  Err Nsta Author      OrigID
mb     5.0 0.1   42 IDC       16692966
mb1    5.0 0.1   46 IDC       16692966
mb1mx  5.0 0.0   50 IDC       16692966
mbtmp  5.0 0.1   46 IDC       16692966
ML     4.7 0.2    4 IDC       16692966
MS     5.6 0.0   41 IDC       16692966
Ms1    5.6 0.0   41 IDC       16692966
ms1mx  5.5 0.0   52 IDC       16692966
mb     5.7       83 BJI       16011133
mB     6.1       73 BJI       16011133
Ms     6.1       90 BJI       16011133
Ms7    5.8       84 BJI       16011133
mb     5.4      214 ISCJB     02145710
MS     5.8      439 ISCJB     02145710
mb     5.8       79 MOS       16742897
MS     5.6       75 MOS       16742897
MW     5.8      121 GCMT      00126011
mb     5.6          KLM       00192411
MS     6.4          KLM       00192411
M      5.7       94 DJA       01269812
mb     5.5 0.2   94 DJA       01269812
mB     6.0 0.1   86 DJA       01269812
MLv    5.8 0.2   22 DJA       01269812
       5.6 0.4   86 DJA       01269812
Mwp    5.9 0.2   21 DJA       01269812
mb     4.9          BGR       16816068
Ms     5.4          BGR       16816068
mb     5.5 0.3  225 ISC       01614146
MS     5.9 0.1  443 ISC       01614146

Sta     Dist  EvAz Phase        Time      TRes  Azim AzRes   Slow   SRes Def   SNR       Amp   Per Qual Magnitude    ArrID
SNSI    0.58 121.7 Pb       14:07:59.1    -1.6                           T__          1212.1        __            25886041
SNSI    0.58 121.7 Sb       14:08:08.7     0.0                           T__          1212.1        __            25886042
TPTI    1.45  68.2 Pn       14:08:13.8     0.2                           T__            59.3        __            25886043
TPTI    1.45  68.2 Sb       14:08:34.8     1.3                           T__            59.3        __            25886044
MLSI    1.64  20.4 Pb       14:08:18.3    -0.4                           T__           472.4        __            25886045
MLSI    1.64  20.4 Sb       14:08:40.4     1.4                           T__           472.4        __            25886046
KCSI    2.10  67.5 Pn       14:08:24.0     1.5                           T__           103.9        __            25886047
KCSI    2.10  67.5 Sb       14:08:51.1    -1.0                           T__           103.9        __            25886048
GSI     2.24 128.8 Pn       14:08:23.7    -0.7                           T__            47.6        __            25886049
GSI     2.24 128.8 Pn       14:08:23.39   -1.0                           T__                        _e            32822680
LHMI    2.73  24.0 Pn       14:08:32.92    1.7   2.7                     T__  22.6                  __            62673364
LHMI    2.73  24.0 Pn       14:08:33.3     2.1                           T__           120.6        __            25886051
LHMI    2.73  24.0 Pn       14:08:32.83    1.7                           T__                        _e            32822803
TSI     2.84  74.0 Pn       14:08:34.3     1.6                           T__            86.4        __            25886052
PSI     3.09  88.4 Pn       14:08:36.675   0.4 277.3         6.80        T__ 170.4      49.6  0.33  __            58651713
PSI     3.09  88.4 Sn       14:09:13.8     1.4  91.4        23.30        T__   4.5     124.9  0.33  __            58651714
PSI     3.09  88.4 Lg       14:09:30.675        81.0        12.20        ___   3.6      82.3  0.33  __            58651715
PSI     3.09  88.4 LR       14:09:30.694       254.5        34.20        ___         45936.8 21.33  __            58651716
PSI     3.09  88.4 Pn       14:08:36.7     0.4                           T__                        __            60126213
PSI     3.09  88.4          14:09:13.8                                   ___                        __            60126215
PSI     3.09  88.4 pmax                                                  ___            50.0  0.30  __            60126214
PSI     3.09  88.4 smax                                                  ___           125.0  0.30  __            60126216
PSI     3.09  88.4 MLR                                                   ___         45937.0 21.30  __            60126217
PSI     3.09  88.4 Pn       14:08:36.644   0.4   3.0                     T__ 192.8                  __            62673376
PSI     3.09  88.4 Pn       14:08:36.58    0.4                           T__                        _e            32822974
PSI     3.09  88.4 Sn       14:09:13.8     1.4                           T__                        __            32822975
PSI     3.09  88.4 Lg       14:09:30.67                                  ___                        __            32822976
MNSI    4.21 116.9 Pn       14:08:52.1     0.6                           T__            16.3        __            25886055
CMBY    4.67 336.1 Pn       14:08:56.12   -1.7                           T__                        _e            01502869
CMBY    4.67 336.1 AMB      14:08:59.71                                  ___           683.3  0.70  __            01502870
SISI    5.17 140.9 Pn       14:09:04.4    -0.4                           T__             7.4        __            25886056
KULM    5.45  61.9 Pn       14:09:08.85    0.3                           T__                        _e            32822785
IPM     5.47  71.2 Pn       14:09:09.61    0.7                           T__                        __            02875875
IPM     5.47  71.2 Pn       14:09:09.22    0.3                           T__                        _e            32822725
PPI     5.55 124.6 Pn       14:09:11.1     1.2   5.5                     T__  54.7                  __            62673375
PPI     5.55 124.6 Pn       14:09:10.6     0.7                           T__             3.2        __            25886059
BKNI    5.72 114.4 Pn       14:09:12.559   0.2   5.7                     T__  11.0                  __            62673345
BKNI    5.72 114.4 Pn       14:09:13.0     0.6                           T__             7.8        __            25886060
BKNI    5.72 114.4 Pn       14:09:09.53   -2.8                           T__                        _e            32822506
FRIM    5.81  84.8 Pn       14:09:14.021   0.5                           T__                        __            02875876
PDSI    5.87 127.8 Pn       14:09:14.6     0.2                           T__             2.8        __            25886061
TRTT    6.37  36.9 Pn       14:09:21.7     0.4                           T__             4.7        __            49860782
KRAB    6.41  31.4 Pn       14:09:22.6     0.8                           T__             4.7        __            49860783
SKLT    6.51  47.0 Pn       14:09:24.0     0.9                           T__         11664.6        __            49860784
SDSI    6.67 122.9 Pn       14:09:25.2    -0.1                           T__             3.3        __            25886063
PPSI    6.86 142.5 Pn       14:09:27.2    -0.8                           T__             5.3        __            25886064
SURA    7.44  30.4 Pn       14:09:36.1     0.2                           T__             1.9        __            49860785
KGM     7.51  95.2 Pn       14:09:37.757   0.8                           T__                        __            02875877
KTGM    7.73  70.2 Pn       14:09:40.429   0.5                           T__                        __            02875878
BTDF    8.05  99.5 Pn       14:09:44.854   0.5   8.0                     T__   6.4                  __            62673348
MYKOM   8.07  96.4 Pn       14:09:44.825   0.3                           T__                        __            02875879
MYKOM   8.07  96.4 Pn       14:09:44.22   -0.3                           T__                        _e            32822890
MASI    8.65 132.2 Pn       14:09:53.3     0.6                           T__         12433.5        __            25886067
TPRI    8.87 101.5 Pn       14:09:56.1     0.5                           T__         65639.1        __            25886068
JMBI    8.93 118.9 Pn       14:09:57.2     0.9                           T__           675.0  0.98  __            25886069
KSI     9.26 133.1 Pn       14:10:00.9    -0.1                           T__         11734.5        __            25886071
PBA     9.39 341.1 Pn       14:10:02.93    0.2                           ___                        _e            01502886
PBA     9.39 341.1 AMB      14:10:10.85                                  ___            89.1  0.87  __            01502887
MNAI   10.01 134.6 Pn       14:10:09.932  -1.3  10.0                     T__  43.1                  __            62673367
MNAI   10.01 134.6 Pn       14:10:10.4    -0.8                           T__         17830.5        __            25886072
MNAI   10.01 134.6 Pn       14:10:10.13   -1.1                           T__                        _e            32822860
LHSI   10.07 130.2 Pn       14:10:12.1     0.1                           T__         17724.0        __            25886073
PMBI   10.55 122.0 Pn       14:10:29.0    10.4                           ___                        __            25886074
DGPR   10.78 344.7 Pn       14:10:23.42    1.6                           T__                        _e            01502873
DGPR   10.78 344.7 AMB      14:10:43.05                                  ___           414.3  1.78  __            01502874
PHET   10.80  20.2 Pn       14:10:24.2     2.1                           T__           361.4        __            49860786
MDSI   10.99 130.6 Pn       14:10:23.3    -1.3                           T__          3742.0        __            25886076
LWLI   11.25 133.1 Pn       14:10:27.2    -1.2                           T__           638.4  0.71  __            25886077
PATY   11.30  25.9 Pn       14:10:31.3     2.4                           T__          1877.7        __            49860787
PPBI   11.39 115.1 Pn       14:10:31.1     1.0                           T__          4665.9        __            25886078
KLSI   11.54 129.6 Pn       14:10:31.3    -0.9                           T__          1343.5        __            25886079
KLI    11.75 129.8 Pn       14:10:35.7     0.7                           T__          3588.2        __            25886080
CHBT   11.87  32.5 Pn       14:10:42.9     6.3                           ___                        __            49860788
KASI   11.91 133.4 Pn       14:10:34.7    -2.6                           T__          4023.3        __            25886081
KHLT   12.31  12.6 Pn       14:10:43.5     0.8                           T__          2605.4        __            49860789
NAYO   12.74  24.9 Pn       14:10:49.7     1.2                           T__          5329.0        __            49860790
SRAK   12.79  28.3 P        14:10:55.7    -4.3                           ___                        __            49860791
UTHA   13.25  15.4 Pn       14:10:56.4     0.9                           T__           308.4        __            49860792
CGJI   13.52 133.3 Pn       14:10:54.2    -5.1                           ___          1742.8        __            25886083
UMPA   13.73  12.4 Pn       14:11:01.3    -0.9                           T__           418.9        __            49860793
SKJI   14.42 132.1 Pn       14:11:11.2    -0.4                           T__          3085.1        __            25886084
CHAI   14.44  24.5 Pn       14:11:12.6     0.8                           T__           588.3        __            49860794
KSM    14.52  94.6 Pn       14:11:13.771   0.8  14.5                     T__   6.3                  __            62673363
KSM    14.52  94.6 Pn       14:11:13.344   0.4                           T__                        __            02875880
KSM    14.52  94.6 Pn       14:11:13.18    0.2                           T__                        _e            32822782
PBKT   14.66  19.8 Pn       14:11:15.0     0.1                           T__          7768.5        __            49860795
COCO   14.84 176.2 Pn       14:11:17.9     0.6                           T__                        _i            60126218
COCO   14.84 176.2 Pn       14:11:14.85   -2.4                           T__           680.7  0.80  _e            32822565
CNJI   15.04 131.5 Pn       14:11:13.4    -6.6                           ___                        __            25886088
LEM    15.11 128.9 Pn       14:11:22.275   1.3 308.3        19.10        T__   1.7       2.1  0.33  __            58651681
LEM    15.11 128.9 Sn       14:14:09.5     1.7 344.7        22.30        T__   1.9       2.2  0.33  __            58651682
LEM    15.11 128.9 Lg       14:15:41.85         28.0        20.10        ___   2.5                  __            58651683
LEM    15.11 128.9 LR       14:18:07.906       296.5        41.10        ___         43034.2 19.77  __            58651684
LEM    15.11 128.9 Pn       14:11:22.3     1.3                           T__                        __            60126219
LEM    15.11 128.9          14:14:09.5                                   ___                        __            60126221
LEM    15.11 128.9 pmax                                                  ___             2.0  0.30  __            60126220
LEM    15.11 128.9 smax                                                  ___             2.0  0.30  __            60126222
LEM    15.11 128.9 MLR                                                   ___         43034.0 19.80  __            60126223
LEM    15.11 128.9 P        14:11:29.3     3.3                           T__                        __            25886089
SUKH   15.14  14.0 Pn       14:11:20.8    -0.4                           T__           375.3        __            49860796
KHON   15.18  26.5 Pn       14:11:23.4     1.6                           T__          2087.6        __            49860797
MHMT   15.50   7.5 Pn       14:11:24.9    -1.1                           T__          2343.5        __            49860798
DLV    15.53  53.2 Pn       14:11:27.31    0.7                           T__           230.8  1.40  _e            32822606
UTTA   15.64  16.9 Pn       14:11:27.9     0.2                           T__           619.7        __            49860800
LOEI   15.64  19.6 Pn       14:11:29.0     1.2                           T__          9312.0        __            49860799
UBPT   15.69  36.7 Pn       14:11:29.1     0.7                           T__         11980.6        __            49860801
CISI   15.72 130.6 Pn       14:11:22.6    -6.3                           ___                        __            25886090
CISI   15.72 130.6 Pn       14:11:22.47   -6.4                           ___           101.6  0.70  _e            32822553
PALK   15.73 287.3 Pn       14:11:29.669   0.6 115.7        14.20        T__  22.2       1.9  0.33  __            58651704
PALK   15.73 287.3 LR       14:16:49.627       126.2        34.70        ___         35884.0 20.73  __            58651705
PALK   15.73 287.3 Pn       14:11:29.9     0.8                           T__                        _e            60126224
PALK   15.73 287.3 pmax                                                  ___           420.0  1.20  __            60126225
PALK   15.73 287.3 P        14:11:32.27   -0.5                           T__  18.1                  __            03714416
PALK   15.73 287.3 P        14:11:31.1    -1.7                           T__   6.5    1166.6  1.50  __            04421348
PALK   15.73 287.3 Pn       14:11:29.325   0.3                           T__  18.1                  _i            04685384
PALK   15.73 287.3 Pn       14:11:29.54    0.5                           T__           422.3  1.30  _e            32822943
CM11   15.86  10.9 Pn       14:11:30.5    -0.1  15.9                     T__                        __            62673350
STKI   15.86  99.3 P        14:11:32.8    -1.4                           T__          9970.7        __            25886093
CM01   15.90  10.9 Pn       14:11:29.64   -1.6                           T__                        _e            32822557
CMAR   15.94  10.8 Pn       14:11:31.3    -0.3 198.2        12.90        T__  74.2       2.5  0.33  __            58651628
CMAR   15.94  10.8 Sn       14:14:30.175   2.5 226.6        12.00        T__   2.2       0.1  0.33  __            58651629
CMAR   15.94  10.8 Lg       14:16:15.95        181.5        30.40        ___   4.5       0.1  0.33  __            58651630
CMAR   15.94  10.8 LR       14:17:33.585       199.0        37.00        ___         25694.4 20.52  __            58651631
SKNT   16.27  29.0 Pn       14:11:35.5    -0.5                           T__         11762.6        __            49860802
CHTO   16.29  10.6 Pn       14:11:35.1    -1.0                           T__         26262.6        __            49860803
CHTO   16.29  10.6 Pn       14:11:35.2    -0.9                           T__                        _e            60126230
CHTO   16.29  10.6 pmax                                                  ___          2800.0  3.00  __            60126231
CHTO   16.29  10.6 Pn       14:11:35.369  -0.7                           T__ 152.1                  __            03714409
CHTO   16.29  10.6 Pn       14:11:35.22   -0.9                           T__          2774.9  3.00  _e            32822552
CMMT   16.29  10.6 Pn       14:11:35.0    -1.1                           T__          5896.9        __            49860804
XMI    16.35 143.3 Pn       14:11:34.951  -2.0  16.4                     T__   3.6                  __            62673384
XMIS   16.36 143.4 Pn       14:11:33.12   -3.9                           T__           137.0  1.10  _e            32823296
SBUM   16.38  90.6 Pn       14:11:37.066  -0.2                           T__                        __            02875881
SBUM   16.38  90.6 Pn       14:11:36.89   -0.4                           T__           977.6  2.30  _e            32823029
PBKI   16.73 108.7 P        14:11:44.1     0.3                           T__         11760.0        __            25886097
PANO   16.73  30.5 Pn       14:11:41.2    -0.6                           T__          9851.0        __            49860805
NONG   16.85  24.7 Pn       14:11:42.4    -0.9                           T__          8697.0        __            49860806
