Event 16630387 Northwestern Balkan Peninsula
   Date       Time        Err   RMS Latitude Longitude  Smaj  Smin  Az Depth   Err Ndef Nsta Gap  mdist  Mdist Qual   Author      OrigID
2010/12/21 14:14:10.90   0.33        43.1500   18.9400   0.1   0.0       0.0   0.0   15    8       0.61   1.51     ke BEO       16102276

Magnitude  Err Nsta Author      OrigID
ML     1.8        6 BEO       16102276

Sta     Dist  EvAz Phase        Time      TRes  Azim AzRes   Slow   SRes Def   SNR       Amp   Per Qual Magnitude    ArrID
TREB    0.61 225.2 Pg       14:14:21.3    -1.4                           ___                        _e ML     1.6 47010312
TREB    0.61 225.2 Sg       14:14:29.6    -1.0                           ___                        _e            47010313
PDG     0.76 162.0 Pg       14:14:25.8     0.4                           ___                        _e ML     1.8 47010307
PDG     0.76 162.0 Sg       14:14:34.2    -1.0                           ___                        _e            47010308
SJES    0.76  81.3 Pg       14:14:25.5    -0.2                           ___                        _e ML     1.9 47010309
SJES    0.76  81.3 Sg       14:14:34.4    -1.4                           ___                        _e            47010310
BBLS    0.79  25.1 Pg       14:14:25.1    -1.1                           ___                        ci ML     1.8 47010301
BBLS    0.79  25.1 Sg       14:14:35.3    -1.3                           ___                        _e            47010302
IVAS    0.98  63.8 Pg       14:14:28.8    -1.1                           ___                        _e ML     1.9 47010305
IVAS    0.98  63.8 Sg       14:14:40.6    -2.1                           ___                        _e            47010306
DIVS    1.22  38.5 Pg       14:14:33.0    -1.4                           ___                        ci ML     1.5 47010303
DIVS    1.22  38.5 Sg       14:14:48.6    -1.7                           ___                        _e            47010304
TEKS    1.46  16.7 Pn       14:14:38.0    -0.6                           ___                        _e            47010311
TRUS    1.51  44.2 Pn       14:14:39.1    -0.2                           ___                        _e            47010314
TRUS    1.51  44.2 Sg       14:14:59.5    -0.0                           ___                        _e            47010315

Event 16327801 Turkey
   Date       Time        Err   RMS Latitude Longitude  Smaj  Smin  Az Depth   Err Ndef Nsta Gap  mdist  Mdist Qual   Author      OrigID
2010/12/21 14:16:29.20               37.8480   27.3100                  10.0              11                          ISK       15712952
2010/12/21 14:16:29.50   0.14 0.640  37.8255   27.3038   3.9   2.5  53  12.0         17   11  95   0.14   1.28     ke CSEM      01406836
2010/12/21 14:16:29.82   0.44 0.766  37.8382   27.2890 5.765 4.164  27   9.3  5.71   40   25 102   0.14   1.27 m i ke ISCJB     02145711
2010/12/21 14:16:29.85        0.540  37.8452   27.2832                   7.8                 108                      DDA       01392076
2010/12/21 14:16:29.63   0.85 0.331  37.8344   27.2981 4.673 3.105  44  12.3  7.63   40   25  98   0.14   1.27 m i ke ISC       01614147
 (#PRIME)

Magnitude  Err Nsta Author      OrigID
MD     2.8          ISK       15712952
MD     2.7          CSEM      01406836
Md     2.7          DDA       01392076

Sta     Dist  EvAz Phase        Time      TRes  Azim AzRes   Slow   SRes Def   SNR       Amp   Per Qual Magnitude    ArrID
GCAM    0.14 200.9 Pg       14:16:32.94   -0.2                           T__                        __            27531936
GCAM    0.14 200.9 Sg       14:16:35.67    0.1                           T__                        __            27531937
GCAM    0.14 200.9 Pg       14:16:32.9    -0.2                           T__                        _i            27674492
GCAM    0.14 200.9 Sg       14:16:35.7     0.1                           T__                        _i            27674493
DGB     0.39 303.6 Pb       14:16:38.2    -0.3                           T__                        __            27531934
DGB     0.39 303.6 Sg       14:16:42.95    0.2                           T__                        __            27531935
AYDB    0.48  76.4 Pg       14:16:38.91   -0.3                           T__                        _e            34515179
AYDB    0.48  76.4 Sg       14:16:45.88    0.3                           T__                        _e            34515180
AYDB    0.48  76.4 Pg       14:16:38.9    -0.3                           T__                        _e            27674488
AYDB    0.48  76.4 Sg       14:16:45.9     0.3                           T__                        _e            27674489
AYDN    0.49 110.4 Pn       14:16:41.79   -0.7                           T__                        __            27531932
AYDN    0.49 110.4 Sb       14:16:48.55    1.1                           T__                        __            27531933
IZM     0.56 357.1 Pg       14:16:40.35   -0.3                           T__                        _e            34515181
IZM     0.56 357.1 Sg       14:16:48.64    0.5                           T__                        _e            34515182
IZM     0.56 357.1 Pg       14:16:40.4    -0.3                           T__                        _e            27674494
IZM     0.56 357.1 Sg       14:16:48.6     0.5                           T__                        _e            27674495
MLSB    0.66 144.6 Pg       14:16:42.41   -0.0                           T__                        _e            34515183
MLSB    0.66 144.6 Sb       14:16:52.28    0.1                           T__                        _e            34515184
MLSB    0.66 144.6 Pg       14:16:42.4    -0.0                           T__                        _e            27674497
MLSB    0.66 144.6 Sb       14:16:52.3     0.1                           T__                        _e            27674498
ZEY     0.75 303.0 Pg       14:16:44.07   -0.0                           T__                        __            27531940
ZEY     0.75 303.0 Sb       14:16:54.44   -0.2                           T__                        __            27531941
URLA    0.76 313.7 Pb       14:16:44.99    0.1                           T__                        __            27531938
URLA    0.76 313.7 Sb       14:16:55.8     0.6                           T__                        __            27531939
URLA    0.76 313.7 Pb       14:16:45.0     0.1                           T__                        _i            27674499
URLA    0.76 313.7 Sb       14:16:55.8     0.6                           T__                        _i            27674500
YER     1.05 131.4 Pb       14:16:49.8     0.1                           T__                        _e            34515185
YER     1.05 131.4 Pb       14:16:49.8     0.1                           T__                        _e            27674501
AKHS    1.12  21.1 Pb       14:16:50.78   -0.1                           T__                        __            27531930
AKHS    1.12  21.1 Sn       14:17:06.33   -0.1                           T__                        __            27531931
AKHS    1.12  21.1 Pb       14:16:50.8    -0.1                           T__                        _i            27674485
AKHS    1.12  21.1 Sn       14:17:06.3    -0.1                           T__                        _i            27674486
AKS     1.12  21.1 Pb       14:16:50.74   -0.2                           T__                        _e            34515186
AKS     1.12  21.1 Pb       14:16:50.7    -0.2                           T__                        _e            27674487
CHOS    1.12 299.7 Pb       14:16:51.15    0.1                           T__                        _e            34515187
CHOS    1.12 299.7 Pb       14:16:51.2     0.1                           T__                        _e            27674490
KULA    1.27  57.3 Pn       14:16:53.19   -0.1                           T__                        _e            34515188
KULA    1.27  57.3 Pn       14:16:53.2    -0.1                           T__                        _e            27674496
DKL     1.27 346.1 Pb       14:16:53.46   -0.0                           T__                        _e            34515189
DKL     1.27 346.1 Pb       14:16:53.5    -0.0                           T__                        _e            27674491

Event 16392648 South of Timor
   Date       Time        Err   RMS Latitude Longitude  Smaj  Smin  Az Depth   Err Ndef Nsta Gap  mdist  Mdist Qual   Author      OrigID
2010/12/21 15:00:33.28   0.66 1.084 -12.8482  127.3571 11.52 7.828 163  10.0f        23   20 114   3.12  75.72 m i ke ISCJB     02145712
2010/12/21 15:00:34.92   1.03 0.910 -12.7270  127.1602  33.6  15.6  81   0.0f        10      118   5.54  75.54     uk IDC       16692969
2010/12/21 15:00:42.05   0.01 0.480 -13.1300  127.3353f  0.2   0.1 322  10.0   0.0   13            2.90   9.71     uk AUST      16827883
2010/12/21 15:00:35.78   0.86 1.850 -12.8095  127.1649 14.23 9.706 111  10.0f        20   20 114   3.24  75.61 m i ke ISC       01614148
 (#PRIME)

Magnitude  Err Nsta Author      OrigID
mb     3.6        5 ISCJB     02145712
mb     3.7 0.2    5 IDC       16692969
mb1    4.0 0.1    9 IDC       16692969
mb1mx  3.8 0.1   29 IDC       16692969
mbtmp  3.9 0.1    9 IDC       16692969
ML     3.9 0.1    4 IDC       16692969
mb     3.8 0.4    5 ISC       01614148

Sta     Dist  EvAz Phase        Time      TRes  Azim AzRes   Slow   SRes Def   SNR       Amp   Per Qual Magnitude    ArrID
KNRA    3.24 151.7 Pn       15:01:29.557   2.8   2.9                     T__                        __            62673388
MTN     3.87  90.9 Pn       15:01:38.152   2.7   3.7                     ___                        __            62673389
KDU     5.18  89.2 Pn       15:01:55.504   2.1   5.0                     T__                        __            62673387
FITZ    5.46 195.4 Pn       15:01:58.487   1.2  30.0        12.20        T__  52.9       2.8  0.33  __            58651757
FITZ    5.46 195.4 Sn       15:02:58.437  -1.8 134.6        16.30        T__   6.3      10.4  0.33  __            58651758
FITZ    5.46 195.4 Lg       15:03:31.112       292.0        19.10        ___  18.3      26.5  0.33  __            58651759
FITZ    5.46 195.4 Pn       15:01:58.6     1.3   5.2                     T__                        __            62673386
WB7     9.84 136.2 Pn       15:02:56.016  -1.4   9.5                     T__                        __            62673392
WB5     9.86 136.4 Pn       15:02:55.777  -1.9   9.5                     T__                        __            62673391
WRA     9.88 136.8 Pn       15:02:57.275  -0.8 317.6        13.70        T__  40.2       1.5  0.33  __            58651764
WRA     9.88 136.8 Sn       15:04:40.825  -8.3  37.8        17.00        ___  13.4      10.0  0.33  __            58651765
WB2     9.89 136.8 Pn       15:02:55.601  -2.5   9.6                     T__                        __            62673390
WC3     9.91 136.7 Pn       15:02:56.0    -2.5   9.6                     T__                        __            62673393
WR4     9.93 136.6 Pn       15:02:56.501  -2.2   9.6                     T__                        __            62673395
WR9    10.01 136.2 Pn       15:02:58.279  -1.5   9.7                     T__                        __            62673396
WR0    10.03 136.1 Pn       15:02:58.746  -1.3   9.7                     T__                        __            62673394
SIJI   12.54  19.2 Pn       15:03:33.4    -1.0 274.3        19.20        T__   4.2       0.3  0.33  __            58651762
ASAR   12.55 150.3 Pn       15:03:34.8     0.2 318.6        10.70        T__  40.8       0.7  0.33  __            58651754
ASAR   12.55 150.3 Sn       15:05:44.492 -10.1 322.8        23.60        ___  15.2       2.7  0.33  __            58651755
NWAO   21.99 202.8 P        15:05:31.45    1.3 104.8         0.50        T__   6.6      10.8  0.81  __            58651761
STKA   23.15 147.4 P        15:05:45.175   2.7 303.8        13.80        T__   3.0       0.7  0.45  __            58651763
CMAR   41.71 317.6 P        15:08:24.375  -0.8 141.3         6.40        T__   3.0       0.2  0.56  __            58651756
MKAR   71.65 329.3 P        15:11:58.225   0.6 129.0         6.30        T__   7.6       0.5  0.31  __            58651760
ZALV   75.61 335.7 P        15:12:21.681   0.9 146.0         8.00        T__   2.8       0.4  0.48  __            58651766

Event 17187415 Ascension Island region
   Date       Time        Err   RMS Latitude Longitude  Smaj  Smin  Az Depth   Err Ndef Nsta Gap  mdist  Mdist Qual   Author      OrigID
2010/12/21 15:06:04.61  13.07 0.550  -8.1650  -13.4649 321.9  18.3 172   0.0f         6      252   1.05  69.28     uk IDC       16692970

Magnitude  Err Nsta Author      OrigID
mb     3.6 0.1    3 IDC       16692970
mb1    3.8 0.1    3 IDC       16692970
mb1mx  3.5 0.1   25 IDC       16692970
mbtmp  3.6 0.1    3 IDC       16692970
MS     4.4 0.2    1 IDC       16692970
Ms1    4.4 0.2    1 IDC       16692970
ms1mx  3.4 0.2   38 IDC       16692970

Sta     Dist  EvAz Phase        Time      TRes  Azim AzRes   Slow   SRes Def   SNR       Amp   Per Qual Magnitude    ArrID
H10N1   1.05 287.4 Pn       15:06:26.527   0.2                           ___                        __            58651769
H10N1   1.05 287.4 T        15:07:37.954       119.7        75.30        ___  7476                  __            58651770
H10N2   1.07 288.2 Pn       15:06:26.527   0.1                           ___                        __            58651771
H10N2   1.07 288.2 T        15:07:38.574       119.7        75.30        ___  4927                  __            58651772
H10N3   1.08 287.3 Pn       15:06:26.527  -0.1                           ___                        __            58651773
H10N3   1.08 287.3 T        15:07:39.67        119.7        75.30        ___  4941                  __            58651774
H10S1   1.40 236.5 T        15:08:24.805        55.6        75.20        ___  98.7                  __            58651775
H10S2   1.41 235.9 T        15:08:25.169        55.6        75.20        ___  96.8                  __            58651776
H10S3   1.42 236.5 T        15:08:24.194        55.6        75.20        ___ 238.6                  __            58651777
TORD   25.98  35.6 P        15:11:38.65   -0.7 216.4         9.30        ___   4.9       1.0  0.73  __ mb     3.7 58651779
LSZ    41.34 103.8 LR       15:29:12.462        73.0        33.60        ___           441.2 19.23  __ MS     4.4 58651778
GERES  61.58  20.1 P        15:16:24.925   1.1 222.0         1.30        ___   3.5       0.2  0.37  __ mb     3.5 58651768
AKASG  69.28  27.5 P        15:17:13.2    -0.3 228.3         6.10        ___   4.0       0.2  0.28  __ mb     3.7 58651767

Event 17187416 Off west coast of northern Sumatera
   Date       Time        Err   RMS Latitude Longitude  Smaj  Smin  Az Depth   Err Ndef Nsta Gap  mdist  Mdist Qual   Author      OrigID
2010/12/21 15:19:43.80   1.95 1.090   2.2099   95.5905  60.9  21.9  55   0.0f         6      220   3.37  52.33     uk IDC       16692971
2010/12/21 15:19:49.28   1.03 1.208   2.6565   95.8439 11.28 8.698  40  25.0f        15   18 219   0.54  51.92 m i ke ISCJB     02145713
2010/12/21 15:19:53.10   0.80 1.000   2.5800   96.0700                  32.0   6.0           241                      DJA       01269811
2010/12/21 15:19:50.43   1.34 1.125   2.6188   95.9278 16.05 8.970  71  25.0f        14   18 218   0.45  51.97 m i ke ISC       01614150
 (#PRIME)

Magnitude  Err Nsta Author      OrigID
mb     3.4 0.2    4 IDC       16692971
mb1    3.5 0.1    6 IDC       16692971
mb1mx  3.3 0.1   55 IDC       16692971
mbtmp  3.3 0.2    6 IDC       16692971
ML     3.4 0.4    2 IDC       16692971
mb     3.3        4 ISCJB     02145713
M      3.6        7 DJA       01269811
mb     4.0        1 DJA       01269811
MLv    3.4 0.4    7 DJA       01269811
mb     3.4 0.6    4 ISC       01614150

Sta     Dist  EvAz Phase        Time      TRes  Azim AzRes   Slow   SRes Def   SNR       Amp   Per Qual Magnitude    ArrID
SNSI    0.45 117.6 Pn       15:20:00.9    -0.4                           T__            14.5        __            25886031
SNSI    0.45 117.6 Sn       15:20:09.7     1.1                           T__            14.5        __            25886032
TPTI    1.40  63.0 Pn       15:20:14.0    -0.4                           T__             0.3        __            25886033
TPTI    1.40  63.0 Sn       15:20:32.1    -0.1                           T__             0.3        __            25886034
MLSI    1.71  16.2 Pn       15:20:19.6     1.0                           T__             2.2        __            25886035
KCSI    2.05  64.0 Pn       15:20:23.9     0.6                           T__             0.3        __            25886036
KCSI    2.05  64.0 Sn       15:20:48.2     0.1                           T__             0.3        __            25886037
GSI     2.10 128.4 Pn       15:20:24.5     0.4                           T__             0.2        __            25886038
LHMI    2.79  21.4 Pb       15:20:37.8    -1.7                           T__             0.4        __            25886039
PSI     3.00  86.5 Pn       15:20:38.075   1.6   3.4        23.40        T__   3.9       1.2  0.33  __            58651789
CMAR   16.02  10.4 Pn       15:23:36.4     2.2 194.0        11.80        T__   4.0       0.1  0.33  __            58651781
H08S2  25.51 246.3 T        15:51:30.954        66.6        75.30        ___  70.6                  __            58651786
H08S3  25.51 246.3 T        15:51:30.335        66.6        75.30        ___  45.9                  __            58651787
H08S1  25.52 246.3 T        15:51:33.505        66.6        75.30        ___  47.3                  __            58651785
H01W3  41.03 157.0 T        16:11:08.493       333.3        75.70        ___   5.8                  __            58651784
H01W2  41.05 157.0 T        16:11:09.443       333.3        75.70        ___   5.4                  __            58651783
H01W1  41.05 157.0 T        16:11:09.662       333.3        75.70        ___   7.6                  __            58651782
WRA    43.86 122.5 P        15:27:54.6    -0.5 302.3         9.20        T__   2.8       0.1  0.58  __            58651790
ASAR   45.26 127.4 P        15:28:01.643  -4.6 299.9         8.70        ___   2.9       0.2  0.92  __            58651780
MKAR   45.57 346.9 P        15:28:08.025  -0.4 161.8         8.70        T__  11.6       0.5  0.40  __            58651788
ZALV   51.97 351.7 P        15:28:57.075  -0.3 177.9         7.80        T__   5.3       0.7  0.44  __            58651791

