Event 601607767 Turkey
   Date       Time        Err   RMS Latitude Longitude  Smaj  Smin  Az Depth   Err Ndef Nsta Gap  mdist  Mdist Qual   Author      OrigID
2010/12/21 15:48:05.40   0.65 1.110  37.2886   42.5706  18.1   7.8   8   2.0          9    5 203   0.24   1.70     ke CSEM      01406803
2010/12/21 15:48:06.14        0.530  37.3233   42.5817                   7.1                 195                      DDA       01392077
2010/12/21 15:48:05.53   1.92 0.609  37.3194   42.6090 15.10 5.721   2   2.6  13.6   20   11 195   0.23   1.73 m i ke ISC       01960419
 (#PRIME)

Magnitude  Err Nsta Author      OrigID
MD     2.7          CSEM      01406803
Md     2.7          DDA       01392077

Sta     Dist  EvAz Phase        Time      TRes  Azim AzRes   Slow   SRes Def   SNR       Amp   Per Qual Magnitude    ArrID
SIRT    0.23 323.4 Pg       15:48:09.24   -0.7                           T__                        _e            34515196
SIRT    0.23 323.4 Sg       15:48:13.35    0.5                           T__                        _e            34515197
SIRT    0.23 323.4 Pg       15:48:09.2    -0.7                           T__                        _e            27674288
SIRT    0.23 323.4 Sg       15:48:13.4     0.5                           T__                        _e            27674289
SIRN    0.24 318.6 Pg       15:48:09.57   -0.5                           T__                        __            27531948
SIRN    0.24 318.6 Sg       15:48:13.9     0.7                           T__                        __            27531949
SIRN    0.24 318.6 Pg       15:48:09.6    -0.5                           T__                        _i            27674286
SIRN    0.24 318.6 Sg       15:48:13.9     0.7                           T__                        _i            27674287
HAKT    0.91  74.4 Pb       15:48:24.17    0.1                           T__                        __            27531944
HAKT    0.91  74.4 Sb       15:48:37.2     0.5                           T__                        __            27531945
HAKT    0.91  74.4 Pb       15:48:24.2     0.1                           T__                        _i            27674283
HAKT    0.91  74.4 Sb       15:48:37.2     0.5                           T__                        _i            27674284
BTMN    1.21 298.6 Pb       15:48:29.37    0.3                           T__                        __            27531942
BTMN    1.21 298.6 Sn       15:48:46.43    0.0                           T__                        __            27531943
BTMN    1.21 298.6 Pb       15:48:29.4     0.3                           T__                        _i            27674281
BTMN    1.21 298.6 Sn       15:48:46.4     0.0                           T__                        _i            27674282
MARD    1.46 270.3 Pn       15:48:32.83   -0.1                           T__                        __            27531946
MARD    1.46 270.3 Sg       15:48:53.48    1.1                           T__                        __            27531947
MAZI    1.73 275.3 Pn       15:48:35.93   -0.7                           T__                        _e            34515198
MAZI    1.73 275.3 Pn       15:48:35.9    -0.7                           T__                        _e            27674285

Event 15854227 Poland
   Date       Time        Err   RMS Latitude Longitude  Smaj  Smin  Az Depth   Err Ndef Nsta Gap  mdist  Mdist Qual   Author      OrigID
2010/12/21 15:50:46.84   0.54 1.326  50.0803   18.3698 5.701 2.700   7   0.0f        46   27 154   0.11   3.26 m i ki ISCJB     02145718
2010/12/21 15:50:47.90   0.17 0.180  50.0528   18.4471   2.1   1.1 160   2.1   2.3    5    3 349   0.65   1.66     ki IPEC      01406802
2010/12/21 15:50:48.00   0.24 1.080  50.0704   18.3943   6.2   2.8   7   1.0f        26   15 153   0.13   3.27     ki CSEM      01406800
2010/12/21 15:50:49.60               50.0500   18.3400                   0.0         23                            ki PRU       00086078
2010/12/21 15:50:48.22   0.87 0.999  50.0674   18.4006 5.315 2.613   7   0.0f        46   27 152   0.13   3.27 m i ki ISC       01614155
 (#PRIME)

Magnitude  Err Nsta Author      OrigID
ML     1.6        3 IPEC      01406802
ML     2.7 0.3    9 CSEM      01406800

Sta     Dist  EvAz Phase        Time      TRes  Azim AzRes   Slow   SRes Def   SNR       Amp   Per Qual Magnitude    ArrID
RAC     0.13 276.9 Pg       15:50:52.1     1.3                           T__                        _e            27674275
RAC     0.13 276.9 Sg       15:50:55.2     2.7                           T__                        _e            27674276
OKC     0.28 215.5 Pg       15:50:54.2     0.6                           T__                        _e            01294836
OKC     0.28 215.5 Sg       15:50:58.7     1.4                           T__            32.7  0.50  _e            01294837
OKC     0.28 215.5 Pg       15:50:54.2     0.6                           T__                        __            27674271
OKC     0.28 215.5 Sg       15:50:58.7     1.4                           T__            32.7  0.50  __            27674272
MORC    0.63 242.7 Pg       15:51:00.3     0.1                           T__                        _e            27674267
MORC    0.63 242.7 Sg       15:51:08.1    -0.2  64.4                     T__            10.4  0.18  _e            27674268
OJC     0.91  79.9 Pg       15:51:05.1    -0.6                           T__                        _e            30885091
OJC     0.91  79.9 Sg       15:51:17.6     0.1                           T__                        _e            30885092
OJC     0.91  79.9 Pg       15:51:05.1    -0.6                           T__                        _e            27674269
OJC     0.91  79.9 Sg       15:51:17.6     0.1                           T__                        _e            27674270
KRLC    1.04 271.1 Pg       15:51:07.7    -0.5                           T__                        _e            01294834
KRLC    1.04 271.1 Sg       15:51:22.0     0.3                           T__                        _e            01294835
KRLC    1.04 271.1 Pg       15:51:07.7    -0.5                           T__                        __            27674262
KRLC    1.04 271.1 Sg       15:51:22.0     0.3                           T__                        __            27674263
LANS    1.15 142.5 Pg       15:51:10.4     0.1                           T__                        _e            27674265
LANS    1.15 142.5 Sg       15:51:24.1    -1.1                           T__                        _e            27674266
LANS    1.15 142.5 Pg       15:51:10.4     0.1                           T__                        _e            30430092
LANS    1.15 142.5 Sg       15:51:24.1    -1.1                           T__                        _e            30430093
DPC     1.36 282.8 Pg       15:51:13.9    -0.5                           T__                        _e            01294828
DPC     1.36 282.8 Sg       15:51:32.3     0.2                           T__            14.1  0.50  _e            01294829
DPC     1.36 282.8 Pg       15:51:13.9    -0.5                           T__                        __            27674256
DPC     1.36 282.8 Sg       15:51:32.3     0.2                           T__            14.1  0.50  __            27674257
NIE     1.39 117.1 Pb       15:51:15      -0.1                           T__                        _e            30885093
NIE     1.39 117.1 Sn       15:51:34.3     0.2                           T__                        _e            30885094
VRAC    1.40 237.8 Pn       15:51:14.5    -0.5                           T__                        _e            27674279
VRAC    1.40 237.8 Sg       15:51:32.3    -0.8  57.5                     T__             8.6  0.20  _e            27674280
UPC     1.59 287.0 Sg       15:51:39.9     0.5                           T__             7.1  0.50  _e            01294840
UPC     1.59 287.0 Sg       15:51:39.9     0.5                           T__             7.1  0.50  __            27674278
KRUC    1.65 233.1 Sn       15:51:39.8    -0.5  52.6                     T__             4.9  0.21  _e            27674264
STHS    1.96 108.4 Pg       15:51:25.8     0.1                           T__                        _e            27674277
STHS    1.96 108.4 Pg       15:51:25.8     0.1                           T__                        _e            30429548
STHS    1.96 108.4 Sg       15:51:53.4     2.4                           T__                        _e            30429549
STHS    1.96 108.4 Lg       15:51:56.7                                   ___                        _e            30429550
GOPC    2.34 267.6 Pg       15:51:32.2    -0.8                           T__                        _e            01294830
GOPC    2.34 267.6 Sb       15:52:01.6     1.0                           T__             2.4  0.30  _e            01294831
GOPC    2.34 267.6 Pg       15:51:32.2    -0.8                           T__                        __            27674258
GOPC    2.34 267.6 Sb       15:52:01.6     1.0                           T__             2.4  0.30  __            27674259
PRU     2.49 269.7 Sb       15:52:06.2     1.2                           T__             2.7  0.30  _e            01294838
PRU     2.49 269.7 Sb       15:52:06.2     1.2                           T__             2.7  0.30  __            27674273
PVCC    2.50 282.1 Sg       15:52:08.4    -0.1                           T__             7.1  0.20  _e            01294839
PVCC    2.50 282.1 Sg       15:52:08.4    -0.1                           T__             7.1  0.20  __            27674274
KHC     3.27 255.2 Pg       15:51:49.6    -1.3                           T__                        _e            01294832
KHC     3.27 255.2 Sg       15:52:31.4    -2.0                           T__             2.3  0.40  _e            01294833
KHC     3.27 255.2 Pg       15:51:49.6    -1.3                           T__                        __            27674260
KHC     3.27 255.2 Sg       15:52:31.4    -2.0                           T__             2.3  0.40  __            27674261

Event 17187417 South of Fiji Islands
   Date       Time        Err   RMS Latitude Longitude  Smaj  Smin  Az Depth   Err Ndef Nsta Gap  mdist  Mdist Qual   Author      OrigID
2010/12/21 15:57:57.16  51.69 0.350 -20.4184  178.7405 677.4 101.0  75 588.9   186    5      338  11.58  41.58     uk IDC       16692973

Magnitude  Err Nsta Author      OrigID
mb     3.0 0.1    4 IDC       16692973
mb1    3.2 0.1    5 IDC       16692973
mb1mx  2.8 0.1   46 IDC       16692973
mbtmp  4.2 0.1    5 IDC       16692973

Sta     Dist  EvAz Phase        Time      TRes  Azim AzRes   Slow   SRes Def   SNR       Amp   Per Qual Magnitude    ArrID
DZM    11.59 259.7 P        16:00:31.64   -0.2   1.4         8.50        ___                        __ mb1    3.5 58651825
CTA    30.45 264.9 P        16:03:23.675   0.1  84.8        11.20        ___   5.7       4.7  0.91  __ mb     3.2 58651824
STKA   35.08 243.4 P        16:04:01.625  -0.8  80.1         8.70        ___   4.3       0.7  0.48  __ mb     2.8 58651826
ASAR   41.56 257.0 P        16:04:55.15    0.3  89.5         8.60        ___  63.8       2.0  0.48  __ mb     3.2 58651823
WRA    41.58 262.6 P        16:04:54.725  -0.3  96.3         7.70        ___  36.1       0.7  0.51  __ mb     2.8 58651827

Event 17187418 Off west coast of northern Sumatera
   Date       Time        Err   RMS Latitude Longitude  Smaj  Smin  Az Depth   Err Ndef Nsta Gap  mdist  Mdist Qual   Author      OrigID
2010/12/21 16:06:18.73   0.62 1.176   2.5525   95.6972 9.867 5.642 138  25.0f        27   31 197   0.65  80.77 m i ke ISCJB     02145719
2010/12/21 16:06:19.30   1.40 1.100   2.6300   95.6900                  15.0   7.0           244                      DJA       01269810
2010/12/21 16:06:23.03   9.84 0.210   2.6112   95.9015 122.7  18.6  59  48.3  76.8    8      213   3.02  80.78     uk IDC       16692974
2010/12/21 16:06:20.89   0.90 1.006   2.6669   95.8540 13.96 7.835  65  25.0f        27   31 195   0.54  80.71 m i ke ISC       01614156
 (#PRIME)

Magnitude  Err Nsta Author      OrigID
mb     3.9        6 ISCJB     02145719
M      4.2       14 DJA       01269810
mb     4.4 0.5    5 DJA       01269810
MLv    4.0 0.3   14 DJA       01269810
mb     3.6 0.2    6 IDC       16692974
mb1    3.7 0.1    8 IDC       16692974
mb1mx  3.4 0.1   53 IDC       16692974
mbtmp  3.8 0.2    8 IDC       16692974
ML     3.8 0.4    2 IDC       16692974
mb     4.2 0.1    6 ISC       01614156

Sta     Dist  EvAz Phase        Time      TRes  Azim AzRes   Slow   SRes Def   SNR       Amp   Per Qual Magnitude    ArrID
SNSI    0.54 118.5 Pb       16:06:32.4     0.6                           T__            30.0        __            25886014
SNSI    0.54 118.5 Sn       16:06:41.9     0.7                           T__            30.0        __            25886015
TPTI    1.45  66.0 Pn       16:06:45.1    -0.4                           T__             1.9        __            25886016
MLSI    1.68  19.0 Pn       16:06:49.8     1.1                           T__            10.8        __            25886017
MLSI    1.68  19.0 Sb       16:07:11.8    -0.1                           T__            10.8        __            25886018
KCSI    2.10  66.0 Pn       16:06:56.1     1.7                           T__             1.3        __            25886019
GSI     2.19 128.2 Pn       16:06:55.8     0.1                           T__             0.6        __            25886020
LHMI    2.77  23.2 Pn       16:07:03.6    -0.1                           T__             1.3        __            25886021
TSI     2.83  72.9 Pb       16:07:09.7    -1.1                           T__             1.3        __            25886022
PSI     3.07  87.4 Pn       16:07:08.525   0.6 181.3        22.30        T__  10.9       3.4  0.33  __            58651838
MNSI    4.16 116.5 Pn       16:07:24.8     1.9                           T__             0.7        __            25886025
SISI    5.12 140.8 Pn       16:07:36.7     0.7                           T__             0.2        __            25886026
MNAI    9.95 134.5 Pn       16:08:41.9    -0.6                           T__                        __            25886030
CMAR   15.98  10.7 Pn       16:10:05.05    0.8 198.6        11.40        T__  18.5       0.3  0.33  __            58651830
ODAN   25.39 342.1 P        16:11:47.3     0.6                           T__                        _e            34604659
H08S2  25.46 246.1 T        16:38:01.728        66.9        75.30        ___ 203.5                  __            58651835
H08S3  25.46 246.2 T        16:38:01.843        66.9        75.30        ___ 203.6                  __            58651836
H08S1  25.48 246.1 T        16:38:03.096        66.9        75.30        ___ 152.4                  __            58651834
RAMN   25.72 340.7 P        16:11:51.0     1.3                           T__            11.1  0.60  _e            34604660
TAPN   25.75 343.1 P        16:11:52.0     1.9                           T__             6.5  0.56  _e            34604661
JIRN   26.52 340.5 P        16:11:57.6     0.6                           T__             2.5  0.74  _e            34604657
GUN    26.85 340.2 P        16:12:00.8     0.8                           T__            14.1  0.72  _e            34604656
KOLN   27.57 336.0 P        16:12:07.8     1.4                           T__                        _e            34604658
BUTP   30.25  76.8 P        16:12:29.93   -0.2                           T__                        _e            02964913
H01W3  41.11 156.9 T        16:57:35.602       333.2        75.60        ___  63.0                  __            58651833
H01W2  41.12 156.9 T        16:57:36.576       333.2        75.60        ___  73.8                  __            58651832
H01W1  41.12 156.9 T        16:57:38.114       333.2        75.60        ___  66.3                  __            58651831
WRA    43.95 122.5 P        16:14:25.4    -0.9 301.2         9.10        T__   6.6       0.3  0.38  __            58651840
ASAR   45.35 127.4 P        16:14:35.85   -1.6 303.3         7.90        T__  10.3       0.2  0.56  __            58651829
MKAR   45.51 346.9 P        16:14:38.2    -0.2 159.9         8.50        T__  49.7       1.3  0.49  __            58651837
SONM   45.91   9.9 P        16:14:41.12   -0.5 190.7         9.20        T__  12.3       1.9  0.62  __            58651839
ZALV   51.91 351.7 P        16:15:27.225  -0.2 184.9         7.10        T__  12.6       1.9  0.62  __            58651841
ARCES  80.71 340.4 P        16:18:31.075  -0.6  99.0         6.00        T__   5.4       2.6  0.82  __            58651828

