Event 17187419 Philippine Islands region
   Date       Time        Err   RMS Latitude Longitude  Smaj  Smin  Az Depth   Err Ndef Nsta Gap  mdist  Mdist Qual   Author      OrigID
2010/12/21 16:12:03.06   1.44 0.590  10.0497  126.1112 162.0  20.4  70   0.0f         5      185  30.89  84.35     uk IDC       16692975
2010/12/21 16:12:10           0.450   9.9570  126.1390                  15.0              10                          MAN       16867472
2010/12/21 16:12:03.99   1.85 0.859  10.0483  126.3727 10.78 6.674  64   8.4  11.5   18   17 185   0.91  84.44 m i ke ISC       01614157
 (#PRIME)

Magnitude  Err Nsta Author      OrigID
mb     3.6 0.3    5 IDC       16692975
mb1    3.7 0.2    5 IDC       16692975
mb1mx  3.5 0.1   45 IDC       16692975
mbtmp  3.6 0.3    5 IDC       16692975
MS     3.4 0.2    4 IDC       16692975
Ms1    3.5 0.3    4 IDC       16692975
ms1mx  3.0 0.1   43 IDC       16692975
mb     5.0          MAN       16867472
ML     4.0          MAN       16867472
MS     4.1          MAN       16867472
mb     3.4 0.3    5 ISC       01614157
MS     3.4 0.3    3 ISC       01614157

Sta     Dist  EvAz Phase        Time      TRes  Azim AzRes   Slow   SRes Def   SNR       Amp   Per Qual Magnitude    ArrID
SCPH    0.91 253.2 Pn       16:12:23.62    0.6                           T__       2233500.0        _e            02964911
SCPH    0.91 253.2 Sn       16:12:36.85    0.5                           T__                        _e            02964912
MSLP    1.49 273.4 Pg       16:12:33.2     0.5                           T__        108500.0        _e            02964914
MSLP    1.49 273.4 Sb       16:12:50.71   -0.4                           T__                        _e            02964915
PLP     1.76 309.1 Pb       16:12:36.08   -0.5                           T__       2326500.0        _e            02964916
PLP     1.76 309.1 Sg       16:13:02.29    1.5                           T__                        _i            02964917
BIPH    1.85 180.4 Pg       16:12:43.98    4.4                           ___         90050.0        _e            02964919
BIPH    1.85 180.4 Sg       16:13:03.27   -0.3                           T__                        _e            02964920
OCLP    2.00 300.0 Pg       16:12:42.08   -0.3                           T__        100500.0        _e            02964918
LLP     2.38 276.6 Pb       16:12:46.67   -0.5                           T__        139000.0        _e            02964921
LLP     2.38 276.6 Sb       16:13:17.41    0.6                           T__                        _e            02964922
TBP     2.50 262.0 Pb       16:12:48.41   -0.7                           T__         85250.0        _i            02964923
TBP     2.50 262.0 Sg       16:13:23.16   -1.2                           T__                        _i            02964924
BUKP    2.51 211.1 Pb       16:12:49.2    -0.2                           T__                        _e            02964925
DAV     3.06 194.9 LR       16:14:10.641       312.0        42.40        ___           178.1 20.64  __            58651844
JNU    23.34   9.6 LR       16:24:56.664       303.0        33.10        ___            87.2 21.53  __            58651846
KSRS   27.32   2.7 LR       16:28:44.982         4.5        36.70        ___            97.6 21.04  __            58651847
WRA    30.82 165.3 P        16:18:20.8     0.3 344.6         9.50        T__   2.5       0.3  1.00  __            58651850
ASAR   34.31 167.7 P        16:18:52.65    1.5 351.2         7.50        T__   7.9       0.1  0.32  __            58651843
SONM   41.26 339.6 P        16:19:49.765   0.0 152.7         9.70        T__   2.7       0.4  0.52  __            58651849
MKAR   52.26 322.8 P        16:21:14.925  -0.9 116.2         8.20        T__   7.0       0.6  0.68  __            58651848
ILAR   79.59  25.8 LR       16:57:02.078       110.0        33.90        ___            98.5 21.76  __            58651845
ARCES  84.44 339.7 P        16:24:36.173  -0.6  74.3         6.70        T__   3.9       3.3  0.85  __            58651842

Event 16327803 Turkey
   Date       Time        Err   RMS Latitude Longitude  Smaj  Smin  Az Depth   Err Ndef Nsta Gap  mdist  Mdist Qual   Author      OrigID
2010/12/21 16:12:46.50               40.6880   29.2210                   9.0              16                          ISK       15712954
2010/12/21 16:12:46.58   0.47 0.571  40.6867   29.2317 6.826 4.542 179  14.4  5.75   42   31  71   0.19   1.25 m i ke ISCJB     02145721
2010/12/21 16:12:47.00   0.09 0.610  40.6850   29.2353   2.5   1.8  80  10.0         20   15  70   0.19   1.25     ke CSEM      01406793
2010/12/21 16:12:47.44        0.060  40.6838   29.1983                   7.0                 155                      DDA       01392078
2010/12/21 16:12:46.67   1.00 0.513  40.6749   29.2257 4.320 3.033  77  17.3  7.86   42   31  70   0.20   1.24 m i ke ISC       01614158
 (#PRIME)

Magnitude  Err Nsta Author      OrigID
MD     2.5          ISK       15712954
MD     2.5          CSEM      01406793
Md     2.4          DDA       01392078

Sta     Dist  EvAz Phase        Time      TRes  Azim AzRes   Slow   SRes Def   SNR       Amp   Per Qual Magnitude    ArrID
BUY     0.20 335.3 Pg       16:12:51.54    0.0                           T__                        __            27531950
BUY     0.20 335.3 Sg       16:12:54.39   -0.3                           T__                        __            27531951
BUY     0.20 335.3 Pg       16:12:51.5     0.0                           T__                        _i            27674223
BUY     0.20 335.3 Sg       16:12:54.4    -0.3                           T__                        _i            27674224
GEMT    0.24 186.7 Pg       16:12:52.21    0.0                           T__                        _e            34515199
GEMT    0.24 186.7 Sg       16:12:56.01    0.1                           T__                        _e            34515200
GEMT    0.24 186.7 Pg       16:12:52.2     0.0                           T__                        _e            27674227
GEMT    0.24 186.7 Sg       16:12:56.0     0.1                           T__                        _e            27674228
ARMT    0.30 248.6 Pb       16:12:53.85    0.3                           T__                        _e            34515201
ARMT    0.30 248.6 Sg       16:12:57.47   -0.0                           T__                        _e            34515202
ARMT    0.30 248.6 Pb       16:12:53.9     0.3                           T__                        _e            27674220
ARMT    0.30 248.6 Sg       16:12:57.5    -0.0                           T__                        _e            27674221
HRT     0.37  66.3 Pg       16:12:53.95   -0.4                           T__                        _e            34515203
HRT     0.37  66.3 Pg       16:12:54.0    -0.4                           T__                        _e            27674230
IZI     0.39 150.8 Pg       16:12:54.94    0.2                           T__                        _e            34515206
IZI     0.39 150.8 Pg       16:12:54.9     0.2                           T__                        _e            27674233
MDNY    0.40 220.6 Pg       16:12:55.03    0.1                           T__                        _e            34515207
MDNY    0.40 220.6 Pg       16:12:55.0     0.1                           T__                        _e            27674235
ISK     0.41 342.1 Pg       16:12:54.81   -0.3                           T__                        _e            34515204
ISK     0.41 342.1 Sg       16:13:00.68   -0.1                           T__                        _e            34515205
ISK     0.41 342.1 Pg       16:12:54.8    -0.3                           T__                        _e            27674231
ISK     0.41 342.1 Sg       16:13:00.7    -0.1                           T__                        _e            27674232
IGD     0.41 182.6 Pb       16:12:55.83    0.4                           T__                        __            27531952
IGD     0.41 182.6 Sb       16:13:01.6     0.2                           T__                        __            27531953
ULDT    0.54 187.4 Pb       16:12:58.21    0.5                           T__                        __            27531954
ULDT    0.54 187.4 Sg       16:13:02.74   -2.0                           T__                        __            27531955
ULDT    0.54 187.4 Pb       16:12:58.2     0.5                           T__                        _i            27674238
ULDT    0.54 187.4 Sg       16:13:02.7    -2.0                           T__                        _i            27674239
SILT    0.57  33.4 Pg       16:12:58.09    0.0                           T__                        _e            34515208
SILT    0.57  33.4 Pg       16:12:58.1     0.0                           T__                        _e            27674236
KLYT    0.59 346.5 Pg       16:12:58.25   -0.2                           T__                        _e            34515209
KLYT    0.59 346.5 Pg       16:12:58.3    -0.2                           T__                        _e            27674234
BGKT    0.61 326.0 Pg       16:12:58.72   -0.1                           T__                        _e            34515210
BGKT    0.61 326.0 Pg       16:12:58.7    -0.1                           T__                        _e            27674222
CAVI    0.67 134.9 Pb       16:13:00.17    0.3                           T__                        _e            34515211
CAVI    0.67 134.9 Pb       16:13:00.2     0.3                           T__                        _e            27674225
GULT    1.01 103.4 Pg       16:13:06.59    0.3                           T__                        _e            34515212
GULT    1.01 103.4 Pg       16:13:06.6     0.3                           T__                        _e            27674229
CTYL    1.07 318.8 Pg       16:13:07.21   -0.2                           T__                        _e            34515213
CTYL    1.07 318.8 Pg       16:13:07.2    -0.2                           T__                        _e            27674226
TVSB    1.24 171.5 Pg       16:13:10.5    -0.1                           T__                        _e            34515214
TVSB    1.24 171.5 Pg       16:13:10.5    -0.1                           T__                        _e            27674237

