Event 16392561 Timor region
   Date       Time        Err   RMS Latitude Longitude  Smaj  Smin  Az Depth   Err Ndef Nsta Gap  mdist  Mdist Qual   Author      OrigID
2010/12/20 14:57:47.65   1.71 0.150  -8.4177  124.4625 122.3  26.2  65   0.0f         4      171   9.69  66.54     uk IDC       16692829
2010/12/20 14:58:01.83               -9.0000  124.5138                 100.0         15            0.80  18.94     uk AUST      16827864
2010/12/20 14:57:50.78   1.30 1.696  -8.4824  124.4341 23.94 12.75  22  10.0f        10   13 138   2.18  66.58 m i ke ISC       01613977
 (#PRIME)

Magnitude  Err Nsta Author      OrigID
mb     3.5 0.3    1 IDC       16692829
mb1    3.8 0.1    4 IDC       16692829
mb1mx  3.5 0.1   30 IDC       16692829
mbtmp  3.6 0.1    4 IDC       16692829
ML     3.5 0.1    3 IDC       16692829

Sta     Dist  EvAz Phase        Time      TRes  Azim AzRes   Slow   SRes Def   SNR       Amp   Per Qual Magnitude    ArrID
SOEI    1.28 187.4 Pg       14:58:20.92    5.6   0.8                     ___  83.8                  __            62673112
MMRI    2.18 265.8 Pg       14:58:34.069   1.5   2.3                     T__   5.2                  __            62673109
MTN     7.88 123.9 Pn       14:59:50.245   4.7   7.5                     ___  19.2                  __            62673110
KNRA    8.31 149.8 Pn       14:59:53.295   1.9   7.9                     T__  22.9                  __            62673108
KDU     8.94 118.6 Pn       15:00:04.85    4.8   8.6                     ___   4.2                  __            62673107
FITZ    9.63 173.1 Pn       15:00:08.362  -1.2 354.6        10.00        T__  17.7       0.4  0.33  __            58648819
FITZ    9.63 173.1 Sn       15:01:46.587 -11.4 128.2         2.60        ___  15.1       2.3  0.33  __            58648820
FITZ    9.63 173.1 Pn       15:00:10.163   0.6   9.2                     T__   7.0                  __            62673106
WRA    14.89 141.0 Pn       15:01:19.802  -1.7 318.4        11.70        T__  11.7       0.2  0.33  __            58648822
WRA    14.89 141.0 Sn       15:03:53.152 -13.6 318.7        24.50        ___  11.3       0.6  0.33  __            58648823
WRKA   16.87 167.8 P        15:01:48.595  -0.7  16.4                     T__   6.0                  __            62673113
ASAR   17.61 150.1 Pn       15:01:55.391  -1.1 328.1        11.00        T__  20.6       0.2  0.33  __            58648817
ASAR   17.61 150.1 Sn       15:04:58.909 -14.1 313.1        21.00        ___  13.3       0.3  0.33  __            58648818
QIS    18.95 130.9 Pn       15:02:13.42    0.5  18.6                     T__   4.3                  __            62673111
COEN   19.16 108.2 Pn       15:02:17.62    2.1  18.9                     T__   3.7                  __            62673105
MKAR   66.58 329.8 P        15:08:39.51   -1.7 134.1         6.20        T__   3.2       0.2  0.51  __            58648821

Event 15813620 Northern East Pacific Rise
   Date       Time        Err   RMS Latitude Longitude  Smaj  Smin  Az Depth   Err Ndef Nsta Gap  mdist  Mdist Qual   Author      OrigID
2010/12/20 15:15:06.22   0.26 0.946  10.1142 -103.9948 4.540 3.467  32  10.0f       823 1082  71   9.09  99.87 m i ke ISCJB     02145573
2010/12/20 15:15:06.63   0.51 0.720  10.1348 -104.2445  15.7   8.5  54   0.0f        45       98  15.04 143.52     uk IDC       16692830
2010/12/20 15:15:08.20   1.35        10.3830 -103.8830  10.3   4.9  92  10.0         87                               MOS       16742876
2010/12/20 15:15:08.67   0.24 1.140  10.1710 -103.9770   5.6   3.9  46  10.0f       282       98   9.03 155.71     se NEIC      01602385
2010/12/20 15:15:08.70   0.10        10.2800 -104.0800 1.112 1.112  -1  12.0f       655  118                          GCMT      00125997
 (#CENTROID)
2010/12/20 15:15:08.90        2.400  10.2000 -104.0000                  10.0         45      311 109.40 138.70     uk BJI       16011118
2010/12/20 15:16:04.37        0.590  13.9460 -100.2570                  33.0                 293  92.80  92.80     ke BGR       16816063
2010/12/20 15:15:09.89   0.70 1.605  10.1117 -104.0283 7.326 5.575  54  17.1  3.64  971 1083  71   9.11 155.69 m i se ISC       01613978
 (#PRIME)

Magnitude  Err Nsta Author      OrigID
mb     5.4      197 ISCJB     02145573
MS     5.5      348 ISCJB     02145573
mb     4.9 0.1   21 IDC       16692830
mb1    5.1 0.1   24 IDC       16692830
mb1mx  5.0 0.1   39 IDC       16692830
mbtmp  4.9 0.1   24 IDC       16692830
ML     4.3 0.4    3 IDC       16692830
MS     5.6 0.1   22 IDC       16692830
Ms1    5.6 0.1   22 IDC       16692830
ms1mx  5.5 0.1   26 IDC       16692830
mb     5.7       54 MOS       16742876
mb     5.5      179 NEIC      01602385
MS     5.5      300 NEIC      01602385
MW     5.8          NEIC      01602385
MW     5.9      118 GCMT      00125997
mB     5.7       33 BJI       16011118
Ms     6.1       36 BJI       16011118
Ms7    5.8       35 BJI       16011118
mb     5.2          BGR       16816063
mb     5.5 0.2  197 ISC       01613978
MS     5.5 0.2  348 ISC       01613978

Sta     Dist  EvAz Phase        Time      TRes  Azim AzRes   Slow   SRes Def   SNR       Amp   Per Qual Magnitude    ArrID
TLIG    9.11  35.0 Pn       15:17:20.98    0.2                           T__                        _e            32818129
MOIG    9.90  15.8 Pn       15:17:32.97    1.3                           T__                        _e            32817877
H06S1  10.88 322.7 T        15:28:45.272                                 ___  34.8                  __            58648851
H06E1  10.90 323.0 T        15:28:43.834                                 ___  26.8                  __            58648850
ZAIG   12.66   6.2 Pn       15:18:10.05    0.4                           T__                        _e            32818234
CCIG   13.10  60.8 Pn       15:18:16.2     0.7                           T__                        _e            32817572
SLBS   14.63 338.0 Pn       15:18:37.13    0.8                           T__                        _e            32818065
SLBS   14.63 338.0 PcP      15:23:52.12    2.7                           T__                        _e            32818066
LPIG   15.15 337.5 Pn       15:18:41.694  -1.5 180.0         3.00        T__   2.5       7.4  0.33  __            58648861
LPIG   15.15 337.5 Sn       15:21:38.655   8.0 258.2        23.20        ___   3.4      13.9  0.33  __            58648862
LPIG   15.15 337.5 LR       15:23:11.0         162.0        32.20        ___         17866.3 18.54  __            58648863
HPIG   16.81 354.9 P        15:19:05.93   -0.9                           T__           483.0  1.60  _e            32817723
TGUH   16.84  74.9 Pn       15:19:05.38    0.3                           T__          1130.1  1.50  _e            32818115
035Z   17.21  18.3 Pn       15:19:10.178   0.5  17.2                     T__                        __            05652980
PAYG   17.37 127.3 P        15:19:14.82    1.8                           T__          1886.5  2.80  _e            32817947
034A   17.60  15.9 P        15:19:17.212   1.8  17.6                     T__  70.0                  __            05652978
035A   17.65  17.7 P        15:19:17.246   1.3  17.7                     T__   7.9                  __            05652979
933A   17.98  13.8 P        15:19:21.175   1.6  18.0                     T__  32.0                  __            05653053
934A   18.16  15.9 P        15:19:23.467   1.9  18.2                     T__  21.9                  __            05653054
KVTX   18.28  17.6 P        15:19:24.17    1.3                           T__          1111.4  1.50  _e            32817800
936A   18.35  19.3 P        15:19:24.238   0.6  18.4                     T__                        __            05653055
832A   18.48  11.3 Pn       15:19:26.014   0.8  18.5                     T__  64.8                  __            05653049
833A   18.63  12.9 Pn       15:19:27.626   0.5  18.7                     T__  17.5                  __            05653050
834A   18.64  15.3 Pn       15:19:27.577   0.3  18.7                     T__  39.4                  __            05653051
JTS    18.78  87.8 Pn       15:19:30.844   1.8 295.7         9.00        T__  12.0       0.2  0.33  __            58648855
JTS    18.78  87.8 S        15:23:06.193   4.4 286.5        17.70        T__   2.3       0.4  0.33  __            58648856
JTS    18.78  87.8 LR       15:24:53.289       275.5        30.90        ___         40248.7 19.11  __            58648857
JTS    18.78  87.8 Pn       15:19:29.8     0.8                           T__                        _i            60122667
JTS    18.78  87.8 pmax                                                  ___                        __            60122668
JTS    18.78  87.8 Pn       15:19:29.5     0.5                           T__  29.3     855.5  1.70  __            04421313
JTS    18.78  87.8 Pn       15:19:28.87   -0.1                           T__          1664.4  2.20  _e            32817764
JTS    18.78  87.8 S        15:23:06.19    4.4                           T__                        __            32817765
SRIG   18.79 336.8 Pn       15:19:28.97   -0.0                           T__                        _e            32818087
732A   18.91  11.1 Pn       15:19:30.33   -0.1  18.9                     T__  82.4                  __            05653042
835A   19.00  17.0 Pn       15:19:31.909   0.4  19.0                     T__   9.0                  __            05653052
733A   19.04  12.8 Pn       15:19:32.077   0.1  19.1                     T__  19.7                  __            05653043
TXAR   19.13   1.0 P        15:19:31.9    -0.4 180.0        11.30        T__  79.8       0.2  0.33  __            58648898
TXAR   19.13   1.0 S        15:23:12.86    4.1 217.0        24.80        T__   2.4                  __            58648899
TXAR   19.13   1.0 PcP      15:23:56.853   0.4 180.0         4.40        T__   2.5       0.0  0.33  __            58648900
TXAR   19.13   1.0 LR       15:26:32.126         0.0        35.90        ___         58528.7 18.80  __            58648901
TX31   19.13   1.0 P        15:19:32.02   -0.3                           T__                        _e            32818152
734A   19.33  14.6 P        15:19:34.666   0.2  19.4                     T__                        __            05653044
631A   19.47   9.1 P        15:19:36.446   0.4  19.5                     T__  35.5                  __            05653034
735A   19.54  16.5 Pn       15:19:37.382  -0.6  19.6                     T__                        __            05653045
632A   19.70  11.0 P        15:19:38.661   0.1  19.7                     T__  28.7                  __            05653035
633A   19.78  12.6 P        15:19:39.339  -0.0  19.8                     T__   8.8                  __            05653036
736A   19.85  18.2 P        15:19:40.386   0.3  19.9                     T__                        __            05653046
737A   19.87  19.9 P        15:19:40.745   0.4  19.9                     T__                        __            05653047
634A   19.89  14.7 P        15:19:40.204  -0.4  19.9                     T__                        __            05653037
634A   19.89  14.7 Sn       15:23:33.56    7.9  19.9                     ___                        __            05653038
HSIG   19.90 341.9 P        15:19:39.76   -0.9                           T__                        _e            32817728
635A   20.05  16.1 P        15:19:41.891  -0.4  20.1                     T__   6.6                  __            05653039
530A   20.09   6.8 Pn       15:19:43.803  -0.9  20.1                     ___  76.3                  __            05653023
531A   20.21   8.8 P        15:19:44.957   0.8  20.2                     T__  46.1                  __            05653024
738A   20.22  21.7 P        15:19:44.503   0.4  20.2                     T__                        __            05653048
532A   20.28  10.4 P        15:19:44.929   0.0  20.3                     T__                        __            05653025
636A   20.34  17.7 P        15:19:46.299   0.8  20.4                     T__  22.3                  __            05653040
533A   20.40  12.5 P        15:19:45.768  -0.4  20.4                     T__  28.4                  __            05653026
534A   20.48  13.9 P        15:19:46.902  -0.1  20.5                     T__  31.6                  __            05653027
637A   20.53  19.5 P        15:19:48.315   0.8  20.6                     T__  10.1                  __            05653041
JCT    20.64  10.4 P        15:19:48.9     0.1                           T__                        _e            60122670
JCT    20.64  10.4 pmax                                                  ___           300.0  1.20  __            60122671
JCT    20.64  10.4 P        15:19:48.944   0.1  20.7                     T__                        __            05653218
JCT    20.64  10.4 P        15:19:48.94    0.1                           T__           304.4  1.30  _e            32817758
JCT    20.64  10.4 LR                                                    ___         67900.0 18.00  __            32817759
535A   20.71  16.0 P        15:19:48.988  -0.5  20.7                     T__                        __            05653028
431A   20.71   8.4 P        15:19:50.286   0.7  20.7                     T__  69.9                  __            05653013
536A   20.90  17.1 P        15:19:51.481  -0.0  20.9                     T__  10.8                  __            05653029
432A   21.03  10.2 P        15:19:52.958  -0.1  21.1                     T__  62.6                  __            05653014
433A   21.05  11.9 P        15:19:52.833  -0.3  21.1                     T__ 119.5                  __            05653015
537A   21.13  18.8 P        15:19:54.579   0.6  21.2                     T__  21.2                  __            05653030
HKT    21.17  20.0 P        15:19:54.0    -0.3                           T__                        _e            60122672
HKT    21.17  20.0 pmax                                                  ___           696.0  1.80  __            60122673
HKT    21.17  20.0 MLR                                                   ___          9701.0 22.00  __            60122674
HKT    21.17  20.0 P        15:19:54.0    -0.3                           T__           696.3  1.80  _e            32817709
HKT    21.17  20.0 LR                                                    ___          9701.0 22.00  __            32817710
434A   21.29  13.8 P        15:19:55.363  -0.3  21.3                     T__  36.7                  __            05653016
330A   21.36   6.7 P        15:19:56.267  -0.2  21.4                     T__   8.8                  __            05653002
331A   21.36   8.5 P        15:19:56.49    0.0  21.4                     T__  29.3                  __            05653003
435B   21.42  15.3 P        15:19:57.328   0.2  21.5                     T__  16.4                  __            05653017
MNTX   21.52 356.9 P        15:19:58.288   0.1  21.6                     T__                        __            05653264
MNTX   21.52 356.9 P        15:19:57.82   -0.4                           T__           670.3  1.90  _e            32817873
MNTX   21.52 356.9 LR                                                    ___         25800.0 20.00  __            32817874
538A   21.54  20.5 P        15:19:58.538   0.2  21.6                     T__                        __            05653031
332A   21.54  10.0 P        15:19:58.538   0.1  21.6                     T__  47.0                  __            05653004
333A   21.62  11.8 P        15:19:58.793  -0.5  21.7                     T__  47.9                  __            05653005
436A   21.63  17.1 P        15:19:59.502   0.2  21.7                     T__  12.5                  __            05653018
539A   21.71  22.3 P        15:20:00.603   0.4  21.7                     T__                        __            05653032
334A   21.79  13.4 P        15:20:01.061  -0.0  21.8                     T__  14.9                  __            05653006
230A   21.84   6.7 P        15:20:01.1    -0.6  21.9                     T__   6.8                  __            05652993
437A   21.88  18.5 P        15:20:01.571  -0.5  21.9                     T__                        __            05653019
335A   21.94  15.3 P        15:20:02.629  -0.1  22.0                     T__  27.9                  __            05653007
231A   21.99   8.5 P        15:20:02.673  -0.6  22.0                     T__  11.1                  __            05652994
438A   22.02  20.0 P        15:20:03.562  -0.0  22.0                     T__   7.5                  __            05653020
CLNB   22.05   0.3 P        15:20:03.12   -0.8                           T__            24.2  1.40  _e            32817578
232A   22.05  10.0 P        15:20:03.524  -0.4  22.1                     T__  37.3                  __            05652995
540A   22.08  23.7 P        15:20:04.363   0.1  22.1                     T__                        __            05653033
336A   22.20  16.4 P        15:20:05.476   0.0  22.2                     T__  22.5                  __            05653008
233A   22.31  11.5 P        15:20:06.439  -0.3  22.3                     T__  20.8                  __            05652996
439A   22.31  21.4 P        15:20:06.222  -0.5  22.3                     T__                        __            05653021
337A   22.41  18.5 P        15:20:07.753  -0.0  22.4                     T__   9.6                  __            05653009
234A   22.46  13.2 P        15:20:07.854  -0.4  22.5                     T__  16.7                  __            05652997
130A   22.55   6.8 P        15:20:08.895  -0.4  22.6                     T__  17.2                  __            05652983
440A   22.57  23.1 P        15:20:09.309  -0.1  22.6                     T__                        __            05653022
121A   22.58 351.7 P        15:20:09.6    -0.2  22.6                     T__  30.1                  __            05652982
121A   22.58 351.7 P        15:20:08.26   -1.5                           T__           182.7  1.50  _e            32817457
WHTX   22.61  14.7 P        15:20:09.661  -0.2  22.6                     T__  18.8                  __            05653404
WHTX   22.61  14.7 P        15:20:08.71   -1.1                           T__           403.0  1.40  _e            32818194
WHTX   22.61  14.7 LR                                                    ___         20399.0 20.00  __            32818195
338A   22.64  19.7 P        15:20:09.858  -0.3  22.7                     T__  13.5                  __            05653010
131A   22.70   8.0 P        15:20:09.837  -1.1  22.7                     T__   6.9                  __            05652984
ABTX   22.77   9.6 P        15:20:10.847  -0.7  22.8                     T__  13.9                  __            05653064
ABTX   22.77   9.6 P        15:20:10.65   -0.9                           T__           426.6  1.50  _e            32817467
ABTX   22.77   9.6 LR                                                    ___         64800.0 18.00  __            32817468
CPRX   22.81   0.3 P        15:20:11.4    -0.7                           T__            40.7  1.50  _e            32817594
236A   22.86  16.6 P        15:20:12.188  -0.3  22.9                     T__  22.6                  __            05652998
339A   22.88  21.2 P        15:20:12.233  -0.4  22.9                     T__   9.7                  __            05653011
133A   22.88  11.2 P        15:20:11.899  -0.8  22.9                     T__  13.7                  __            05652985
TUC    22.96 345.2 P        15:20:12.1    -1.5                           T__                        _e            60122675
TUC    22.96 345.2 pmax                                                  ___           144.0  1.40  __            60122676
