Event 17385744 Philippine Islands region
   Date       Time        Err   RMS Latitude Longitude  Smaj  Smin  Az Depth   Err Ndef Nsta Gap  mdist  Mdist Qual   Author      OrigID
2010/12/21 16:26:43           0.800  10.1200  126.1870                   2.0               6                          MAN       16867473

Magnitude  Err Nsta Author      OrigID
mb     4.7          MAN       16867473
ML     3.5          MAN       16867473
MS     3.5          MAN       16867473

Sta     Dist  EvAz Phase        Time      TRes  Azim AzRes   Slow   SRes Def   SNR       Amp   Per Qual Magnitude    ArrID
SCPH    0.77 244.0 Pb       16:26:58.75   -0.3                           ___        819850.0        _e            02964926
SCPH    0.77 244.0 Sn       16:27:12.57   -0.4                           ___                        _e            02964927
BUTP    1.27 206.1 Pn       16:27:07.82   -0.0                           ___                        _e            02964930
MSLP    1.31 270.7 Pg       16:27:07.1    -1.0                           ___         75000.0        _e            02964928
MSLP    1.31 270.7 Sn       16:27:27.72    1.4                           ___                        _e            02964929
TBP     2.33 259.7 Pn       16:27:23.31    0.9                           ___         36900.0        _e            02964931
BUKP    2.49 206.6 Pn       16:27:25.37    0.7                           ___         78000.0        _e            02964932

Event 601515700 Jawa
   Date       Time        Err   RMS Latitude Longitude  Smaj  Smin  Az Depth   Err Ndef Nsta Gap  mdist  Mdist Qual   Author      OrigID
2010/12/21 17:03:08.20   0.40 1.800  -8.3500  107.1600                  10.0f                127                      DJA       01269805

Magnitude  Err Nsta Author      OrigID
M      3.9       10 DJA       01269805
MLv    3.9 0.4   10 DJA       01269805

Sta     Dist  EvAz Phase        Time      TRes  Azim AzRes   Slow   SRes Def   SNR       Amp   Per Qual Magnitude    ArrID
CISI    1.02  39.5 Pg       17:03:26.3    -1.7                           ___            17.6        __ MLv    4.3 25885919
CISI    1.02  39.5 Sg       17:03:39.0    -2.3                           ___            17.6        __            25885920
CNJI    1.03 358.3 Pg       17:03:26.5    -1.6                           ___             4.3        __ MLv    3.7 25885921
CNJI    1.03 358.3 Sg       17:03:38.3    -3.3                           ___             4.3        __            25885922
SKJI    1.46 335.8 Pn       17:03:33.9    -0.8                           ___             3.1        __ MLv    3.8 25885923
SKJI    1.46 335.8 Sn       17:03:52.8    -1.2                           ___             3.1        __            25885924
LEM     1.58  16.7 Pg       17:03:40.3     1.5                           ___            15.8        __ MLv    4.6 25885925
LEM     1.58  16.7 Sg       17:03:59.0    -0.5                           ___            15.8        __            25885926
CGJI    2.26 319.8 Pn       17:03:45.1    -0.5                           ___             0.3        __ MLv    3.3 25885928
UGM     3.36  82.8 Pn       17:03:59.5    -1.3                           ___             0.7        __ MLv    4.2 25885929
PCJI    3.98  88.1 Pn       17:04:08.6    -0.7                           ___                        __ MLv    4.0 25885930

Event 16392654 Off east coast of Honshu
   Date       Time        Err   RMS Latitude Longitude  Smaj  Smin  Az Depth   Err Ndef Nsta Gap  mdist  Mdist Qual   Author      OrigID
2010/12/21 17:08:00                  39.1000  143.5000f                 14.0                                          NIED      17047836
2010/12/21 17:08:18.93   0.96 0.970  39.2178  143.4083  23.5  17.9  91   0.0f        13      156   4.89  63.18     uk IDC       16692977
2010/12/21 17:08:19.80   1.29        39.2110  143.4810  20.7  10.5  78  24.0         14                               MOS       16742899
2010/12/21 17:08:19.93   1.52 0.885  39.1257  143.5720 8.015 4.738  38  27.6  13.0   50   38 156   1.43  63.11 m i ke ISCJB     02145723
2010/12/21 17:08:20.70   0.20        39.0800  143.4900   1.1   1.7  -1  27.0                                          JMA       00348323
2010/12/21 17:08:22.06   3.55 1.063  39.1223  143.5402 6.959 3.782 126  31.1  28.0   42   38 156   1.41  59.38 m i ke ISC       01614161
 (#PRIME)

Magnitude  Err Nsta Author      OrigID
Mw     3.8          NIED      17047836
mb     3.6 0.1    9 IDC       16692977
mb1    3.7 0.0   12 IDC       16692977
mb1mx  3.5 0.1   61 IDC       16692977
mbtmp  3.6 0.1   12 IDC       16692977
ML     3.4 0.1    2 IDC       16692977
MS     2.9 0.2    1 IDC       16692977
Ms1    2.9 0.2    1 IDC       16692977
ms1mx  2.5 0.1   57 IDC       16692977
mb     4.0        4 MOS       16742899
mb     3.6       10 ISCJB     02145723
       3.7          JMA       00348323
mb     3.6 0.1   10 ISC       01614161

Sta     Dist  EvAz Phase        Time      TRes  Azim AzRes   Slow   SRes Def   SNR       Amp   Per Qual Magnitude    ArrID
MIYJ    1.41 289.3 Pn       17:08:44.7    -0.9                           ___                        __            05933155
MIYJ    1.41 289.3 Sn       17:09:01.8    -1.3                           T__                        _e            05933156
OFUJ    1.46 268.9 Pn       17:08:45.4    -0.8                           ___                        __            05933157
JTH     1.53 302.7 Pn       17:08:46.5    -0.8                           ___                        __            05933158
JOM     1.78 282.1 Pn       17:08:50.4    -0.3                           T__                        __            05933159
JMK     1.81 265.3 Pn       17:08:50.6    -0.5                           T__                        __            05933160
JMK     1.81 265.3 Sn       17:09:13.4     0.3                           T__                        _e            05933161
JIO     1.84 249.4 Pn       17:08:50.3    -1.1                           ___                        __            05933162
JIO     1.84 249.4 Sn       17:09:12.0    -1.6                           T__                        _e            05933163
JANG    2.00 309.3 Pn       17:08:53.2    -0.5                           T__                        __            05933164
JRG     2.27 277.8 Pn       17:08:57.7     0.3                           T__                        __            05933165
JOU     2.37 252.3 Pn       17:08:58.5    -0.3                           T__                        __            05933166
JOU     2.37 252.3 Sn       17:09:26.6    -0.3                           T__                        _e            05933167
JAH     2.48 296.3 Pn       17:09:00.4     0.1                           T__                        __            05933169
JYK     2.49 266.3 Pn       17:09:00.5     0.1                           T__                        __            05933168
JTM     2.52 312.0 Pn       17:09:01.1     0.2                           T__                        __            05933170
JTM     2.52 312.0 Sn       17:09:31.8     1.2                           T__                        _e            05933171
JFT     2.98 238.6 Pn       17:09:07.0    -0.3                           T__                        __            05933172
JFT     2.98 238.6 Sn       17:09:41.2    -0.8                           T__                        _e            05933173
JNBK    3.21 349.5 Pn       17:09:10.3    -0.0                           T__                        __            05933174
JNBK    3.21 349.5 Sn       17:09:48.1     0.6                           T__                        _e            05933175
JKB     3.36 326.1 Sn       17:09:52.0     0.8                           T__                        _e            05933176
MJAR    4.94 240.3 Pn       17:09:34.5     0.3  62.4        11.30        T__  16.2       0.9  0.33  __            58651902
MJAR    4.94 240.3 LR       17:11:36.785       115.0        40.50        ___           118.3 20.06  __            58651903
MJAR    4.94 240.3 Pn       17:09:34.5     0.3                           T__                        __            60126982
MJAR    4.94 240.3 pmax                                                  ___                        __            60126983
MJAR    4.94 240.3 MLR                                                   ___                        __            60126984
MAT     4.95 240.3 Pn       17:09:35.1     0.9                           T__                        __            05955638
MAT     4.95 240.3 Sn       17:10:31.8     1.5                           T__                        _e            05955639
ASAJ    5.04 352.2 Pn       17:09:35.15   -0.3 196.8        15.70        T__  31.7       1.4  0.33  __            58651899
ASAJ    5.04 352.2 Sn       17:10:32.075  -0.5  76.2        16.20        T__   4.8       2.2  0.33  __            58651900
ASAJ    5.04 352.2 Pn       17:09:35.2    -0.3                           T__                        __            60126978
ASAJ    5.04 352.2          17:10:32.1                                   ___                        __            60126980
ASAJ    5.04 352.2 pmax                                                  ___                        __            60126979
ASAJ    5.04 352.2 smax                                                  ___                        __            60126981
YUK     5.21  18.8 Pn       17:09:37.2    -0.5                           T__                        _i            60126985
YUK     5.21  18.8 Sn       17:10:32.1    -4.6                           ___                        _i            60126989
YUK     5.21  18.8 pmax                                                  ___            35.0  0.20  __            60126986
YUK     5.21  18.8 pmax                                                  ___            71.0  0.20  __            60126987
YUK     5.21  18.8 pmax                                                  ___            10.0  0.10  __            60126988
YUK     5.21  18.8 smax                                                  ___           172.0  0.40  __            60126990
YUK     5.21  18.8 smax                                                  ___            88.0  0.30  __            60126991
SHO     5.35  26.4 Pn       17:09:38.3    -1.4                           T__                        _i            60126992
SHO     5.35  26.4 Sn       17:10:34.0    -6.2                           ___                        _i            60126993
SHO     5.35  26.4 smax                                                  ___           144.0  0.40  __            60126994
SHO     5.35  26.4 smax                                                  ___            50.0  0.30  __            60126995
KUR     6.90  26.3 Pn       17:10:01.1     0.1                           T__                        __            60126996
KUR     6.90  26.3 Sn       17:11:14.6    -3.7                           T__                        _e            60126997
USRK   10.02 304.1 Pn       17:10:42.993  -0.8 107.8        13.00        ___   2.7       0.1  0.33  __            58651906
SONM   28.10 300.3 P        17:14:12.089   1.1  74.3        10.60        T__   3.0       0.6  0.55  __            58651905
SONM   28.10 300.3 P        17:14:12.1     1.1                           T__                        __            60126998
SONM   28.10 300.3 pmax                                                  ___                        __            60126999
ZALV   41.79 310.7 P        17:16:07.384  -1.0  90.0        11.50        T__   2.9       0.4  0.41  __            58651908
ZALV   41.79 310.7 P        17:16:07.4    -1.0                           T__                        __            60127000
ZALV   41.79 310.7 pmax                                                  ___             1.0  0.40  __            60127001
MKAR   44.47 300.7 P        17:16:29.325  -0.9  72.8        10.30        T__   4.6       0.5  0.82  __            58651904
KURK   46.00 306.8 P        17:16:43.3     1.1                           T__                        __            60127003
KURK   46.00 306.8 pmax                                                  ___             1.0  0.50  __            60127004
KURBB  46.07 306.7 P        17:16:43.3     0.5  79.9         7.90        T__   9.3       1.0  0.51  __            58651901
ILAR   46.83  33.4 P        17:16:49.978   1.4 271.7         6.40        T__   5.1       0.4  0.81  __            58651897
ILAR   46.83  33.4 P        17:16:50.0     1.4                           T__                        __            60127005
BVAR   50.43 311.4 P        17:17:17.462   1.0  95.0         6.80        T__   3.6       0.7  0.87  __            58651896
INK    51.76  28.0 P        17:17:27.4     1.2 326.3         7.30        T__   3.3       0.6  0.63  __            58651898
INK    51.76  28.0 P        17:17:27.4     1.2                           T__                        __            60127007
INK    51.76  28.0 pmax                                                  ___                        __            60127008
WRA    59.38 190.1 P        17:18:21.825   0.4   7.3         6.90        T__   5.4       0.3  0.60  __            58651907
ASAR   63.11 189.9 P        17:18:50.089   3.5   3.6         7.40        ___   3.1       0.4  1.01  __            58651895

Event 17187420 New Ireland region
   Date       Time        Err   RMS Latitude Longitude  Smaj  Smin  Az Depth   Err Ndef Nsta Gap  mdist  Mdist Qual   Author      OrigID
2010/12/21 17:10:23.25  10.39 0.390  -4.8997  153.6218  99.0  74.6 174 133.8  63.5    5      327   7.83  29.11     uk IDC       16692978

Magnitude  Err Nsta Author      OrigID
mb     3.3 0.2    3 IDC       16692978
mb1    3.6 0.2    4 IDC       16692978
mb1mx  3.1 0.2   46 IDC       16692978
mbtmp  3.9 0.3    4 IDC       16692978

Sta     Dist  EvAz Phase        Time      TRes  Azim AzRes   Slow   SRes Def   SNR       Amp   Per Qual Magnitude    ArrID
PMG     7.82 234.7 Pn       17:12:14.319  -0.0  57.4         7.50        ___  21.1       3.9  0.33  __ mb1    3.9 58651910
PMG     7.82 234.7 Sn       17:13:41.919   0.5 167.5        18.60        ___   2.9       1.2  0.33  __            58651911
WRA    24.00 229.8 P        17:15:25.85    0.1  53.8        10.00        ___  22.9       1.7  0.70  __ mb     3.4 58651913
ASAR   26.64 223.6 P        17:15:50.05    0.4  54.4         8.90        ___  12.6       0.2  0.40  __ mb     2.9 58651909
STKA   29.11 201.4 P        17:16:10.725  -0.8  21.9         9.70        ___   4.3       2.0  0.77  __ mb     3.7 58651912

Event 16392656 Ethiopia
   Date       Time        Err   RMS Latitude Longitude  Smaj  Smin  Az Depth   Err Ndef Nsta Gap  mdist  Mdist Qual   Author      OrigID
2010/12/21 17:16:07.74   1.66 0.910  11.9551   43.8039  38.2  14.6 145   0.0f        14      196   1.03  54.47     uk IDC       16692979
2010/12/21 17:16:07.86   1.61 1.091  11.9076   43.8401 37.65 9.648 141   4.0f        15   17 190   1.04  54.53 m i ke ISC       01614162
 (#PRIME)

Magnitude  Err Nsta Author      OrigID
mb     3.7 0.1   11 IDC       16692979
mb1    3.8 0.1   12 IDC       16692979
mb1mx  3.7 0.1   51 IDC       16692979
mbtmp  3.7 0.1   12 IDC       16692979
ML     3.3 0.3    1 IDC       16692979
mb     3.7 0.1   12 ISC       01614162

Sta     Dist  EvAz Phase        Time      TRes  Azim AzRes   Slow   SRes Def   SNR       Amp   Per Qual Magnitude    ArrID
ATD     1.04 249.0 Pb       17:16:29.3     0.8 283.1         5.10        T__ 186.4     147.2  0.33  __            58651916
ATD     1.04 249.0 Sn       17:16:45.1     0.7  48.3        22.10        T__  14.7     265.9  0.33  __            58651917
FURI    5.89 240.0 Pg       17:17:59.48   -1.4                           T__                        _e            66580297
FURI    5.89 240.0 Sg       17:19:46.47   28.4                           ___                        _e            66580298
KMBO   14.51 207.2 Lg       17:23:56.25        252.5        20.10        ___   4.9       0.2  0.33  __            58651923
WSAR   18.03  49.3 P        17:20:20.575   0.5 225.0         7.10        T__   2.8       0.1  0.33  __            58651929
EIL    19.51 336.3 Lg       17:26:18.225        59.5        19.90        ___   2.9       0.2  0.33  __            58651921
ASF    21.16 343.5 P        17:20:55.112   0.9 291.6        22.90        T__   3.1       3.1  1.00  __            58651915
MMAI   22.39 341.1 P        17:21:08.521   1.1 134.1        12.40        T__   3.7       1.1  0.46  __            58651926
BRTR   29.14 343.7 P        17:22:10.376   0.1 149.6        10.00        T__  10.7       1.9  0.88  __            58651918
AKASG  40.49 345.7 P        17:23:45.908  -1.8 145.8         6.50        T__   5.6       1.2  0.93  __            58651914
TORD   41.13 276.4 P        17:23:54.875   1.4  84.3         6.70        T__   3.9       0.6  0.78  __            58651928
GERES  44.52 331.8 P        17:24:20.65   -0.0 134.3         7.60        T__   9.0       1.3  0.78  __            58651922
BVAR   46.19  22.0 P        17:24:32.887  -0.9 177.7         7.40        T__   3.9       0.6  0.79  __            58651919
MKAR   47.50  35.4 P        17:24:45.225   1.1 218.1        11.00        T__   2.7       1.0  1.00  __            58651925
KURBB  47.88  29.3 P        17:24:48.0     1.0 229.0         8.50        T__   3.3       0.3  0.60  __            58651924
ZALV   52.98  29.0 P        17:25:25.019  -0.5 251.3         9.00        T__   2.7       0.5  0.58  __            58651930
CMAR   53.41  75.8 P        17:25:34.822   5.5 268.6         9.10        ___   9.4       1.8  0.98  __            58651920
NOA    54.53 341.2 P        17:25:36.099  -0.7 139.2         7.40        T__   2.5       1.0  0.89  __            58651927

