Event 14213436 Banda Sea
   Date       Time        Err   RMS Latitude Longitude  Smaj  Smin  Az Depth   Err Ndef Nsta Gap  mdist  Mdist Qual   Author      OrigID
2010/01/01 18:14:27.10   0.89        -6.6340  130.0290  17.3   6.6 114 123.0         50                               MOS       14580946
2010/01/01 18:14:27.90        0.850  -6.9800  130.2800                 166.0         48      316  32.80  68.30     uk BJI       14211226
2010/01/01 18:14:29.90               -6.9320  129.8845                 100.5                                          KLM       00010607
2010/01/01 18:14:31.74   0.30 1.222  -6.7276  130.1345 4.478 3.631 140 172.6  3.37  262  263  34   1.70  91.98 m i se ISCJB     00508797
2010/01/01 18:14:31.80   1.91 0.840  -6.6794  129.9681  17.2   9.7  77 154.1  17.2   33       55  17.23 161.21     uk IDC       16654493
2010/01/01 18:14:32.22   0.85 1.050  -6.7040  130.0210   9.1   5.5  56 161.3   8.3   57       55   7.88 161.23     se NEIC      16339032
2010/01/01 18:14:33.60   0.20 2.400  -6.6300  130.2100                 148.0   3.0            70                      DJA       15298056
2010/01/01 18:14:32.35   0.33 1.446  -6.7363  130.0310 6.910 4.563  54 163.5  2.57  290  263  24   1.77 161.22 m i se ISC       00011686
 (#PRIME)

Magnitude  Err Nsta Author      OrigID
mb     4.9       10 MOS       14580946
mb     4.9       41 BJI       14211226
mB     4.9       27 BJI       14211226
mb     4.9          KLM       00010607
mb     4.7       63 ISCJB     00508797
mb     4.0 0.1   16 IDC       16654493
mb1    4.1 0.1   18 IDC       16654493
mb1mx  4.0 0.1   24 IDC       16654493
mbtmp  4.5 0.1   18 IDC       16654493
MS     3.5 0.2    1 IDC       16654493
Ms1    3.5 0.2    1 IDC       16654493
ms1mx  2.7 0.2   29 IDC       16654493
mb     4.8       22 NEIC      16339032
M      5.0       49 DJA       15298056
mb     5.0 0.3   49 DJA       15298056
mB     5.4 0.3   20 DJA       15298056
MLv    5.4 0.6   14 DJA       15298056
       4.8 0.4   20 DJA       15298056
mb     4.7 0.3   62 ISC       00011686

Sta     Dist  EvAz Phase        Time      TRes  Azim AzRes   Slow   SRes Def   SNR       Amp   Per Qual Magnitude    ArrID
SAUI    1.77 134.6 Pn       18:15:06.2     0.5                           T__            24.5        __            27768275
SAUI    1.77 134.6 Sn       18:15:33.8     2.3                           T__            24.5        __            27768276
BNDI    2.20 356.7 Pn       18:15:11.1     0.4                           T__             7.7        __            27768277
MSAI    3.54 341.9 Pn       18:15:27.7     0.6                           T__             0.5        __            27768278
MSAI    3.54 341.9 Sn       18:16:08.9    -0.9                           T__             0.5        __            27768279
FAKI    4.39  30.3 Pn       18:15:35.2    -2.9                           T__            11.2        __            27768280
FAKI    4.39  30.3 Sn       18:16:21.5    -7.9                           ___            11.2        __            27768281
FAKI    4.39  30.3 Pn       18:15:35.22   -2.9   4.3                     T__ 686.7                  __            62601893
FAKI    4.39  30.3 Sn       18:16:23.27   -6.1   4.3                     ___  28.5                  __            62601894
NLAI    4.54 319.8 Pn       18:15:43.9     3.9                           ___             0.8        __            27768282
SWI     5.96  11.9 Pn       18:15:55.7    -3.0                           T__             5.7        __            27768283
MTN     6.17 169.9 Pn       18:16:00.895  -0.5   6.3                     T__ 262.4                  __            62601909
MTN     6.17 169.9 Sn       18:17:07.495  -3.8   6.3                     T__  15.7                  __            62601910
KDU     6.38 158.0 Pn       18:16:03.25   -1.0   6.5                     T__ 316.1                  __            62601900
KDU     6.38 158.0 Sn       18:17:12.85   -3.7   6.5                     T__   6.6                  __            62601901
SOEI    6.45 241.9 Pn       18:16:06.0     0.7                           T__             4.4        __            27768285
SOEI    6.45 241.9 Pn       18:16:05.92    0.7   6.5                     T__ 132.5                  __            62601914
LBMI    6.56 337.3 Pn       18:16:06.8     0.1                           T__             1.3        __            27768284
MWPI    7.02  34.9 x        18:16:11.7                                   ___            10.1        __            27768286
SRPI    7.85  52.3 Pn       18:16:22.0    -1.8                           T__             2.4        __            27768287
TNTI    7.92 340.3 Pn       18:16:24.5    -0.2                           T__             0.2        __            27768288
TNTI    7.92 340.3 Pn       18:16:23.81   -0.9                           T__                        _e            50542034
MMRI    7.95 255.8 Pn       18:16:26.2     1.1                           T__          1422.6        __            27768290
BAKI    8.19  48.0 Pn       18:16:27.9    -0.4                           T__             6.4        __            27768289
KNRA    8.97 187.9 Pn       18:16:36.945  -1.7   9.1                     T__ 134.3                  __            62601903
KNRA    8.97 187.9 Sn       18:18:11.045  -7.5   9.1                     ___  13.0                  __            62601904
LUWI    9.19 307.7 Pn       18:16:43.7     2.2                           T__           934.6        __            27768291
LUWI    9.19 307.7 Pn       18:16:44.119   2.6   9.1                     T__   5.5                  __            62601906
KMSI    9.44 320.0 Pn       18:16:42.0    -2.9                           T__           110.1  1.25  __            27768292
BKSI    9.95 277.6 Pn       18:16:56.1     4.5                           ___            29.8  0.82  __            27768293
WSI    10.06 252.5 Pn       18:16:51.5    -1.6                           T__          5942.2        __            27768295
WSI    10.06 252.5 Pn       18:16:51.85   -1.2  10.1                     T__  17.3                  __            62601918
WSI    10.06 252.5 Sn       18:18:42.5    -2.3  10.1                     T__   4.3                  __            62601919
BNSI   10.15 282.7 P        18:17:01.4    -2.2                           T__            55.2  0.75  __            27768297
APSI   10.17 304.3 Pn       18:16:57.1     2.7                           T__          1944.3        __            27768294
LBFI   10.20 259.6 x        18:16:53.5                                   ___          1082.4        __            27768298
MMPI   10.40 100.2 Pn       18:16:55.7    -1.8                           T__           321.3  1.49  __            27768296
SPSI   10.58 284.6 P        18:17:09.3     0.9                           T__          1146.8        __            27768300
MRSI   10.79 311.3 Pn       18:17:04.3     1.6                           T__          2533.2        __            27768301
TTSI   10.81 289.3 Pn       18:17:06.4     3.5                           ___            25.5  0.77  __            27768302
GENI   10.91  68.3 Pn       18:17:03.6    -0.6                           T__          1071.3        __            27768299
JAY    11.43  69.0 Pn       18:17:10.911  -0.1  11.4                     T__   7.5                  __            62601897
JAY    11.43  69.0 Sn       18:19:15.961  -1.9  11.4                     T__   5.8                  __            62601898
MJSI   11.45 285.5 x        18:17:15.1                                   ___            61.8  0.76  __            27768303
MMSI   11.79 289.4 x        18:17:20.3                                   ___            54.1  0.60  __            27768304
TOLI   12.08 309.9 x        18:17:22.6                                   ___          3242.5        __            27768305
WRA    13.78 162.7 Pn       18:17:38.46   -2.6                           T__                        __            50542039
WRA    13.78 162.7 Sn       18:20:03.78  -10.3                           ___                        __            50542040
WRA    13.78 162.7 Pn       18:17:38.46   -2.6 344.1        12.90        T__  24.9       0.9  0.33  __            57923868
WRA    13.78 162.7 Sn       18:20:03.775 -10.3 343.4        21.70        ___  11.1       5.0  0.33  __            57923869
BKB    14.18 292.0 P        18:17:50.7     2.0                           T__            96.6  0.95  __            27768306
KBKI   14.22 283.2 P        18:17:49.5     0.3                           T__          1674.9        __            27768307
KHKI   14.39 262.6 x        18:17:47.3                                   ___            17.7  0.84  __            27768308
COEN   14.78 120.1 Pn       18:17:53.14   -0.4                           T__           353.0  0.80  _e            50541990
COEN   14.78 120.1 Pn       18:17:53.82    0.2  14.9                     T__  51.3                  __            62601892
CTBH   15.02 337.3 P        18:17:58.8     0.9                           T__         12900.0        _i            60425788
BBKI   15.47 281.4 P        18:18:06.1     3.1                           T__           231.5  0.80  __            27768309
BYJI   15.61 263.6 x        18:18:06.6                                   ___            58.5  0.84  __            27768310
JAGI   15.83 262.7 Pn       18:18:06.46   -0.1                           T__            17.1  0.80  _e            50542000
JAGI   15.83 262.7 Pn       18:18:04.369  -2.2  15.8                     T__  15.9                  __            62601895
JAGI   15.83 262.7 S        18:20:49.92  -13.2  15.8                     ___   5.4                  __            62601896
KMMI   15.95 267.9 P        18:18:12.5     4.2                           T__            59.1  0.69  __            27768311
MTKI   16.16 290.2 P        18:18:13.1     2.5                           T__           129.9  0.70  __            27768312
BLJI   16.34 265.5 Pn       18:18:14.1     1.5                           T__            34.6  0.70  __            27768313
TSM    16.35 311.7 Pn       18:18:13.819   1.0                           T__                        __            00320993
MYLDM  16.51 315.5 x        18:18:16.1                                   ___            32.7  1.39  __            27768314
MYLDM  16.51 315.5 Pn       18:18:17.49    2.8                           T__            41.0  1.20  _e            50542016
MYLDM  16.51 315.5 Pn       18:18:17.086   2.3                           T__                        __            00320994
GMJI   16.52 263.6 P        18:18:12.7    -1.8                           T__            26.1  1.48  __            27768315
QIS    16.58 146.9 Pn       18:18:15.645   0.1  16.7                     T__  12.3                  __            62601913
PMG    17.16 100.0 x        18:18:23.8                                   ___           858.3        __            27768316
PMG    17.16 100.0 Pn       18:18:23.74    1.1                           T__                        __            50542021
PMG    17.16 100.0 S        18:21:22.91   -9.4                           ___                        __            50542022
PMG    17.16 100.0 Pn       18:18:23.735   1.1 314.5         6.00        T__  16.1       1.4  0.33  __            57923854
PMG    17.16 100.0 S        18:21:22.91   -9.4 143.1        20.20        ___   4.6       0.5  0.33  __            57923855
AS31   17.24 167.9 Pn       18:18:23.68    0.2                           T__                        _e            50541981
ASAR   17.24 167.9 Pn       18:18:24.0     0.5                           T__                        __            50541982
ASAR   17.24 167.9 S        18:21:24.95   -8.9                           ___                        __            50541983
ASAR   17.24 167.9 Pn       18:18:24.0     0.5 347.7        10.70        T__  56.9       1.1  0.33  __            57923832
ASAR   17.24 167.9 S        18:21:24.95   -8.9 347.1        20.80        ___   8.2       0.7  0.33  __            57923833
SDKM   17.76 313.5 Pn       18:18:30.58    0.9                           T__                        __            00320995
MANU   17.90  75.7 Pn       18:18:32.62    1.3  17.9                     T__   6.7                  __            62601907
PWJI   18.12 264.8 P        18:18:33.2     1.1                           T__            28.8  1.46  __            27768317
WRKA   18.27 185.0 Pn       18:18:35.32   -0.4  18.5                     T__  18.5                  __            62601916
WRKA   18.27 185.0 S        18:21:51.57   -2.7  18.5                     T__   4.1                  __            62601917
PBKI   18.73 281.5 Pn       18:18:41.1    -0.0                           T__           158.9  0.85  __            27768318
UGM    19.38 265.3 Pn       18:18:52.02    3.2  19.4                     T__   3.6                  __            62601915
BTM    19.59 299.8 Pn       18:18:50.636  -0.6                           T__                        __            00320996
STKI   19.71 289.3 Pn       18:18:56.0     3.4                           T__            17.1  1.18  __            27768319
SBUM   19.98 296.6 x        18:18:54.6                                   ___            48.5  1.05  __            27768320
SBUM   19.98 296.6 Pn       18:18:54.66   -1.3                           ___            29.5  0.60  _e            50542026
SBUM   19.98 296.6 Pn       18:18:54.951  -1.0                           ___                        __            00320997
BJII   20.18 267.1 x        18:19:01.4                                   ___            29.0  1.82  __            27768321
CTA    20.59 131.7 P        18:18:59.25    0.5                           T__                        __            50541992
CTA    20.59 131.7 P        18:18:59.25    0.5 290.4        12.40        T__   3.9       7.4  0.95  __            57923838
CTAO   20.59 131.7 P        18:18:59.1     0.3                           T__                        __            18251483
CTAO   20.59 131.7 pmax                                                  ___            16.0  1.10  __            18251484
CTAO   20.59 131.7 P        18:18:59.09    0.3                           T__            16.0  1.10  __            50541993
KPJI   20.95 267.1 P        18:19:04.7     2.1                           T__            34.3  0.64  __            27768322
KSM    21.31 291.8 P        18:19:06.15   -0.3                           T__            37.0  1.20  _e            50542005
KSM    21.31 291.8 P        18:19:06.87    0.4  21.3                     T__  11.1                  __            62601905
KSM    21.31 291.8 P        18:19:07.581   1.1                           T__                        __            00320998
CISI   22.06 266.5 P        18:19:15.4     1.0                           T__           109.6  0.75  __            27768323
CISI   22.06 266.5 P        18:19:14.16   -0.2                           T__            75.1  0.80  _e            50541985
CISI   22.06 266.5 P        18:19:15.569   1.2  22.0                     T__   5.3                  __            62601890
LEM    22.26 268.4 P        18:19:20.6     4.2                           T__            54.7  1.05  __            27768324
MEEK   22.58 207.5 P        18:19:21.87    2.7  22.7                     T__   5.6                  __            62601908
TGY    22.59 336.5 P        18:19:18.81   -0.5                           T__                        __            50542032
TGY    22.59 336.5 P        18:19:18.812  -0.5 176.3         5.60        T__   7.6     117.5  0.68  __            57923863
TPI    22.64 279.0 P        18:19:25.0     5.1                           ___            25.0  1.09  __            27768325
CBJI   23.03 269.4 P        18:19:26.3     2.9                           T__           174.4  1.17  __            27768326
KMBL   25.66 196.3 P        18:19:47.925   0.8  25.9                     T__   5.5                  __            62601902
STKA   27.25 158.1 P        18:20:02.03    0.8                           T__                        __            50542031
STKA   27.25 158.1 P        18:20:02.025   0.8 264.9         6.50        T__   4.3       2.8  0.69  __            57923862
MYKOM  27.47 287.1 x        18:20:06.7                                   ___            40.4  1.32  __            27768327
MYKOM  27.47 287.1 P        18:20:06.66    3.2                           T__            31.0  0.60  _e            50542015
MYKOM  27.47 287.1 P        18:20:07.071   3.6                           T__                        __            00320999
KGM    28.05 287.2 P        18:20:12.143   3.5                           ___                        __            00321000
RGRI   28.35 281.8 P        18:20:30.6    19.3                           ___                        __            27768328
NWAO   28.65 202.9 P        18:20:14.03    0.3                           T__                        __            50542017
NWAO   28.65 202.9 P        18:20:14.025   0.3  17.8         8.90        T__   4.2      12.1  1.06  __            57923849
NWAO   28.65 202.9 LR       18:33:23.162        41.6        39.50        ___            86.4 18.26  __            57923850
CMSA   28.69 151.3 P        18:20:15.545   1.4  28.9                     T__   6.5                  __            62601891
FRIM   30.04 288.4 P        18:20:29.191   2.9                           T__                        __            00321001
IPM    31.02 290.3 P        18:20:37.126   2.2                           T__                        __            00321002
KULM   31.66 291.5 P        18:20:39.3    -1.3                           T__            26.6  1.30  _e            50542006
KULM   31.66 291.5 P        18:20:40.212  -0.3                           T__                        __            00321003
QIZ    32.42 322.5 P        18:20:47.3     0.2                           T__                        __            14835572
QIZ    32.42 322.5 pP       18:21:20.4    -1.2                           T__                        __            14835573
QIZ    32.42 322.5 sP       18:21:39.7    -0.7                           T__                        __            14835574
QIZ    32.42 322.5 S        18:25:49.8     0.1                           T__                        __            14835575
QIZ    32.42 322.5 pmax                                                  ___            89.0  4.60  __            14835577
QIZ    32.42 322.5 pmax                                                  ___            13.0  1.60  __            14835576
PSI    32.47 286.0 x        18:20:48.5                                   ___                        __            27768330
PSI    32.47 286.0 P        18:20:46.03   -1.7                           T__                        __            50542023
PSI    32.47 286.0 P        18:20:46.025  -1.7  97.5         4.40        T__  15.2      21.6  0.80  __            57923856
PSI    32.47 286.0 P        18:20:46.611  -1.1  32.4                     T__  18.9                  __            62601912
UBPT   32.73 312.1 P        18:20:50.7     1.0                           T__            24.8  0.94  __            49841599
CHBT   33.66 305.1 P        18:20:57.6    -0.2                           T__            16.9  0.72  __            49841600
CHAI   35.74 309.2 P        18:21:15.0    -0.7                           T__           106.5        __            49841601
PBKT   36.92 309.1 P        18:21:30.7     5.0                           ___           882.2        __            49841602
SRDT   37.14 304.4 P        18:21:28.0     0.4                           T__         10200.4        __            49841603
SLVN   37.89 318.1 P        18:21:33.89   -0.0                           T__             3.5  0.40  _e            50542029
LAMP   39.10 310.4 P        18:21:44.3     0.3                           T__            45.7        __            49841604
