Event 600127531 Taiwan
   Date       Time        Err   RMS Latitude Longitude  Smaj  Smin  Az Depth   Err Ndef Nsta Gap  mdist  Mdist Qual   Author      OrigID
2010/12/20 15:43:11.44   0.42 0.899  24.2722  122.0112 3.070 2.197 146   4.7  3.29   96   54 116   0.29   2.48 m i ke ISCJB     02145578
2010/12/20 15:43:11.80   0.10        24.2200  121.8800   2.2   2.0  -1  32.0   3.0                                    JMA       00348017
2010/12/20 15:43:12.18        0.400  24.3020  121.9400   0.8            11.6   0.8        82 199   0.20               TAP       00099078
2010/12/20 15:43:12.07   0.94 0.741  24.2850  121.9556 3.235 2.516 122  14.2  6.93   95   54 113   0.24   2.53 m i ke ISC       01613984
 (#PRIME)

Magnitude  Err Nsta Author      OrigID
       2.7          JMA       00348017
ML     3.5          TAP       00099078

Sta     Dist  EvAz Phase        Time      TRes  Azim AzRes   Slow   SRes Def   SNR       Amp   Per Qual Magnitude    ArrID
ENA     0.24 306.1 Pb       15:43:17.63   -0.6 305.0                     T__                        ci            01575715
ENA     0.24 306.1 Sb       15:43:21.92   -0.4 305.0                     T__                        _i            01575716
TWC     0.34 343.3 Pb       15:43:19.34   -0.5 346.0                     T__                        ci            01575717
TWC     0.34 343.3 Sb       15:43:24.71   -0.4 346.0                     T__                        _i            01575718
TWD     0.39 238.2 Pg       15:43:20.02    0.1 234.0                     T__                        _i            01575719
TWD     0.39 238.2 Sb       15:43:26.82    0.3 234.0                     T__                        _i            01575720
HWA     0.44 226.3 Pb       15:43:22.2     0.5 222.0                     T__                        _e            01575721
HWA     0.44 226.3 Sn       15:43:33.49    1.7 222.0                     ___                        _e            01575722
ENTT    0.50 314.9 Pg       15:43:22.0    -0.0 314.0                     T__                        c_            01575723
ENTT    0.50 314.9 Sb       15:43:29.31   -0.5 314.0                     T__                        __            01575724
TWE     0.51 328.9 Pg       15:43:22.14    0.0 330.0                     T__                        c_            01575725
TWE     0.51 328.9 Sb       15:43:29.57   -0.4 330.0                     T__                        __            01575726
ILA     0.51 338.5 Pb       15:43:22.66   -0.2 339.0                     T__                        c_            01575727
ILA     0.51 338.5 Sb       15:43:30.87    0.7 339.0                     T__                        __            01575728
NNS     0.55 286.3 Pg       15:43:22.77   -0.3 284.0                     T__                        c_            01575729
NNS     0.55 286.3 Sg       15:43:30.26   -0.2 284.0                     T__                        __            01575730
EGS     0.56 357.8 Pb       15:43:23.76    0.1                           T__                        __            01575731
EGS     0.56 357.8 Sb       15:43:31.72    0.3                           T__                        __            01575732
WHF     0.65 257.7 Pg       15:43:24.44   -0.4 255.0                     T__                        _e            01575733
ESL     0.67 225.6 Pg       15:43:24.75   -0.4 223.0                     T__                        _e            01575736
ESL     0.67 225.6 Sn       15:43:36.13   -1.3 223.0                     T__                        _e            01575737
NSK     0.67 305.7 Pg       15:43:24.81   -0.4 305.0                     T__                        c_            01575734
NSK     0.67 305.7 Sb       15:43:34.05   -0.7 305.0                     T__                        __            01575735
TWT     0.71 267.6 Pb       15:43:26.11   -0.3 265.0                     T__                        _e            01575740
TWT     0.71 267.6 Sb       15:43:35.98   -0.1 265.0                     T__                        _e            01575741
TWB1    0.72   2.4 Pb       15:43:26.36   -0.1   4.0                     T__                        __            01575738
TWB1    0.72   2.4 Sb       15:43:36.31    0.2   4.0                     T__                        __            01575739
NWF     0.80 348.6 Pb       15:43:27.96    0.2 349.0                     T__                        __            01575742
NWF     0.80 348.6 Sb       15:43:39.25    0.8 349.0                     T__                        __            01575743
TAP     0.85 331.5 Pb       15:43:28.89    0.2 332.0                     T__                        _e            01575744
TAP     0.85 331.5 Sb       15:43:40.73    0.7 332.0                     T__                        __            01575745
JYNG    0.92  79.4 Pb       15:43:30.1     0.3                           T__                        __            05930787
JYNG    0.92  79.4 Sn       15:43:44.0     0.5                           T__                        __            05930788
WDT     0.92 235.2 Pg       15:43:28.91   -1.0 233.0                     T__                        _e            01575748
WDT     0.92 235.2 Sn       15:43:44.95    1.0 233.0                     T__                        _e            01575749
NSTT    0.94 291.8 Pb       15:43:30.1     0.0 291.0                     T__                        _e            01575746
NSTT    0.94 291.8 Sn       15:43:43.16   -0.8 291.0                     T__                        _e            01575747
TWS1    0.95 329.0 Pn       15:43:30.72   -0.2 329.0                     T__                        _e            01575750
TWS1    0.95 329.0 Sn       15:43:44.37    0.1 329.0                     T__                        _e            01575751
EHY     0.97 216.9 Pb       15:43:29.5    -1.1 215.0                     T__                        _e            01575753
EHY     0.97 216.9 Sn       15:43:47.23    2.4 215.0                     T__                        _e            01575754
NCU     0.98 314.4 Sn       15:43:45.11    0.1 314.0                     T__                        _e            01575752
YOJ     0.98  79.4 Pb       15:43:30.8     0.0                           T__                        __            05930789
YOJ     0.98  79.4 Sn       15:43:45.6     0.6                           T__                        __            05930790
HSN     1.03 300.0 Sn       15:43:46.39   -0.0 301.0                     T__                        _e            01575755
SMLT    1.04 247.7 Pb       15:43:31.33   -0.7 246.0                     T__                        _e            01575756
SMLT    1.04 247.7 Sn       15:43:48.07    1.2 246.0                     T__                        _e            01575757
TYC     1.07 249.5 Pb       15:43:31.57   -0.8 247.0                     T__                        _e            01575758
TYC     1.07 249.5 Sn       15:43:50.21    2.9 247.0                     T__                        _e            01575759
TWQ1    1.08 273.6 Pn       15:43:32.89    0.1 272.0                     T__                        ce            01575760
NSY     1.10 277.1 Pn       15:43:33.29    0.3 275.0                     T__                        _e            01575761
NSY     1.10 277.1 Sn       15:43:48.78    0.8 275.0                     T__                        _e            01575762
TWF1    1.11 213.1 Pb       15:43:31.4    -1.6 211.0                     T__                        _e            01575763
TCU     1.18 263.6 Pg       15:43:35.14    0.4 262.0                     T__                        _e            01575764
TCU     1.18 263.6 Sn       15:43:51.27    1.4 262.0                     T__                        _e            01575765
YUS     1.21 229.4 Pn       15:43:34.64   -0.4 227.0                     T__                        _e            01575766
WNT     1.23 251.0 Pb       15:43:34.99   -0.1 249.0                     T__                        _e            01575767
WNT     1.23 251.0 Sg       15:43:51.94    0.1 249.0                     T__                        _e            01575768
CHKT    1.30 204.7 Pg       15:43:37.87    0.8 203.0                     T__                        _e            01575770
CHKT    1.30 204.7 Sg       15:43:53.84   -0.2 203.0                     T__                        _e            01575771
ALS     1.30 234.0 Pb       15:43:36.33   -0.2 232.0                     T__                        _e            01575769
CHN5    1.35 239.9 Pb       15:43:36.95   -0.3 238.0                     T__                        _e            01575772
CHN5    1.35 239.9 Sg       15:43:55.31   -0.5 238.0                     T__                        _e            01575773
ELDTW   1.39 218.4 Pn       15:43:35.77   -1.4 217.0                     T__                        _e            01575774
WGK     1.41 245.2 Pb       15:43:37.82   -0.3 243.0                     T__                        _e            01575775
WGK     1.41 245.2 Sg       15:43:56.91   -0.6 243.0                     T__                        _e            01575776
CHN2    1.55 241.3 Sg       15:44:02.32    0.3 240.0                     T__                        _e            01575777
CHN4    1.56 233.6 Pb       15:43:40.09   -0.6 232.0                     T__                        _e            01575778
CHN4    1.56 233.6 Sg       15:44:02.28    0.0 232.0                     T__                        _e            01575779
STYT    1.57 224.8 Pn       15:43:39.24   -0.3 223.0                     T__                        _e            01575780
STYT    1.57 224.8 Sb       15:44:00.39   -0.2 223.0                     T__                        _e            01575781
CHY     1.61 241.1 Sg       15:44:03.68   -0.2 239.0                     T__                        _e            01575782
WTP     1.61 230.2 Pn       15:43:40.68    0.6 228.0                     T__                        _e            01575783
WTP     1.61 230.2 Sg       15:44:02.82   -1.0 228.0                     T__                        _e            01575784
IRIF    1.62  87.9 Pn       15:43:39.6    -0.6                           T__                        __            05930791
IRIF    1.62  87.9 Sn       15:44:00.4    -0.4                           T__                        __            05930792
TWG     1.67 209.3 Pb       15:43:42.55   -0.0 208.0                     T__                        _e            01575787
TWK     1.68 233.3 Pb       15:43:42.42   -0.5 231.0                     T__                        _e            01575785
TWK     1.68 233.3 Sb       15:44:04.61    0.7 231.0                     T__                        _e            01575786
CHN1    1.71 230.4 Pb       15:43:42.28   -1.0 229.0                     T__                        _e            01575789
CHN1    1.71 230.4 Sg       15:44:05.74   -1.3 229.0                     T__                        _e            01575790
WSF     1.71 248.2 Sb       15:44:04.42   -0.3 247.0                     T__                        _e            01575788
SGST    1.74 226.7 Pn       15:43:42.4     0.6 225.0                     T__                        _e            01575791
SGST    1.74 226.7 Sb       15:44:06.38    0.9 225.0                     T__                        _e            01575792
JKRS    1.88  91.0 Pn       15:43:43.7     0.0                           T__                        __            05930793
JKRS    1.88  91.0 Sn       15:44:07.8     0.7                           T__                        __            05930794
SSD     1.96 218.7 Pn       15:43:45.92    1.1 217.0                     T__                        _e            01575793
SSD     1.96 218.7 Sb       15:44:11.5    -0.2 217.0                     T__                        _e            01575794
JIJ     2.00  87.3 Pn       15:43:44.9    -0.5                           T__                        __            05930795
JIJ     2.00  87.3 Sn       15:44:09.7    -0.5                           T__                        __            05930796
EAST    2.15 208.5 Pb       15:43:49.82   -1.0 207.0                     T__                        _e            01575795
EAST    2.15 208.5 Sb       15:44:18.43    1.1 207.0                     T__                        _e            01575796
JISG    2.17  81.5 Pn       15:43:46.8    -0.9                           T__                        __            05930797
JISG    2.17  81.5 Sn       15:44:14.9     0.5                           T__                        __            05930798
JTJ     2.53  81.4 Pn       15:43:53.1     0.4                           T__                        __            05930799
JTJ     2.53  81.4 Sn       15:44:24.0     0.7                           T__                        __            05930800

Event 17187337 Timor Sea
   Date       Time        Err   RMS Latitude Longitude  Smaj  Smin  Az Depth   Err Ndef Nsta Gap  mdist  Mdist Qual   Author      OrigID
2010/12/20 15:43:14.58   0.94 0.610  -8.4137  129.1330  39.1  17.6  75   0.0f        11      130   7.79  94.98     uk IDC       16692834
2010/12/20 15:43:17.03   0.60 1.007  -8.5178  129.2327 19.01 6.631 176  33.0f        14   11 130   7.86  95.03 m i ke ISCJB     02145579
2010/12/20 15:43:19.04   0.72 1.593  -8.5426  129.1749 20.32 7.971  89  35.0f        14   11 129   7.90  95.08 m i ke ISC       01613985
 (#PRIME)

Magnitude  Err Nsta Author      OrigID
mb     3.7 0.1    6 IDC       16692834
mb1    3.9 0.1   10 IDC       16692834
mb1mx  3.7 0.1   33 IDC       16692834
mbtmp  3.8 0.1   10 IDC       16692834
ML     3.9 0.2    4 IDC       16692834
MS     4.6 0.2    1 IDC       16692834
Ms1    4.6 0.2    1 IDC       16692834
ms1mx  3.3 0.3   29 IDC       16692834
mb     3.5        6 ISCJB     02145579
MS     4.5        1 ISCJB     02145579
mb     3.6 0.1    6 ISC       01613985

Sta     Dist  EvAz Phase        Time      TRes  Azim AzRes   Slow   SRes Def   SNR       Amp   Per Qual Magnitude    ArrID
SIJI    7.90  15.4 Pn       15:45:09.25   -2.3 220.9        18.80        T__   2.8       0.8  0.33  __            58648962
SIJI    7.90  15.4 Sn       15:46:40.825   1.0 233.1        20.20        T__   2.7       0.6  0.33  __            58648963
FITZ   10.11 199.5 Pn       15:45:43.387   1.6  21.5         7.60        T__  23.2       0.6  0.33  __            58648956
FITZ   10.11 199.5 Sn       15:47:31.537  -2.4 126.9        20.20        T__   4.3       0.8  0.33  __            58648957
WRA    12.39 156.7 Pn       15:46:14.491   1.5 342.1        12.30        T__  79.6       1.6  0.33  __            58648965
WRA    12.39 156.7 Sn       15:48:27.633  -2.2 332.0        23.00        T__   7.5       1.4  0.33  __            58648966
ASAR   15.71 163.8 Pn       15:46:57.9     0.1 334.4        10.20        T__  59.4       0.4  0.33  __            58648952
ASAR   15.71 163.8 Sn       15:49:49.404  -1.5 336.8        18.60        T__   7.2       0.5  0.33  __            58648953
STKA   25.93 155.3 P        15:48:49.875   1.7 323.6        10.60        T__   1.8       1.7  0.97  __            58648964
HNR    30.40  94.1 LR       16:02:48.097                    38.50        ___          1268.3 20.82  __            58648958
CMAR   40.12 312.1 P        15:50:51.211  -0.6 131.0         8.30        T__   4.0       0.4  0.49  __            58648955
MKAR   69.07 327.5 P        15:54:21.658   0.2 111.2         7.70        T__   3.8       0.3  0.56  __            58648961
KURBB  73.40 329.1 P        15:54:47.75    0.3 129.5         5.20        T__   7.7       0.6  0.64  __            58648960
BVAR   78.93 328.2 P        15:55:19.155   0.2 113.7         6.50        T__   3.3       0.5  0.83  __            58648954
ILAR   95.08  25.3 P        15:56:38.695   0.6 267.4         3.40        T__   4.2       0.3  0.82  __            58648959

Event 601836919 San Juan Province
   Date       Time        Err   RMS Latitude Longitude  Smaj  Smin  Az Depth   Err Ndef Nsta Gap  mdist  Mdist Qual   Author      OrigID
2010/12/20 16:01:17.30   0.53 0.200 -31.7700  -68.2760   3.2   3.9  -1 104.0   6.3         5 132                      SJA       01592264

Magnitude  Err Nsta Author      OrigID
ML     2.1          SJA       01592264
MW     3.9          SJA       01592264

Sta     Dist  EvAz Phase        Time      TRes  Azim AzRes   Slow   SRes Def   SNR       Amp   Per Qual Magnitude    ArrID
RTCV    0.24 247.9 Pn       16:01:32.65    0.4                           ___                        _i            32363865
RTLL    0.47 338.8 Pn       16:01:33.77    0.3                           ___                        _i            32363866
RTLL    0.47 338.8 Sn       16:01:46.69    1.2                           ___                        _i            32363867
AMOG    0.85 347.3 Pn       16:01:37.43    0.8                           ___                        _i            32363863
AMOG    0.85 347.3 Sn       16:01:52.09    1.0                           ___                        _i            32363864
ACAN    1.05 118.8 Pn       16:01:39.73    1.1                           ___                        _i            32363859
ACAN    1.05 118.8 Sn       16:01:55.76    1.0                           ___                        _i            32363860
ARCO    1.20 207.3 IAML     16:01:40.06                                  ___            26.0  0.30  __            32363861
ARCO    1.20 207.3 Pn       16:01:41.47    0.9                           ___                        _i            32363862

