Event 600127526 Taiwan
   Date       Time        Err   RMS Latitude Longitude  Smaj  Smin  Az Depth   Err Ndef Nsta Gap  mdist  Mdist Qual   Author      OrigID
2010/12/20 14:47:04.00   0.10        24.2300  121.8900   2.2   2.0  -1  29.0   3.0                                    JMA       00348003
2010/12/20 14:47:04.13   0.43 0.729  24.2745  121.9875 3.260 2.221 142   9.7  3.25   82   41 115   0.27   2.14 m i ke ISCJB     02145570
2010/12/20 14:47:04.48        0.320  24.3010  121.9140   0.7            10.9   0.8        70 196   0.20               TAP       00099073
2010/12/20 14:47:04.05   2.99 0.624  24.2825  121.9449 3.519 2.596 127  14.1  22.7   82   41 113   0.24   2.18 m i ke ISC       01613975
 (#PRIME)

Magnitude  Err Nsta Author      OrigID
       2.2          JMA       00348003
ML     2.9          TAP       00099073

Sta     Dist  EvAz Phase        Time      TRes  Azim AzRes   Slow   SRes Def   SNR       Amp   Per Qual Magnitude    ArrID
ENA     0.24 308.0 Pb       14:47:09.8    -0.3 309.0                     T__                        _i            01575583
ENA     0.24 308.0 Sb       14:47:13.7    -0.5 309.0                     T__                        _e            01575584
TWC     0.34 345.0 Pb       14:47:11.69   -0.2 350.0                     T__                        __            01575585
TWC     0.34 345.0 Sb       14:47:16.85   -0.2 350.0                     T__                        _i            01575586
TWD     0.38 237.8 Pb       14:47:12.31   -0.2 232.0                     T__                        __            01575587
TWD     0.38 237.8 Sb       14:47:18.63    0.4 232.0                     T__                        __            01575588
HWA     0.43 225.7 Pb       14:47:14.04    0.5 220.0                     T__                        _e            01575589
HWA     0.43 225.7 Sb       14:47:20.62    0.7 220.0                     T__                        _e            01575590
ENTT    0.50 315.9 Pb       14:47:14.09   -0.5 317.0                     T__                        __            01575591
ENTT    0.50 315.9 Sb       14:47:21.5    -0.2 317.0                     T__                        _i            01575592
TWE     0.51 330.0 Pb       14:47:14.32   -0.4 333.0                     T__                        _i            01575593
TWE     0.51 330.0 Sb       14:47:21.79   -0.1 333.0                     T__                        __            01575594
ILA     0.51 339.6 Pb       14:47:15.07    0.2 342.0                     T__                        __            01575595
ILA     0.51 339.6 Sb       14:47:23.17    1.0 342.0                     T__                        __            01575596
NNS     0.55 286.9 Pb       14:47:14.91   -0.6 285.0                     T__                        _e            01575597
NNS     0.55 286.9 Sb       14:47:22.49   -0.7 285.0                     T__                        __            01575598
EGS     0.56 358.8 Pb       14:47:15.87    0.2   2.0                     T__                        _e            01575599
EGS     0.56 358.8 Sb       14:47:23.8     0.3   2.0                     T__                        _e            01575600
ESL     0.66 225.2 Pb       14:47:16.98   -0.4 221.0                     T__                        __            01575603
ESL     0.66 225.2 Sn       14:47:27.38   -1.8 221.0                     T__                        _e            01575604
NSK     0.66 306.4 Pb       14:47:17.11   -0.3 306.0                     T__                        _i            01575601
NSK     0.66 306.4 Sb       14:47:26.08   -0.5 306.0                     T__                        __            01575602
TWT     0.70 267.8 Pb       14:47:18.22    0.0 265.0                     T__                        _e            01575605
TWT     0.70 267.8 Sb       14:47:28.0     0.2 265.0                     T__                        __            01575606
TWB1    0.72   3.1 Pb       14:47:18.62    0.2   6.0                     T__                        _e            01575607
TWB1    0.72   3.1 Sb       14:47:28.94    0.7   6.0                     T__                        _e            01575608
NWF     0.80 349.3 Pb       14:47:20.33    0.5 351.0                     T__                        _e            01575609
NWF     0.80 349.3 Sb       14:47:31.5     1.0 351.0                     T__                        __            01575610
WDT     0.91 234.9 Pb       14:47:21.69   -0.1 232.0                     T__                        __            01575613
WDT     0.91 234.9 Sb       14:47:34.01    0.2 232.0                     T__                        _e            01575614
JYNG    0.93  79.4 Pb       14:47:22.0     0.1                           T__                        __            05930667
JYNG    0.93  79.4 Sn       14:47:35.6    -0.2                           T__                        __            05930668
NSTT    0.93 292.2 Pn       14:47:22.2    -0.5 291.0                     T__                        _e            01575611
NSTT    0.93 292.2 Sn       14:47:35.26   -0.5 291.0                     T__                        __            01575612
TWS1    0.94 329.6 Pn       14:47:22.81   -0.1 330.0                     T__                        _e            01575615
TWS1    0.94 329.6 Sn       14:47:36.0    -0.2 330.0                     T__                        _e            01575616
EHY     0.96 216.5 Pb       14:47:21.87   -0.6 214.0                     T__                        _e            01575617
EHY     0.96 216.5 Sn       14:47:36.99    0.4 214.0                     T__                        _e            01575618
YOJ     0.99  79.4 Pb       14:47:23.0     0.1                           T__                        __            05930669
YOJ     0.99  79.4 Sn       14:47:37.3     0.0                           T__                        __            05930670
SMLT    1.03 247.6 Pn       14:47:23.98   -0.3 245.0                     T__                        _e            01575619
SMLT    1.03 247.6 Sn       14:47:39.1     0.5 245.0                     T__                        _e            01575620
TYC     1.06 249.5 Pb       14:47:23.77   -0.5 247.0                     T__                        _e            01575621
TYC     1.06 249.5 Sn       14:47:39.62    0.5 247.0                     T__                        _e            01575622
TWQ1    1.07 273.7 Pn       14:47:25.39    0.7 272.0                     T__                        __            01575623
TWQ1    1.07 273.7 Sn       14:47:39.74    0.4 272.0                     T__                        _e            01575624
TWF1    1.10 212.8 Pn       14:47:23.6    -1.4 210.0                     T__                        _e            01575625
TWF1    1.10 212.8 Sn       14:47:39.84   -0.2 210.0                     T__                        _e            01575626
TCU     1.17 263.6 Pb       14:47:26.79    0.8 262.0                     T__                        _e            01575627
TCU     1.17 263.6 Sn       14:47:42.44    0.8 262.0                     T__                        _e            01575628
YUS     1.20 229.2 Pb       14:47:26.79   -0.1 227.0                     T__                        _e            01575629
YUS     1.20 229.2 Sn       14:47:42.96   -0.3 227.0                     T__                        _e            01575630
WNT     1.22 251.0 Pb       14:47:27.78    0.9 249.0                     T__                        _e            01575631
WNT     1.22 251.0 Sn       14:47:44.11    1.1 249.0                     T__                        _e            01575632
CHKT    1.29 204.4 Pb       14:47:28.69    0.6 202.0                     T__                        _e            01575635
CHKT    1.29 204.4 Sb       14:47:46.13    1.6 202.0                     T__                        _e            01575636
ALS     1.30 233.9 Pb       14:47:28.55    0.2 231.0                     T__                        _e            01575633
ALS     1.30 233.9 Sb       14:47:46.31    1.3 231.0                     T__                        _e            01575634
CHN5    1.34 239.8 Pb       14:47:29.61    0.5 238.0                     T__                        _e            01575637
CHN5    1.34 239.8 Sb       14:47:47.32    1.1 238.0                     T__                        _e            01575638
ELDTW   1.38 218.2 Pn       14:47:28.69   -0.3 216.0                     T__                        _e            01575639
ELDTW   1.38 218.2 Sb       14:47:47.18   -0.1 216.0                     T__                        _e            01575640
CHN4    1.55 233.4 Pb       14:47:32.94    0.5 231.0                     T__                        _e            01575641
CHN4    1.55 233.4 Sb       14:47:53.16    1.2 231.0                     T__                        _e            01575642
STYT    1.56 224.6 Pn       14:47:31.54    0.1 222.0                     T__                        _e            01575643
STYT    1.56 224.6 Sb       14:47:52.81    0.5 222.0                     T__                        _e            01575644
WTP     1.60 230.0 Pb       14:47:33.12   -0.3 228.0                     T__                        _e            01575645
WTP     1.60 230.0 Sb       14:47:53.86    0.4 228.0                     T__                        _e            01575646
IRIF    1.63  87.8 Pn       14:47:32.5     0.2                           T__                        __            05930671
IRIF    1.63  87.8 Sn       14:47:52.5    -0.6                           T__                        __            05930672
CHN1    1.70 230.2 Pb       14:47:34.7    -0.4 228.0                     T__                        _e            01575647
CHN1    1.70 230.2 Sb       14:47:56.32    0.0 228.0                     T__                        _e            01575648
SGST    1.73 226.5 Pb       14:47:35.05   -0.5 224.0                     T__                        _e            01575649
SGST    1.73 226.5 Sb       14:47:57.03   -0.1 224.0                     T__                        _e            01575650
JKRS    1.89  90.9 Pn       14:47:36.2     0.4                           T__                        __            05930673
JKRS    1.89  90.9 Sn       14:47:59.8     0.4                           T__                        __            05930674
SSD     1.95 218.5 Pb       14:47:38.57   -0.7 217.0                     T__                        _e            01575651
SSD     1.95 218.5 Sb       14:48:02.3    -1.2 217.0                     T__                        _e            01575652
JIJ     2.01  87.2 Pn       14:47:37.0    -0.5                           T__                        __            05930675
JIJ     2.01  87.2 Sn       14:48:01.7    -0.7                           T__                        __            05930676
JISG    2.18  81.5 Pn       14:47:39.1    -0.8                           T__                        __            05930677
JISG    2.18  81.5 Sn       14:48:06.5    -0.1                           T__                        _e            05930678

Event 16392560 South of Fiji Islands
   Date       Time        Err   RMS Latitude Longitude  Smaj  Smin  Az Depth   Err Ndef Nsta Gap  mdist  Mdist Qual   Author      OrigID
2010/12/20 14:48:22.71   1.79 0.620 -23.3603 -179.3828  15.4  12.7 135 433.2  18.7   26      127  11.84 169.79     uk IDC       16692828
2010/12/20 14:48:23.19   0.45 1.047 -23.3821 -179.4252 10.97 7.845  44 450.0f        41   45 118   9.84  91.95 m i ke ISCJB     02145571
2010/12/20 14:48:26.76   1.53 1.200 -23.2600 -179.2926   1.8   1.3 321 488.5   0.6   28            9.68  57.62     uk AUST      16827863
2010/12/20 14:48:23.86   0.58 1.056 -23.3767 -179.3581 16.55 11.35 130 450.0f        47   45 127  11.84 169.78 m i ke ISC       01613976
 (#PRIME)

Magnitude  Err Nsta Author      OrigID
mb     3.6 0.1   15 IDC       16692828
mb1    3.8 0.1   16 IDC       16692828
mb1mx  3.6 0.1   39 IDC       16692828
mbtmp  4.4 0.1   16 IDC       16692828
mb     4.0       15 ISCJB     02145571
mb     4.0 0.3   15 ISC       01613976

Sta     Dist  EvAz Phase        Time      TRes  Azim AzRes   Slow   SRes Def   SNR       Amp   Per Qual Magnitude    ArrID
NIUE    9.78  65.8 P        14:50:41.495   2.8   9.7                     ___  24.9                  __            62673098
AFI    11.84  38.6 P        14:50:59.869  -1.3 225.0        17.20        T__  11.8       5.9  0.33  __            58648786
AFI    11.84  38.6 S        14:53:00.319 -10.7  40.5        18.90        ___   3.6       3.8  0.33  __            58648787
URZ    15.14 190.7 P        14:51:38.552   2.2 278.9         5.00        T__   9.3       1.9  0.33  __            58648811
URZ    15.14 190.7 S        14:54:11.877  -3.5 314.8        17.60        T__   3.7       0.7  0.33  __            58648812
RPZ    21.77 199.0 P        14:52:40.832  -0.4 260.4         1.90        T__  11.1      14.5  0.58  __            58648806
ARMA   26.76 248.5 P        14:53:27.77    1.7  26.8                     T__   5.1                  __            62673084
EIDS   26.98 259.7 P        14:53:29.595   1.7  27.0                     T__   4.2                  __            62673089
MGCD   27.71 242.7 P        14:53:35.8     1.6  27.8                     T__   8.2                  __            62673094
RMQ    29.04 257.2 P        14:53:41.985  -4.0  29.1                     ___   7.3                  __            62673101
CMSA   31.96 247.5 P        14:54:11.895   0.7  32.0                     T__  23.1                  __            62673087
QLP    33.09 256.8 P        14:54:21.545   0.6  33.1                     T__  10.3                  __            62673100
TOO    33.23 236.6 P        14:54:22.87    0.8  33.3                     T__   8.2                  __            62673103
MTSU   34.30 271.8 P        14:54:32.495   1.1  34.3                     T__  17.2                  __            62673097
PMG    34.89 287.9 P        14:54:36.719   0.4 116.8         4.60        T__   8.1      17.6  0.75  __            58648805
PMG    34.89 287.9 P        14:54:37.145   0.8  34.9                     T__   5.3                  __            62673099
STKA   35.46 247.5 P        14:54:40.25   -0.7  95.8         8.80        T__  11.6       3.9  0.58  __            58648808
STKA   35.46 247.5 P        14:54:41.575   0.6  35.5                     T__   7.0                  __            62673102
COEN   36.62 278.1 P        14:54:51.795   1.0  36.7                     T__   5.1                  __            62673088
BBOO   40.19 246.3 P        14:55:19.445  -0.4  40.2                     T__  14.4                  __            62673085
ASAR   42.70 259.9 P        14:55:40.0    -0.0  99.2         6.80        T__  83.5       8.3  0.70  __            58648790
ASAR   42.70 259.9 PcP      14:57:21.741  -0.3 106.2         4.00        T__   5.3       1.3  0.59  __            58648791
ASAR   42.70 259.9 ScP      15:00:30.791   1.2 111.0         4.20        T__   4.2       0.3  0.56  __            58648792
ASAR   42.70 259.9 S        15:01:28.115  -1.9 100.5        14.30        T__   4.5       0.5  0.95  __            58648793
WRA    43.03 265.4 P        14:55:42.05   -0.6 102.4         8.70        T__ 110.7       9.5  0.64  __            58648814
WRA    43.03 265.4 PcP      14:57:23.225   0.1 101.0         3.30        T__   5.8       2.0  0.93  __            58648815
WRA    43.03 265.4 ScP      15:00:32.475   1.6  92.0         3.70        T__   5.5       0.5  0.62  __            58648816
WRKA   47.53 256.8 P        14:56:17.095  -0.2  47.6                     T__  49.3                  __            62673104
MTN    48.01 273.6 P        14:56:20.37   -0.6  48.0                     T__   6.6                  __            62673096
KNRA   49.28 269.1 P        14:56:30.445  -0.0  49.3                     T__  17.4                  __            62673092
FITZ   51.46 265.0 P        14:56:46.312  -0.1  94.6         6.20        T__  23.3       4.9  0.54  __            58648797
FITZ   51.46 265.0 P        14:56:46.813   0.4  51.5                     T__  13.2                  __            62673090
SIJI   52.83 287.8 P        14:56:55.95   -0.5  91.9         7.00        T__   9.6      16.1  0.68  __            58648807
VNDA   54.95 184.9 P        14:57:11.4     0.9 356.0         6.80        T__  10.2       1.9  0.71  __            58648813
KLBR   55.73 246.8 P        14:57:16.595  -0.2  55.8                     T__   6.3                  __            62673091
MEEK   55.83 252.8 P        14:57:16.795  -0.8  55.8                     T__   6.5                  __            62673093
BLDU   56.77 247.8 P        14:57:23.595  -0.4  56.8                     T__  14.8                  __            62673086
MORW   57.61 249.5 P        14:57:29.27   -0.6  57.6                     T__  15.8                  __            62673095
MJAR   71.80 325.1 P        14:58:59.702  -0.1 171.5         6.00        T__   3.9       0.7  0.65  __            58648799
PETK   78.73 346.1 P        14:59:38.977   0.8 141.5         7.20        T__   2.8       2.1  0.71  __            58648804
NVAR   83.97  43.7 P        15:00:06.128   0.2 223.4         6.80        T__   4.8       1.0  0.80  __            58648802
TXAR   89.66  57.8 P        15:00:34.05    1.0 213.5         5.90        T__  13.5       1.1  0.75  __            58648810
CMAR   89.90 290.1 P        15:00:36.528   2.2 126.6         3.00        ___  15.0       2.3  1.01  __            58648795
ILAR   91.39  13.3 P        15:00:39.611  -0.5 232.1         5.00        T__   6.3       0.4  0.80  __            58648798
PDAR   91.91  43.7 P        15:00:43.741   0.4 178.4         5.20        T__   4.2       0.7  0.85  __            58648803
MKAR  112.23 312.7 PKiKP    15:06:06.7    -0.7  45.0         1.90        T__   4.2       0.4  0.51  __            58648800
ARCES 131.49 348.6 PKPdf    15:06:43.525  -0.1  64.5         2.80        T__   6.1       2.4  0.91  __            58648789
FINES 138.14 342.0 PKPdf    15:06:56.86    0.7  21.8         1.50        T__   5.4       2.2  0.94  __            58648796
NOA   141.65 351.7 PKPpre   15:06:55.663         8.4         2.40        ___   3.4       0.5  0.61  __            58648801
AKASG 144.84 328.1 PKPab    15:07:08.25   -1.0  44.0         3.80        T__  21.4       3.2  0.50  __            58648788
BRTR  147.73 308.1 PKPbc    15:07:16.229  -1.1 137.2         4.30        T__   7.2       1.1  0.61  __            58648794
TORD  169.78 185.8 PKPab    15:08:56.282  -0.4 168.6         2.70        T__   5.2       0.9  0.77  __            58648809

