DATA_TYPE BULLETIN IMS1.0:short
ISC Bulletin
Event 17145577 Philippine Islands region
   Date       Time        Err   RMS Latitude Longitude  Smaj  Smin  Az Depth   Err Ndef Nsta Gap  mdist  Mdist Qual   Author      OrigID
2010/01/01 17:10:37.57   0.61 0.870   7.2411  126.8823  31.2  13.7  80   0.0f        17      135  25.21 121.91     uk IDC       16654484
2010/01/01 17:10:39           0.800   7.3330  127.1750                   1.0               8                          MAN       16865640
2010/01/01 17:11:55.50   0.90 4.500   3.3200  124.0400                  10.0f                200                      DJA       15298058
2010/01/01 17:10:41.95   2.20 1.950   7.2862  127.0738 13.84 7.103  75  30.0  15.5   33   30 135   0.88 122.08 m i ke ISC       00011678
 (#PRIME)

Magnitude  Err Nsta Author      OrigID
mb     3.9 0.1   14 IDC       16654484
mb1    4.0 0.1   14 IDC       16654484
mb1mx  3.9 0.1   25 IDC       16654484
mbtmp  3.8 0.1   14 IDC       16654484
mb     5.0          MAN       16865640
ML     4.0          MAN       16865640
MS     4.1          MAN       16865640
M      3.7        7 DJA       15298058
MLv    3.7 0.2    7 DJA       15298058
mb     3.8 0.3   14 ISC       00011678

Sta     Dist  EvAz Phase        Time      TRes  Azim AzRes   Slow   SRes Def   SNR       Amp   Per Qual Magnitude    ArrID
MATI    0.88 247.4 Pn       17:10:58.3     0.0                           T__                        _e            60425770
MATI    0.88 247.4 Sb       17:11:07.78   -2.3                           T__                        _e            60425771
DMPH    1.57 262.7 Pb       17:11:11.59    1.3                           T__        322500.0        _e            60425772
DMPH    1.57 262.7 Sb       17:11:35.38    5.6                           T__                        _e            60425773
KCP     1.99 262.2 Pb       17:11:16.29   -1.2                           T__         30400.0        _e            60425774
KCP     1.99 262.2 Sb       17:11:43.57    1.6                           T__                        _i            60425775
BUKP    2.08 286.6 Pb       17:11:17.76   -1.3                           T__                        _e            60425776
BUKP    2.08 286.6 Sn       17:11:38.46   -1.3                           T__                        _e            60425777
BUTP    2.21 319.4 Pn       17:11:17.89    1.3                           T__                        _e            60425778
CGP     2.63 296.4 Pb       17:11:25.41   -3.0                           T__         80850.0        _e            60425779
CGP     2.63 296.4 Sb       17:11:58.61   -1.7                           T__                        _e            60425780
CTBH    2.81 268.9 Pn       17:11:26.95    2.1                           T__         64150.0        _i            60425781
PAGZ    3.70 278.9 Pn       17:11:40.81    3.7                           ___                        _e            60425782
SGSI    3.89 203.3 Sn       17:12:21.0    -3.5                           T__             2.2        __            27768343
KMSI    7.35 205.0 Pb       17:12:46.7    -2.1                           T__             0.3        __            27768344
GTOI    7.75 211.7 Pn       17:12:35.1     2.3                           T__             0.2        __            27768345
MRSI    8.48 217.3 Pn       17:12:45.7     2.8                           T__             0.1        __            27768346
TOLI    8.76 225.9 x        17:13:01.6                                   ___             0.5        __            27768347
LUWI    9.32 207.6 Pn       17:13:02.9     8.5                           ___             0.2        __            27768348
APSI    9.78 213.8 Pn       17:13:06.3     5.7                           ___                        __            27768349
FITZ   25.27 183.2 P        17:16:05.937   0.2 143.3        20.20        T__   8.3       2.0  0.80  __            57923587
WRA    27.99 165.3 P        17:16:29.216  -1.1 347.1         9.90        T__  10.7       0.5  0.46  __            57923596
CMAR   29.54 294.8 P        17:16:43.609  -0.6 113.5         9.00        T__   3.4       0.2  0.61  __            57923584
CMAR   29.54 294.8 PcP      17:19:49.8     0.7  50.5         1.90        T__   5.4       0.5  0.79  __            57923585
KSRS   30.04   1.4 P        17:16:50.102   1.8 181.2        10.90        T__   6.7       2.0  0.78  __            57923589
ASAR   31.48 167.9 P        17:17:02.471   1.2 345.1         6.90        T__   3.4       0.3  0.47  __            57923582
ASAR   31.48 167.9 PcP      17:19:54.25    0.2 343.7         1.90        T__   6.7       0.4  0.48  __            57923583
USRK   37.02   5.9 P        17:17:50.1     1.1 203.0         4.50        T__   8.7       7.1  0.97  __            57923595
STKA   41.34 161.2 P        17:18:24.925  -0.3 341.3         9.60        T__   6.3       1.8  0.56  __            57923593
SONM   44.08 340.0 P        17:18:47.14   -0.3 164.2         6.00        T__   3.9       0.3  0.60  __            57923592
PETK   52.03  22.9 P        17:19:48.874   0.2 230.8         9.10        T__   2.9       2.0  0.93  __            57923591
MKAR   54.88 323.7 P        17:20:08.923  -0.8 111.6         6.70        T__  32.9       0.4  0.39  __            57923590
ILAR   81.77  25.6 P        17:22:59.05    1.4 256.0         4.50        T__   4.3       0.2  0.53  __            57923588
FINES  88.88 331.9 P        17:23:32.233  -0.9 107.4         6.30        T__   3.2       4.7  1.11  __            57923586
AKASG  89.36 321.0 P        17:23:34.095  -1.6  60.3         5.60        T__   4.0       0.3  0.50  __            57923581
YKA    96.14  24.3 P        17:24:07.895   1.2 298.4         4.60        T__   3.0       0.2  0.80  __            57923597
TORD  122.08 290.4 PKPdf    17:29:34.007  -0.7  56.5         1.40        T__   3.7       0.3  0.65  __            57923594

Event 16110901 Utah
   Date       Time        Err   RMS Latitude Longitude  Smaj  Smin  Az Depth   Err Ndef Nsta Gap  mdist  Mdist Qual   Author      OrigID
2010/01/01 17:16:19.07   0.42 1.083  39.0123 -111.3980 5.999 5.281 162   0.0f        32   28  51   0.32  23.59 m i fm ISCJB     00508790
2010/01/01 17:16:19.29   0.42 1.140  38.9990 -111.4020   6.6   4.9  69   0.0f        21       85   0.33  23.61     fm NEIC      16338984
2010/01/01 17:16:20.01   1.21 0.740  39.0268 -111.2365  15.3  10.0 136   0.0f         9      131   3.95  23.56     uk IDC       16654485
2010/01/01 17:16:18.92   0.90 1.478  38.9576 -111.3051 5.659 4.178  74   0.0f        32   28  50   0.35  23.65 m i sm ISC       00011679
 (#PRIME)

Magnitude  Err Nsta Author      OrigID
mb     2.9        1 ISCJB     00508790
ML     2.1          NEIC      16338984
mb     2.7 0.3    1 IDC       16654485
mb1    3.0 0.1    4 IDC       16654485
mb1mx  3.0 0.1   30 IDC       16654485
mbtmp  2.7 0.2    4 IDC       16654485
ML     2.8 0.3    3 IDC       16654485

Sta     Dist  EvAz Phase        Time      TRes  Azim AzRes   Slow   SRes Def   SNR       Amp   Per Qual Magnitude    ArrID
TMUT    0.35  12.5 Pg       17:16:26.13    0.5                           T__                        _e            50539813
SRU     0.63  75.6 Pg       17:16:31.54    0.6                           T__                        _e            50539812
MVU     0.84 237.7 Pg       17:16:34.73   -0.3                           T__                        _e            50539800
MPU     1.09 346.6 Pg       17:16:38.53   -1.2                           T__                        _e            50539798
NLU     1.16 329.3 Pg       17:16:40.23   -1.0                           T__                        _e            50539801
DAU     1.45   1.5 Pn       17:16:45.68   -1.1                           T__                        _e            50539795
DUG     1.70 317.2 Pn       17:16:48.59   -1.4                           T__                        _e            50539796
PV04    1.96 105.9 Pb       17:16:56.04    0.4                           T__                        _e            50539809
ARUT    2.04 235.8 Pn       17:16:54.48   -0.3                           T__                        _e            50539791
CCUT    2.14 229.7 Pn       17:16:57.03    0.9                           T__                        _e            50539794
PV01    2.30 110.1 Pb       17:17:00.75   -0.6                           T__                        _e            50539808
BGU     2.37 326.5 Pn       17:16:57.84   -1.4                           T__                        _e            50539792
SPUT    2.51 339.9 Pn       17:17:00.15   -1.0                           T__                        _e            50539811
O20A    2.64  62.6 Pb       17:17:06.78   -0.5                           T__                        _e            50539804
MVCO    2.82 127.4 Pb       17:17:08.32   -2.0                           T__                        _e            50539799
HVU     3.03 338.7 Pn       17:17:06.89   -1.5                           T__                        _e            50539797
R11A    3.41 261.1 Pn       17:17:16.17    2.7                           T__                        __            50539810
WUAZ    3.44 180.9 Pn       17:17:15.28    1.4                           T__                        _e            50539815
PDAR    4.03  18.6 Pn       17:17:24.15    2.0                           T__                        __            50539805
PDAR    4.03  18.6 Pb       17:17:31.25    0.3                           T__                        __            50539806
PDAR    4.03  18.6 Lg       17:18:23.77                                  ___                        __            50539807
PDAR    4.03  18.6 Pn       17:17:24.15    2.0 192.6        12.00        T__   6.5       0.2  0.33  __            57923603
PDAR    4.03  18.6 Pb       17:17:31.25    0.3 186.4        15.40        T__  15.3       0.2  0.33  __            57923604
PDAR    4.03  18.6 Lg       17:18:23.775       206.3        30.20        ___   3.6       0.2  0.33  __            57923605
W18A    4.03 161.4 Pn       17:17:22.81    0.7                           T__                        __            50539814
NVAR    5.50 266.7 Pn       17:17:44.63    2.3                           T__                        __            50539802
NVAR    5.50 266.7 Lg       17:19:15.38                                  ___                        __            50539803
NVAR    5.50 266.7 Pn       17:17:44.625   2.3  75.6        15.10        T__   3.2       0.1  0.33  __            57923601
NVAR    5.50 266.7 Lg       17:19:15.375        72.5        24.00        ___   2.8       0.1  0.33  __            57923602
ANMO    5.58 134.4 Pn       17:17:44.81    1.5                           T__                        __            50539788
ANMO    5.58 134.4 Pg       17:18:03.48   -2.3                           T__                        __            50539789
ANMO    5.58 134.4 Lg       17:19:16.27                                  ___                        __            50539790
ANMO    5.58 134.4 Pn       17:17:44.815   1.5 332.9        12.00        T__  16.2       0.4  0.33  __            57923598
ANMO    5.58 134.4 Pg       17:18:03.475  -2.3 321.6        11.70        T__   8.8       0.3  0.33  __            57923599
ANMO    5.58 134.4 Lg       17:19:16.275        56.0        20.40        ___   3.9       0.1  0.33  __            57923600
BNM     6.10 140.5 Pg       17:18:14.53   -1.2                           T__             3.1  0.80  _e            50539793
YKA    23.65 356.2 P        17:21:32.19    0.6                           T__                        __            50539816
YKA    23.65 356.2 P        17:21:32.195   0.6 174.3         9.90        T__   4.4       0.2  0.56  __            57923606

