Event 14225088 Dodecanese Islands
   Date       Time        Err   RMS Latitude Longitude  Smaj  Smin  Az Depth   Err Ndef Nsta Gap  mdist  Mdist Qual   Author      OrigID
2010/01/01 18:06:56.69        0.495  35.7272   26.9538                  28.0              10 284                   ke DDA       16389932
2010/01/01 18:06:57.40               35.8990   27.1560                  10.0              27                          ISK       14592106
2010/01/01 18:06:58.54        0.240  35.6280   27.2980   8.1             7.4   8.6                                    HLW       15728188
2010/01/01 18:06:58.59   0.18 1.114  35.7951   27.1613 3.115 2.324 179  88.4  3.20  321  241  32   0.25  33.81 m i ke ISCJB     00508796
2010/01/01 18:06:59.00   1.63 0.600  35.2800   27.5410  27.8 472.0  -1   0.0   263         5 339                      NSSC      17051143
2010/01/01 18:06:59.43   0.96 1.210  35.7367   27.1920  15.8   8.6 174  80.5  14.8   18      101   1.93  33.86     uk IDC       16654491
2010/01/01 18:07:00.60   0.11 1.070  35.8094   27.1671   3.3   2.5   4  40.0f       109   81  33   0.26  24.15     ke CSEM      17104278
2010/01/01 18:07:00.60        0.300  35.9700   27.0400   1.0   0.6  -1  46.0   3.4   32       92                      ATH       15663958
2010/01/01 18:07:02.60        0.370  35.9323   27.0125   3.5   0.6 136  40.0   3.5   40   25  90   0.41            ke THE       14442094
2010/01/01 18:07:09.00   0.30 0.304  34.8690   27.9590                  46.0                                          NIC       14199656
2010/01/01 18:06:59.51   0.61 1.555  35.8217   27.1461 4.732 2.862 140  74.4  6.40  315  241  29   0.27  33.78 m i ke ISC       00011685
 (#PRIME)

Magnitude  Err Nsta Author      OrigID
ML     3.6          DDA       16389932
ML     3.8          ISK       14592106
Md     3.3          HLW       15728188
Ml     3.6          HLW       15728188
mb     3.5        5 ISCJB     00508796
MD     2.2          NSSC      17051143
ML     3.3          NSSC      17051143
mb     3.5 0.1    5 IDC       16654491
mb1    3.6 0.1   13 IDC       16654491
mb1mx  3.4 0.1   32 IDC       16654491
mbtmp  3.4 0.1   13 IDC       16654491
ML     3.8          CSEM      17104278
Ms     3.2          CSEM      17104278
MD     3.3       12 ATH       15663958
ML     3.8 0.1    3 THE       14442094
mb     4.3 0.1      NIC       14199656
ML     3.9 0.1      NIC       14199656
mb     3.5 0.0    5 ISC       00011685

Sta     Dist  EvAz Phase        Time      TRes  Azim AzRes   Slow   SRes Def   SNR       Amp   Per Qual Magnitude    ArrID
KARP    0.27 177.4 Pn       18:07:11.6     0.5                           T__                        __            16096786
KARP    0.27 177.4 Sn       18:07:19.2    -0.4                           T__         14240.0        __            16096787
KARP    0.27 177.4 Pn       18:07:11.7     0.6                           T__                        _e            34010689
KARP    0.27 177.4 Sn       18:07:19.2    -0.4                           T__                        _e            34010690
KARP    0.27 177.4 Pn       18:07:11.7     0.6                           T__                        _e            67986589
KARP    0.27 177.4 Sn       18:07:19.2    -0.4                           T__                        _e            67986590
ARG     0.89  63.4 Pn       18:07:18.5     1.6                           T__                        __            16096774
ARG     0.89  63.4 Sn       18:07:30.9     1.1                           T__                        __            16096775
ARG     0.89  63.4 Pn       18:07:18.5     1.6                           T__                        _e            34010691
ARG     0.89  63.4 Sn       18:07:30.5     0.7                           T__                        _e            34010692
ARG     0.89  63.4 Pn       18:07:18.5     1.6                           T__                        _e            67986538
ARG     0.89  63.4 Sn       18:07:30.5     0.7                           T__                        _e            67986539
ZKR     1.04 227.3 Pn       18:07:20.2     1.6                           T__                        __            16096809
ZKR     1.04 227.3 Sn       18:07:34.4     1.4                           T__                        __            16096810
ZKR     1.04 227.3 Pn       18:07:19.29    0.6                           T__                        _e            18542509
ZKR     1.04 227.3 Sn       18:07:34.12    1.1                           T__                        _e            18542510
ZKR     1.04 227.3 Pn       18:07:20.3     1.6                           T__                        _e            34010693
ZKR     1.04 227.3 Sn       18:07:34.6     1.6                           T__                        _e            34010694
ZKR     1.04 227.3 Pn       18:07:19.3     0.6                           T__                        _e            67986650
ZKR     1.04 227.3 Pn       18:07:20.3     1.6                           T__                        _e            67986651
ZKR     1.04 227.3 Sn       18:07:34.1     1.1                           T__                        _e            67986652
BODT    1.25   6.1 Pn       18:07:21.15   -0.2                           T__                        _e            18542511
BODT    1.25   6.1 Sn       18:07:36.27   -1.4                           T__                        _e            18542512
BODT    1.25   6.1 Pn       18:07:21.2    -0.2                           T__                        _e            67986547
BODT    1.25   6.1 Sn       18:07:36.3    -1.4                           T__                        _e            67986548
BDRM    1.26  10.9 Pn       18:07:22.062   0.5                           T__                        _i            52187181
BDRM    1.26  10.9 Sn       18:07:37.542  -0.6                           T__                        _i            52187185
BDRM    1.26  10.9 Pn       18:07:22.1     0.5                           T__                        _i            67986543
BDRM    1.26  10.9 Sn       18:07:37.5    -0.6                           T__                        _i            67986544
NPS     1.37 246.4 Pn       18:07:23.7     0.8                           T__                        _e            34010697
NPS     1.37 246.4 Sn       18:07:40.7     0.1                           T__                        _e            34010698
NPS     1.37 246.4 Pn       18:07:23.7     0.8                           T__                        _e            67986616
NPS     1.37 246.4 Sn       18:07:40.7     0.1                           T__                        _e            67986617
SANT    1.47 292.4 Pn       18:07:24.1    -0.2                           T__                        __            16096799
SANT    1.47 292.4 Sn       18:07:40.5    -2.4                           T__          5027.5        __            16096800
SANT    1.47 292.4 Pn       18:07:24.24   -0.1                           T__                        _e            18542513
SANT    1.47 292.4 Pn       18:07:24.2    -0.1                           T__                        _e            34010695
SANT    1.47 292.4 Sn       18:07:40.6    -2.4                           T__                        _e            34010696
SANT    1.47 292.4 Pn       18:07:24.2    -0.1                           T__                        _e            67986626
SANT    1.47 292.4 Sn       18:07:40.6    -2.4                           T__                        _e            67986627
LAST    1.51 244.6 Pn       18:07:25.8     0.9                           T__                        __            16096791
LAST    1.51 244.6 Sn       18:07:44.5     0.5                           T__                        __            16096792
LAST    1.51 244.6 Pn       18:07:25.8     0.9                           T__                        __            67986603
LAST    1.51 244.6 Sn       18:07:44.5     0.5                           T__                        __            67986604
DALY    1.57  50.3 Pn       18:07:25.77    0.3                           T__                        _e            18542514
DALY    1.57  50.3 Sn       18:07:45.84    0.6                           T__                        _e            18542515
DALY    1.57  50.3 Pn       18:07:25.8     0.3                           T__                        _e            67986556
DALY    1.57  50.3 Sn       18:07:45.8     0.6                           T__                        _e            67986557
TURN    1.58  47.8 Pn       18:07:22.972  -2.6                           T__                        _i            52187182
TURN    1.58  47.8 Sn       18:07:39.797  -5.5                           T__                        _i            52187188
TURN    1.58  47.8 Pn       18:07:23.0    -2.6                           T__                        _i            67986643
FETY    1.76  62.0 Pn       18:07:28.46    0.3                           T__                        _e            18542516
FETY    1.76  62.0 Pn       18:07:28.5     0.3                           T__                        _e            67986567
APE     1.80 314.2 Pn       18:07:28.6    -0.1                           T__                        __            16096772
APE     1.80 314.2 Sn       18:07:48.9    -1.9                           T__          1790.0        __            16096773
APE     1.80 314.2 Pn       18:07:28.76    0.1                           T__                        _e            18542517
APE     1.80 314.2 Pn       18:07:28.6    -0.1                           T__                        _e            34010699
APE     1.80 314.2 Sn       18:07:48.1    -2.7                           T__                        _e            34010700
APE     1.80 314.2 Pn       18:07:28.6    -0.1                           T__                        _e            67986536
APE     1.80 314.2 Sn       18:07:48.1    -2.7                           T__                        _e            67986537
GCAM    1.88   2.1 Pn       18:07:30.302   0.7                           T__                        _i            52187183
GCAM    1.88   2.1 Sn       18:07:52.41   -0.0                           T__                        _i            52187192
GCAM    1.88   2.1 Pn       18:07:30.3     0.7                           T__                        _i            67986570
GCAM    1.88   2.1 Sn       18:07:52.4    -0.0                           T__                        _i            67986571
SMG     1.90 352.6 Pn       18:07:30.2     0.3                           T__                        __            16096803
SMG     1.90 352.6 Sn       18:07:52.0    -1.0                           T__                        __            16096804
SMG     1.90 352.6 Pn       18:07:30.3     0.3                           T__                        _e            34010701
SMG     1.90 352.6 Sn       18:07:50.8    -2.2                           T__                        _e            34010702
SMG     1.90 352.6 Pn       18:07:30.3     0.3                           T__                        _e            67986635
SMG     1.90 352.6 Sn       18:07:52.0    -1.0                           T__                        __            67986636
IDI     1.92 254.5 Pn       18:07:30.641   0.5  48.7        12.60        T__ 175.4      25.6  0.33  __            57923821
IDI     1.92 254.5 Sn       18:07:53.866   0.4 264.6        15.30        T__   3.5      39.6  0.33  __            57923822
AKAS    2.04  77.7 Pn       18:07:33.813   2.0                           T__                        _i            52187184
AKAS    2.04  77.7 Sn       18:07:58.714   2.2                           T__                        _i            52187193
AKAS    2.04  77.7 Pn       18:07:33.8     2.0                           T__                        _i            67986525
AKAS    2.04  77.7 Sn       18:07:58.7     2.2                           T__                        _i            67986526
SIVA    2.07 247.9 Pn       18:07:34.0     1.8                           T__                        __            16096802
SIVA    2.07 247.9 Pn       18:07:33.76    1.6                           T__                        _e            18542518
SIVA    2.07 247.9 Pn       18:07:34.3     2.1                           T__                        _e            34010703
SIVA    2.07 247.9 Sn       18:07:58.0     0.9                           T__                        _e            34010704
SIVA    2.07 247.9 Pn       18:07:33.8     1.6                           T__                        _e            67986630
SIVA    2.07 247.9 Pn       18:07:34.3     2.1                           T__                        _e            67986631
SIVA    2.07 247.9 Sn       18:07:58.0     0.9                           T__                        _e            67986632
AYDB    2.20  15.5 Pn       18:07:33.85   -0.2                           T__                        _e            18542519
AYDB    2.20  15.5 Pn       18:07:33.9    -0.2                           T__                        _e            67986542
GOLH    2.40  53.3 Pn       18:07:39.242   2.4                           T__                        _i            52187187
GOLH    2.40  53.3 Sn       18:08:10.166   4.9                           T__                        _i            52187196
GOLH    2.40  53.3 Pn       18:07:39.2     2.4                           T__                        _i            67986573
GOLH    2.40  53.3 Sn       18:08:10.2     4.9                           T__                        _i            67986574
DNZL    2.41  38.7 Pn       18:07:38.673   1.8                           T__                        _i            52187186
DNZL    2.41  38.7 Sn       18:08:08.204   2.6                           T__                        _i            52187195
DNZL    2.41  38.7 Pn       18:07:38.7     1.8                           T__                        _i            67986562
DNZL    2.41  38.7 Sn       18:08:08.2     2.6                           T__                        _i            67986563
ELL     2.42  66.7 Pn       18:07:37.72    0.7                           T__                        _e            18542520
ELL     2.42  66.7 Pn       18:07:37.7     0.7                           T__                        _e            67986566
VAM     2.44 261.1 Pn       18:07:37.4     0.3                           T__                        __            16096805
VAM     2.44 261.1 Sn       18:08:05.8    -0.1                           T__                        __            16096806
VAM     2.44 261.1 Pn       18:07:39.2     2.1                           T__                        _e            34010705
VAM     2.44 261.1 Sn       18:08:06.3     0.4                           T__                        _e            34010706
VAM     2.44 261.1 Pn       18:07:39.2     2.1                           T__                        _e            67986645
VAM     2.44 261.1 Sn       18:08:06.3     0.4                           T__                        _e            67986646
IZM     2.57   2.0 Pn       18:07:39.62    0.6                           T__                        _e            18542521
IZM     2.57   2.0 Pn       18:07:39.6     0.6                           T__                        _e            67986586
KARN    2.66 261.9 Pn       18:07:41.4     1.2                           T__                        __            16096784
KARN    2.66 261.9 Sn       18:08:11.7     0.2                           T__                        __            16096785
KARN    2.66 261.9 Pn       18:07:41.5     1.2                           T__                        _e            34010708
KARN    2.66 261.9 Sn       18:08:11.4    -0.1                           T__                        _e            34010709
KARN    2.66 261.9 Pn       18:07:41.5     1.2                           T__                        _e            67986587
KARN    2.66 261.9 Sn       18:08:11.7     0.2                           T__                        __            67986588
CHOS    2.71 341.5 Pn       18:07:41.2     0.4                           T__                        __            16096777
CHOS    2.71 341.5 Sn       18:08:11.8    -0.8                           T__                        __            16096778
CHOS    2.71 341.5 Pn       18:07:41.26    0.4                           T__                        _e            18542522
CHOS    2.71 341.5 Pn       18:07:40.8    -0.0                           T__                        _e            34010707
CHOS    2.71 341.5 Pn       18:07:41.2     0.4                           T__                        __            67986552
CHOS    2.71 341.5 Sn       18:08:11.8    -0.8                           T__                        __            67986553
KORT    2.84  64.6 Pn       18:07:45.348   2.6                           T__                        _i            52187189
KORT    2.84  64.6 Sn       18:08:20.562   4.7                           T__                        _i            52187197
KORT    2.84  64.6 Pn       18:07:45.3     2.6                           T__                        _i            67986596
KORT    2.84  64.6 Sn       18:08:20.6     4.7                           T__                        _i            67986597
KULA    2.95  23.8 Pn       18:07:45       0.9                           T__                        _e            18542523
KULA    2.95  23.8 Pn       18:07:45.0     0.9                           T__                        _e            67986599
ANTB    3.03  68.2 Pn       18:07:45.77    0.7                           T__                        _e            18542524
ANTB    3.03  68.2 Pn       18:07:45.8     0.7                           T__                        _e            67986535
AKS     3.10   9.7 Pn       18:07:46.43    0.3                           T__                        _e            18542525
AKS     3.10   9.7 Pn       18:07:46.4     0.3                           T__                        _e            67986528
ANKY    3.12 271.9 Pn       18:07:46.9     0.5                           T__                        __            16096770
ANKY    3.12 271.9 Sn       18:08:22.6    -0.0                           T__                        __            16096771
ANKY    3.12 271.9 Pn       18:07:48.1     1.7                           T__                        _e            34010710
ANKY    3.12 271.9 Pn       18:07:48.1     1.7                           T__                        _e            67986533
ANKY    3.12 271.9 Sn       18:08:22.6    -0.0                           T__                        __            67986534
KHL     3.14  36.6 Pn       18:07:47.95    1.3                           T__                        _e            18542526
KHL     3.14  36.6 Pn       18:07:48.0     1.3                           T__                        _e            67986593
KHAL    3.16  35.7 Pn       18:07:48.399   1.4                           T__                        _i            52187190
KHAL    3.16  35.7 Sn       18:08:23.313  -0.4                           T__                        _i            52187198
KHAL    3.16  35.7 Pn       18:07:48.4     1.4                           T__                        _i            67986591
KHAL    3.16  35.7 Sn       18:08:23.3    -0.4                           T__                        _i            67986592
KYTH    3.36 279.0 Pn       18:07:50.6     0.9                           T__                        _e            34010711
KYTH    3.36 279.0 Pn       18:07:50.6     0.9                           T__                        _e            67986600
ISP     3.37  52.6 Pn       18:07:51.1     1.3                           T__                        __            16096783
ISP     3.37  52.6 Pn       18:07:51.38    1.6                           T__                        _e            18542527
ISP     3.37  52.6 Pn       18:07:51.1     1.3                           T__                        __            67986583
