Event 600127537 Taiwan
   Date       Time        Err   RMS Latitude Longitude  Smaj  Smin  Az Depth   Err Ndef Nsta Gap  mdist  Mdist Qual   Author      OrigID
2010/12/20 16:16:08.60   0.20        24.2100  121.8900   2.2   2.0  -1  37.0   4.0                                    JMA       00348026
2010/12/20 16:16:09.17        0.170  24.2960  121.8970   0.1            23.8   0.2        63 209   0.10               TAP       00099082
2010/12/20 16:16:09.58   0.35 0.758  24.2780  121.9648 3.903 2.512 136  16.6  5.47   72   40 122   0.21   2.16 m i ke ISCJB     02145580
2010/12/20 16:16:09.37   0.93 0.619  24.2814  121.9430 3.848 2.761 129  20.2  3.31   72   40 121   0.19   2.18 m i ke ISC       01613986
 (#PRIME)

Magnitude  Err Nsta Author      OrigID
ML     2.9          TAP       00099082

Sta     Dist  EvAz Phase        Time      TRes  Azim AzRes   Slow   SRes Def   SNR       Amp   Per Qual Magnitude    ArrID
EHP     0.19 278.8 Pb       16:16:14.45   -0.3 275.0                     T__                        _e            01575889
ENA     0.23 308.4 Pb       16:16:14.84   -0.4 320.0                     T__                        ci            01575890
ENA     0.23 308.4 Sb       16:16:18.93   -0.3 320.0                     T__                        _i            01575891
TWC     0.34 345.3 Pb       16:16:16.53   -0.1 358.0                     T__                        _i            01575892
TWC     0.34 345.3 Sb       16:16:21.88    0.3 358.0                     T__                        _i            01575893
TWD     0.38 237.8 Pb       16:16:17.29    0.0 239.0                     T__                        __            01575894
TWD     0.38 237.8 Sb       16:16:23.73    1.1 239.0                     T__                        __            01575895
HWA     0.43 225.6 Pb       16:16:18.62    0.4 229.0                     T__                        _e            01575896
ENTT    0.50 316.2 Pb       16:16:19.07   -0.3 319.0                     T__                        ci            01575897
ENTT    0.50 316.2 Sb       16:16:26.3     0.1 319.0                     T__                        _i            01575898
TWE     0.51 330.2 Pb       16:16:19.28   -0.3 335.0                     T__                        ci            01575899
TWE     0.51 330.2 Sb       16:16:26.34   -0.2 335.0                     T__                        __            01575900
NNS     0.54 287.0 Pb       16:16:19.85   -0.5 286.0                     T__                        __            01575901
NNS     0.54 287.0 Sb       16:16:27.35   -0.4 286.0                     T__                        __            01575902
EGS     0.56 359.0 Pb       16:16:21.15    0.6   4.0                     T__                        __            01575903
EGS     0.56 359.0 Sb       16:16:28.84    0.6   4.0                     T__                        __            01575904
WHF     0.63 257.8 Pb       16:16:21.58   -0.5 255.0                     T__                        ci            01575905
WHF     0.63 257.8 Sb       16:16:31.0     0.3 255.0                     T__                        __            01575906
ESL     0.66 225.2 Pb       16:16:21.76   -0.5 228.0                     T__                        __            01575909
ESL     0.66 225.2 Sn       16:16:32.18   -1.2 228.0                     T__                        _e            01575910
NSK     0.66 306.5 Pb       16:16:21.82   -0.5 307.0                     T__                        __            01575907
NSK     0.66 306.5 Sb       16:16:30.79   -0.4 307.0                     T__                        __            01575908
TWT     0.70 267.9 Pb       16:16:23.35    0.3 259.0                     T__                        __            01575911
TWT     0.70 267.9 Sb       16:16:32.51    0.2 259.0                     T__                        __            01575912
TWB1    0.72   3.2 Pb       16:16:23.68    0.3   1.0                     T__                        __            01575913
TWB1    0.72   3.2 Sn       16:16:33.74   -1.2   1.0                     T__                        _e            01575914
NWF     0.80 349.4 Pn       16:16:25.3    -0.3 346.0                     T__                        _e            01575915
NWF     0.80 349.4 Sn       16:16:36.01   -0.9 346.0                     T__                        _e            01575916
WDT     0.91 234.9 Pb       16:16:26.4    -0.2 233.0                     T__                        _e            01575917
WDT     0.91 234.9 Sn       16:16:39.99    0.1 233.0                     T__                        _e            01575918
NSTT    0.93 292.3 Pn       16:16:27.08   -0.2 285.0                     T__                        _e            01575919
NSTT    0.93 292.3 Sn       16:16:39.3    -0.7 285.0                     T__                        _e            01575920
JYNG    0.93  79.3 Pb       16:16:26.3    -0.5                           T__                        __            05930861
JYNG    0.93  79.3 Sb       16:16:38.8     0.1                           T__                        __            05930862
TWS1    0.94 329.7 Pb       16:16:26.01   -1.1 332.0                     T__                        _e            01575921
TWS1    0.94 329.7 Sn       16:16:41.43    1.0 332.0                     T__                        _e            01575922
EHY     0.96 216.5 Pb       16:16:26.31   -1.0 214.0                     T__                        _e            01575923
YOJ     0.99  79.3 Pn       16:16:28.0    -0.1                           T__                        __            05930863
YOJ     0.99  79.3 Sn       16:16:42.4     0.9                           T__                        __            05930864
SMLT    1.03 247.6 Pn       16:16:28.32   -0.5 238.0                     T__                        _e            01575924
SMLT    1.03 247.6 Sn       16:16:43.69    1.0 238.0                     T__                        _e            01575925
TYC     1.06 249.5 Pb       16:16:29.18    0.1 237.0                     T__                        _e            01575926
TYC     1.06 249.5 Sn       16:16:44.03    0.8 237.0                     T__                        _e            01575927
TWQ1    1.07 273.8 Pb       16:16:28.99   -0.2 272.0                     T__                        _e            01575928
TWQ1    1.07 273.8 Sn       16:16:44.24    0.7 272.0                     T__                        _e            01575929
TWF1    1.10 212.7 Pn       16:16:28.33   -1.3 226.0                     T__                        _e            01575930
TWF1    1.10 212.7 Sb       16:16:43.66    0.1 226.0                     T__                        _e            01575931
TCU     1.17 263.7 Pb       16:16:31.79    1.0 262.0                     T__                        _e            01575932
YUS     1.20 229.2 Pn       16:16:31.62    0.1 228.0                     T__                        _e            01575933
YUS     1.20 229.2 Sb       16:16:47.63    0.6 228.0                     T__                        _e            01575934
ALS     1.29 233.8 Pb       16:16:33.18   -0.0 233.0                     T__                        _e            01575935
ALS     1.29 233.8 Sn       16:16:49.42   -0.0 233.0                     T__                        _e            01575936
CHN5    1.34 239.8 Pb       16:16:33.64   -0.3 225.0                     T__                        _e            01575937
CHN5    1.34 239.8 Sb       16:16:52.16    1.5 225.0                     T__                        _e            01575938
ELDTW   1.38 218.2 Pn       16:16:33.36   -0.2 217.0                     T__                        _e            01575939
ELDTW   1.38 218.2 Sb       16:16:51.47   -0.3 217.0                     T__                        _e            01575940
CHN4    1.54 233.4 Pb       16:16:36.37   -0.9 233.0                     T__                        _e            01575941
STYT    1.56 224.6 Pn       16:16:35.56   -0.4 213.0                     T__                        _e            01575942
STYT    1.56 224.6 Sb       16:16:56.96    0.1 213.0                     T__                        _e            01575943
WTP     1.59 230.0 Pn       16:16:37.15    0.6 216.0                     T__                        _e            01575944
WTP     1.59 230.0 Sb       16:16:58.69    0.8 216.0                     T__                        _e            01575945
IRIF    1.63  87.8 Pn       16:16:36.6    -0.3                           T__                        __            05930865
IRIF    1.63  87.8 Sb       16:16:59.2     0.3                           T__                        __            05930866
CHN1    1.69 230.2 Pb       16:16:39.19   -0.7 230.0                     T__                        _e            01575946
CHN1    1.69 230.2 Sb       16:17:01.25    0.5 230.0                     T__                        _e            01575947
SGST    1.73 226.5 Pb       16:16:39.9    -0.5 214.0                     T__                        _e            01575948
SGST    1.73 226.5 Sb       16:17:02.01    0.3 214.0                     T__                        _e            01575949
JKRS    1.89  90.9 Pn       16:16:41.2     0.8                           T__                        __            05930867
SSD     1.94 218.5 Pb       16:16:43.18   -1.0 218.0                     T__                        _e            01575950
SSD     1.94 218.5 Sb       16:17:07.29   -0.7 218.0                     T__                        _e            01575951
JIJ     2.01  87.2 Pn       16:16:42.2     0.1                           T__                        __            05930868
JISG    2.18  81.5 Pn       16:16:44.2    -0.3                           T__                        __            05930869

Event 601515695 Near coast of central Chile
   Date       Time        Err   RMS Latitude Longitude  Smaj  Smin  Az Depth   Err Ndef Nsta Gap  mdist  Mdist Qual   Author      OrigID
2010/12/20 16:27:40.70   0.41 0.100 -34.5260  -71.9150   1.5   3.4  -1  47.3   5.8         9 221                      GUC       01272962

Magnitude  Err Nsta Author      OrigID
ML     3.6          GUC       01272962

Sta     Dist  EvAz Phase        Time      TRes  Azim AzRes   Slow   SRes Def   SNR       Amp   Per Qual Magnitude    ArrID
LNV     0.71  36.4 Pn       16:27:54.09   -0.3                           ___                        _e            25944820
NICH    0.74 130.3 Pn       16:27:54.77   -0.1                           ___                        _e            25944821
NICH    0.74 130.3 Sn       16:28:05.01   -0.1                           ___                        _e            25944822
TALC    0.90 165.2 Pn       16:27:57.06    0.0                           ___                        _e            25944829
TALC    0.90 165.2 Sn       16:28:08.97    0.0                           ___                        _e            25944830
TACH    1.19  43.2 Pn       16:28:00.87   -0.1                           ___                        _e            25944828
CHCH    1.20  60.9 Pn       16:28:01.25    0.1                           ___                        _e            25944816
ANTU    1.43  48.5 Pn       16:28:04.35    0.1                           ___                        _e            25944814
ANTU    1.43  48.5 Sn       16:28:22.52    0.5                           ___                        _e            25944815
CLCH    1.61  45.8 Pn       16:28:06.96    0.2                           ___                        _e            25944817
CLCH    1.61  45.8 Sn       16:28:26.7     0.3                           ___                        _e            25944818
CLCH    1.61  45.8 AML      16:28:31.91                                  ___          1099.4  0.56  __            25944819
PEL     1.72  36.9 Pn       16:28:08.34    0.1                           ___                        de            25944823
PEL     1.72  36.9 Sn       16:28:29.42    0.4                           ___                        _e            25944824
PEL     1.72  36.9 AML      16:28:34.46                                  ___          1027.3  0.43  __            25944825
ROCH    1.72  26.2 Pn       16:28:08.63    0.1                           ___                        _e            25944826
ROCH    1.72  26.2 Sn       16:28:29.9     0.3                           ___                        _e            25944827

Event 15908350 Fiji Islands region
   Date       Time        Err   RMS Latitude Longitude  Smaj  Smin  Az Depth   Err Ndef Nsta Gap  mdist  Mdist Qual   Author      OrigID
2010/12/20 16:27:40.15   1.59 1.040 -16.0819 -177.5409 102.5  21.0 147   0.0f         8      182  40.25 144.05     uk IDC       16692835
2010/12/20 16:27:41.96   1.22 1.370 -16.1650 -177.5390  68.8  17.5 145  10.0f        12      182  40.21 144.12     se NEIC      01602388
2010/12/20 16:27:44.17   1.19 1.210 -16.1725 -177.5500 63.57 16.87 144  33.0f        11   25 182  40.20  92.42 m i se ISCJB     02145581
2010/12/20 16:27:45.60   1.32 1.312 -16.2580 -177.4647 77.01 20.64 144  35.0f        13   25 182  40.23 144.23 m i se ISC       01613987
 (#PRIME)

Magnitude  Err Nsta Author      OrigID
mb     3.9 0.1    7 IDC       16692835
mb1    4.2 0.1    7 IDC       16692835
mb1mx  3.9 0.1   38 IDC       16692835
mbtmp  3.9 0.1    7 IDC       16692835
MS     4.1 0.1    8 IDC       16692835
Ms1    4.1 0.1    8 IDC       16692835
ms1mx  3.9 0.1   28 IDC       16692835
mb     4.8        4 NEIC      01602388
mb     4.1       11 ISCJB     02145581
MS     4.1        5 ISCJB     02145581
mb     4.0 0.3   11 ISC       01613987
MS     4.0 0.2    5 ISC       01613987

Sta     Dist  EvAz Phase        Time      TRes  Azim AzRes   Slow   SRes Def   SNR       Amp   Per Qual Magnitude    ArrID
RAO    12.94 181.8 LR       16:34:32.78         85.5        31.50        ___          1191.7 19.86  __            58648975
DZM    16.26 246.7 LR       16:35:58.4                                   ___           724.2 26.10  _e            30139624
DZM    16.26 246.7 LR       16:36:39.285        27.0        33.20        ___           667.6 20.45  __            58648970
RAR    17.46 109.1 LR       16:38:04.719       288.5        35.50        ___           146.9 18.05  __            58648976
URZ    22.43 191.2 LR       16:39:13.777        33.5        30.70        ___           620.8 21.58  __            58648980
HNR    23.03 284.4 LR       16:40:24.57         37.0        33.40        ___           456.9 21.71  __            58648971
PPT2   26.70  96.9 LR       16:39:41.3         262.1                     ___           768.2 25.25  _e            30139625
PPT    26.71  96.8 LR       16:41:55.4         295.0        31.90        ___           238.0 19.40  __            58648974
TBI    27.24 109.5 LR       16:39:59.3         276.3                     ___           811.2 28.25  _e            30139627
RPZ    29.06 197.3 LR       16:44:40.114         8.0        34.90        ___           913.7 18.13  __            58648977
CTA    34.64 258.1 LR       16:46:43.85                     33.00        ___           868.8 19.22  __            58648969
STKA   40.23 239.7 P        16:35:20.75    1.7  78.1        11.80        T__   3.7       4.1  0.81  __            58648978
RKT    40.48 106.7 LR       16:46:05.6         275.9                     ___           656.4 26.00  _e            30139626
WRA    45.84 257.8 P        16:36:04.629  -0.1  90.9         7.60        T__   3.7       0.6  0.80  __            58648981
ASAR   46.12 252.7 P        16:36:04.41   -2.5  80.8         7.90        T__  13.9       1.7  0.81  __            58648967
NVAR   77.61  43.7 P        16:39:37.875  -0.8 199.9         7.70        T__   3.7       0.7  0.81  __            58648973
COLA   83.98  12.2 P        16:40:10.56   -1.2                           T__             5.5  0.70  _e            32818257
ILAR   84.09  12.7 P        16:40:12.214  -0.1 228.0         5.90        T__  13.6       3.6  1.03  __            58648972
TXAR   84.35  57.4 P        16:40:14.292  -0.4 223.5         3.50        T__   6.3       1.2  1.05  __            58648979
MCMT   84.40  40.2 P        16:40:16.83    2.1                           T__             1.3  1.00  _e            32818260
BILL   84.89 353.9 P        16:40:17.2     0.9                           T__             8.7  1.30  _e            32818255
EGAK   85.40  14.7 P        16:40:19.38    0.4                           T__             6.1  1.10  _e            32818258
YKA    92.46  24.4 P        16:40:52.193  -0.3 238.5         3.50        T__   3.2       0.1  0.47  __            58648982
DPC   144.22 344.9 PKPdf    16:47:17.6    -0.2                           T__                        _e            01294328
BRTR  144.23 317.0 PKPdf    16:47:17.63   -0.7 153.4         1.40        T__  12.3       2.7  0.90  __            58648968

Event 17187338 Minahassa Peninsula, Sulawesi
   Date       Time        Err   RMS Latitude Longitude  Smaj  Smin  Az Depth   Err Ndef Nsta Gap  mdist  Mdist Qual   Author      OrigID
2010/12/20 16:27:47.90   1.79 1.010   0.9235  124.7854 174.8  25.7  63   0.0f         4      188  22.75  58.79     uk IDC       16692836

Magnitude  Err Nsta Author      OrigID
mb     3.6 0.2    4 IDC       16692836
mb1    3.8 0.2    4 IDC       16692836
mb1mx  3.4 0.1   54 IDC       16692836
mbtmp  3.6 0.2    4 IDC       16692836

Sta     Dist  EvAz Phase        Time      TRes  Azim AzRes   Slow   SRes Def   SNR       Amp   Per Qual Magnitude    ArrID
WRA    22.75 156.2 P        16:32:51.937  -0.1 332.8        10.80        ___  23.4       0.9  0.49  __ mb     3.5 58648986
ASAR   26.00 160.6 P        16:33:24.075   1.3 338.3         7.40        ___  21.2       0.3  0.36  __ mb     3.3 58648983
STKA   36.30 155.4 P        16:34:51.775  -1.6 345.2         6.90        ___   7.0       1.7  0.64  __ mb     4.1 58648985
MKAR   58.79 327.1 P        16:37:48.122   0.1 119.1         8.50        ___   3.5       0.2  0.39  __ mb     3.5 58648984

