BEGIN IMS2.0
DATA_TYPE BULLETIN IMS1.0:short with ISF2.0 extensions

Event 14721049 Central Peru

   Date       Time        Err   RMS Latitude Longitude  Smaj  Smin  Az Depth   Err Ndef Nsta Gap  mdist  Mdist Qual   Author      OrigID    Rep   DPdep   Err Sgp
2010/05/23 22:46:51.18   0.21  1.73 -13.9831  -74.3693   5.1   3.8  72  99.6   1.6 2503 2110  28   3.12 176.56     fe ISC       600795072                         
2010/05/23 22:47:02.90   0.00       -13.5300  -74.5500   0.0   0.0      78.0   0.0                                 se NEIC      600599950                         
2010/05/23 22:46:55.50   0.10       -14.0300  -74.5200                 108.9   0.5  648  132                          GCMT      605240740                         
2010/05/23 22:46:52.15         0.69 -13.9840  -74.4000  20.0  13.0  46 105.4   0.5 1585  999                       ke ISC-EHB   608956513                         
2010/05/23 22:46:52.14   0.45  0.75 -13.9418  -74.4138  11.0   8.0  62 103.0   3.6   87       43   3.06 172.20     uk IDC       16670351                          
2010/05/23 22:46:52.05   0.10  0.86 -13.9280  -74.3520   3.8   2.3  56 101.4        525       29   3.10 176.60     fe NEIC      600599945                         
2010/05/23 22:46:51.00   0.00       -13.9200  -74.3200   0.0   0.0      95.0   0.0                                 se NEIC      600599951                         
2010/05/23 22:46:51.00              -13.9860  -74.3360                  88.0                                       se PMR       600599949                         
2010/05/23 22:46:50.30         3.65 -13.9000  -74.3000                 105.0         90      273 140.90 173.50     uk BJI       14861839                          
2010/05/23 22:46:50.00              -14.1100  -74.4700                  68.0                                       se HON       600599948                         
2010/05/23 22:46:49.30   0.86       -13.8530  -74.4020   8.9   4.8 113  89.0        247                               MOS       16740284                          
2010/05/23 22:46:45.00              -14.1500  -74.4400                 115.0                                       se ARE       600599946                         
2010/05/23 22:46:50.67   0.28  1.98 -14.0127  -74.4069   6.3   4.1  70  96.9   2.0 1426  781  81   3.11 120.01     fe AB        1           AB     97.0   5.4   0 
 (#PRIME)

Magnitude  Err Nsta Author      OrigID
mb     6.3       70 MOS          16740284
MS     5.1       23 MOS          16740284
mB     6.1       55 BJI          14861839
mb     6.3      244 NEIC        600599945
ME     6.2          NEIC        600599945
MW     6.0          NEIC        600599945
MW     6.1          NEIC        600599945
MW     6.1          NEIC        600599945
mb     5.5 0.0   41 IDC          16670351
mb1    5.7 0.1   44 IDC          16670351
mb1mx  5.6 0.1   47 IDC          16670351
mbtmp  5.9 0.0   44 IDC          16670351
MS     5.2 0.1   20 IDC          16670351
Ms1    5.2 0.1   20 IDC          16670351
ms1mx  5.1 0.1   27 IDC          16670351
MW     6.1      132 GCMT        605240740
mb     6.2 0.2  423 ISC         600795072
mb     6.3 0.2  280 AB        1

Sta     Dist  EvAz Phase        Time      TRes  Azim AzRes   Slow   SRes Def   SNR       Amp   Per Qual Magnitude    ArrID    Agy   Deploy   Ln Auth  Rep   PCh ACh L
NNA     3.11 310.0 Pn       22:47:37.350  -0.6 129.3        11.10        T__ 2429.0    4125.3  0.33 ___            130932126   FDSN  IR       --             ??? ??? _
NNA     3.11 310.0 Pn       22:47:37.350  -0.6                           T__                       __e            604635752   FDSN  IR       --       NEIC  ??? ??? _
NNA     3.11 310.0 Sn       22:48:12.875  -1.5 208.1        22.00        T__  23.5    8531.7  0.33 ___            130932126   FDSN  IR       --             ??? ??? _
NNA     3.11 310.0 Sn       22:48:13.250  -1.1                           ___                       __e            604635752   FDSN  IR       --       NEIC  ??? ??? _
NNA     3.11 310.0 LR       22:48:39.364        80.5        35.00        ___         38886.1 20.58 ___            130932126   FDSN  IR       --             ??Z ??? _
ARE     3.72 131.2 Pn       22:47:46.500   0.1                           T__                       __e            131882974   FDSN  IR       --       MOS   S?Z ??? _
ARE     3.72 131.2 Pn       22:47:46.500   0.1                           T__                       __e            604635407   FDSN  IR       --       NEIC  ??? ??? _
ARE     3.72 131.2 Sn       22:48:25.000  -4.4                           T__                       __e            131882974   FDSN  IR       --       MOS   S?N ??? _
ARE     3.72 131.2 Sn       22:48:25.000  -4.4                           T__                       __e            604635407   FDSN  IR       --       NEIC  ??? ??? _
LPAZ    6.47 111.3 Pn       22:48:26.000   2.1                           T__                       __e            134051618   FDSN  IR       -- GUC   GUC   H?Z ??? _
LPAZ    6.47 111.3 Pn       22:48:26.388   2.5 296.0         9.50        T__ 1625.0     158.0  0.33 ___            130932118   FDSN  IR       --             ??? ??? _
LPAZ    6.47 111.3 Pn       22:48:26.388   2.5                           T__                       ___            131882975   FDSN  IR       --       MOS   S?Z ??? _
LPAZ    6.47 111.3 Sn       22:49:40.500   3.9                           T__                       ___            131882975   FDSN  IR       --       MOS   S?N ??? _
LPAZ    6.47 111.3 Sn       22:49:40.525   3.9 107.5        20.10        ___   2.0       8.1  0.33 ___            130932118   FDSN  IR       --             ??? ??? _
LPAZ    6.47 111.3 smax                                                  ___                       ___            131882975   FDSN  IR       --       MOS   S?N ??? _
LPAZ    6.47 111.3 pmax                                                  ___                       ___            131882975   FDSN  IR       --       MOS   S?Z ??? _
MNMC    6.87 138.5 Pn       22:48:27.300  -1.8                           T__                       __e            134051619   FDSN  IR       -- GUC   GUC   H?Z ??? _
PSGC    6.90 144.1 Pn       22:48:27.300  -2.1                           T__                       __e            134051627   FDSN  IR       -- GUC   GUC   H?Z ??? _
PB11    7.30 142.1 Pn       22:48:32.100  -2.8                           T__                       __e            134051626   FDSN  IR       -- GUC   GUC   H?Z ??? _
ATAH    7.88 329.8 Pn       22:48:42.550  -0.4 162.1         4.00        T__  31.3       8.6  0.33 ___            130932083   FDSN  IR       --             ??? ??? _
ATAH    7.88 329.8 Sn       22:50:14.700   4.0 180.3        17.00        T__   2.5     110.2  0.33 ___            130932083   FDSN  IR       --             ??? ??? _
PATCX   7.89 149.6 Pn       22:48:42.300  -0.5                           T__                       __e            134051620   FDSN  IR       -- GUC   GUC   H?Z ??? _
PB01    8.42 146.8 Pn       22:48:49.200  -0.8                           T__                       __e            134051621   FDSN  IR       -- GUC   GUC   H?Z ??? _
PB07    8.80 151.4 Pn       22:48:54.800  -0.4                           T__                       __e            134051623   FDSN  IR       -- GUC   GUC   H?Z ??? _
PB09    9.17 148.3 Pn       22:49:00.200  -0.1                           T__                       __e            134051624   FDSN  IR       -- GUC   GUC   H?Z ??? _
PB04    9.21 154.6 Pn       22:49:00.100  -0.7                           T__                       __e            134051622   FDSN  IR       -- GUC   GUC   H?Z ??? _
LVC    10.02 149.4 Pn       22:49:09.730  -2.3                           T__                       __e            604635704   FDSN  IR       --       NEIC  ??? ??? _
LVC    10.02 149.4 Pn       22:49:10.494  -1.5 358.7         7.00        T__ 166.1    1203.7  0.33 ___            130932120   FDSN  IR       --             ??? ??? _
LVC    10.02 149.4 Sn       22:50:58.269  -4.4  68.6        23.50        T__   6.2    1973.5  0.33 ___            130932120   FDSN  IR       --             ??? ??? _
LVC    10.02 149.4 Sn       22:50:59.250  -3.4                           ___                       __e            604635704   FDSN  IR       --       NEIC  ??? ??? _
LVC    10.02 149.4 LR       22:52:56.776       319.5        36.20        ___         46887.7 21.90 ___            130932120   FDSN  IR       --             ??Z ??? _
PB10   10.13 159.5 Pn       22:49:14.700   1.5                           T__                       __e            134051625   FDSN  IR       -- GUC   GUC   H?Z ??? _
SAML   12.09  66.6 Pn       22:49:36.130  -3.6                           T__                       __e            604635831   FDSN  IR       --       NEIC  ??? ??? _
SAML   12.09  66.6 Sn       22:51:58.590   5.8                           T__                       __e            604635831   FDSN  IR       --       NEIC  ??? ??? _
SIV    13.03 100.4 Pn       22:49:49.580  -2.7 295.1        10.60        T__ 177.5      21.7  0.33 ___            130932143   FDSN  IR       --             ??? ??? _
OTAV   14.71 343.9 Pn       22:50:16.190   1.7                           T__                       __e            604635763   FDSN  IR       --       NEIC  ??? ??? _
OTAV   14.71 343.9 P        22:50:18.980   0.9                           T__                       __e            308040629   FDSN  IR       -- RSNC  RSNC  B?Z ??? _
OTAV   14.71 343.9 Sn       22:52:53.680  -3.3                           T__                       __e            604635763   FDSN  IR       --       NEIC  ??? ??? _
CMBC   15.24 346.9 P        22:50:23.500  -0.4                           T__                       __e            308040617   FDSN  IR       -- RSNC  RSNC  S?Z ??? _
LCO    15.32 167.6 Pn       22:50:21.070  -0.8                           T__         10577.3  2.60 __e            604635674   FDSN  IR       --       NEIC  ??? ??? _
LCO    15.32 167.6 Sn       22:52:54.660 -16.5                           ___                       __e            604635674   FDSN  IR       --       NEIC  ??? ??? _
SOTA   16.19 352.1 P        22:50:34.230  -0.3                           T__                       __e            308040638   FDSN  IR       -- RSNC  RSNC  H?Z ??? _
TUMC   16.31 344.4 P        22:50:37.050   1.8                           T__                       __e            308040639   FDSN  IR       -- RSNC  RSNC  H?Z ??? _
PCON   16.35 352.9 Pn       22:50:33.660  -1.5                           T__                       __e            308040630   FDSN  IR       -- RSNC  RSNC  H?Z ??? _
GUVC   16.54   6.3 P        22:50:40.440   2.5                           T__                       __e            308040623   FDSN  IR       -- RSNC  RSNC  S?Z ??? _
POPC   16.60 352.0 P        22:50:38.740   0.0                           T__                       __e            308040631   FDSN  IR       -- RSNC  RSNC  H?Z ??? _
BETC   16.62 356.4 P        22:50:39.310   0.6                           T__                       __e            308040614   FDSN  IR       -- RSNC  RSNC  S?Z ??? _
MARP   16.82 354.6 P        22:50:41.000  -0.2                           T__                       __e            308040626   FDSN  IR       -- RSNC  RSNC  H?Z ??? _
GRGC   17.31 347.3 Pn       22:50:46.650   0.3                           T__                       __e            308040620   FDSN  IR       -- RSNC  RSNC  S?Z ??? _
PRAC   17.62 358.4 P        22:50:49.470  -0.3                           T__                       __e            308040632   FDSN  IR       -- RSNC  RSNC  H?Z ??? _
MALC   18.14 350.6 Pn       22:50:59.070   2.7                           T__                       __e            308040625   FDSN  IR       -- RSNC  RSNC  S?Z ??? _
CFAA   18.40 163.1 Pn       22:51:00.000   0.6 338.1        10.60        T__  78.9       0.7  0.33 ___            130932090   FDSN  IR       --             ??? ??? _
CFAA   18.40 163.1 S        22:54:24.300   0.9 306.9        20.20        T__   3.7       0.1  0.33 ___            130932090   FDSN  IR       --             ??? ??? _
ANIL   18.41 356.9 Pn       22:51:01.890   2.0                           T__                       __e            308040611   FDSN  IR       -- RSNC  RSNC  B?Z ??? _
CVER   18.42   1.1 Pn       22:51:00.760   0.6                           T__                       __e            308040618   FDSN  IR       -- RSNC  RSNC  S?Z ??? _
CHIC   18.53   2.1 Pn       22:51:04.150   2.7                           T__                       __e            308040616   FDSN  IR       -- RSNC  RSNC  H?Z ??? _
ROSC   18.73   0.3 Pn       22:51:05.280   1.5                           T__                       __e            308040633   FDSN  IR       -- RSNC  RSNC  B?Z ??? _
ROSC   18.73   0.3 Pn       22:51:05.413   1.6 171.1         2.60        T__ 118.3       8.5  0.33 ___            130932137   FDSN  IR       --             ??? ??? _
ROSC   18.73   0.3 Pn       22:51:05.760   1.9                           T__                       __e            604635820   FDSN  IR       --       NEIC  ??? ??? _
ROSC   18.73   0.3 Sn       22:54:39.462   5.7                           T__                       __e            604635820   FDSN  IR       --       NEIC  ??? ??? _
ROSC   18.73   0.3 Sn       22:54:39.462   5.7 258.5        18.60        T__   1.8                 ___            130932137   FDSN  IR       --             ??? ??? _
RREF   18.81 357.1 Pn       22:51:09.230   4.2                           T__                       __e            308040634   FDSN  IR       -- RSNC  RSNC  B?Z ??? _
HELC   20.10 356.8 P        22:51:17.140  -0.1                           T__                       __e            308040624   FDSN  IR       -- RSNC  RSNC  H?Z ??? _
CPUP   20.15 130.1 P        22:51:18.800   1.5                           T__                       __e            131882976   FDSN  IR       --       MOS   S?Z ??? _
CPUP   20.15 130.1 Pn       22:51:18.840  -1.1                           ___                       __e            604635490   FDSN  IR       --       NEIC  ??? ??? _
SOLC   20.33 351.4 P        22:51:20.520   1.3                           T__                       __e            308040637   FDSN  IR       -- RSNC  RSNC  S?Z ??? _
BARC   20.51   3.5 P        22:51:22.220   0.8                           T__                       __e            308040612   FDSN  IR       -- RSNC  RSNC  S?Z ??? _
PAYG   20.56 308.8 P        22:51:23.510   1.7                           T__          3337.8  1.90 __e            604635772   FDSN  IR       --       NEIC  ??? ??? _
PAYG   20.56 308.8 S        22:55:01.710  -4.8                           T__                       __e            604635772   FDSN  IR       --       NEIC  ??? ??? _
DBBC   20.97 355.0 P        22:51:27.860   1.6                           T__                       __e            308040619   FDSN  IR       -- RSNC  RSNC  S?Z ??? _
GRMC   21.65   4.3 P        22:51:35.200   1.6                           T__                       __e            308040621   FDSN  IR       -- RSNC  RSNC  S?Z ??? _
GUEC   21.75   4.0 P        22:51:35.200   0.4                           T__                       __e            308040622   FDSN  IR       -- RSNC  RSNC  S?Z ??? _
OCAC   22.13   2.9 P        22:51:38.020  -0.7                           T__                       __e            308040628   FDSN  IR       -- RSNC  RSNC  S?Z ??? _
MOTC   22.68 356.8 P        22:51:44.800   0.6                           T__                       __e            308040627   FDSN  IR       -- RSNC  RSNC  H?Z ??? _
CAPC   22.69 352.4 P        22:51:45.360   1.0                           T__                       __e            308040615   FDSN  IR       -- RSNC  RSNC  H?Z ??? _
SDV    23.06   9.6 P        22:51:48.185   0.0                           T__          1161.7  1.30 __e mb     6.1 604635842   FDSN  IR       --       NEIC  ??? ??? _
 (Reading mb:  6.1 magdef=1
SDV    23.06   9.6 P        22:51:48.185   0.0                           T__                       __e            308040635   FDSN  IR       -- RSNC  RSNC  B?Z ??? _
SDV    23.06   9.6 S        22:55:47.620  -4.2                           T__                       __e            604635842   FDSN  IR       --       NEIC  ??? ??? _
 (Station mb:  6.1 magdef=1
BCIP   23.65 346.5 P        22:51:54.400   1.0                           T__                       __e            308040613   FDSN  IR       -- RSNC  RSNC  B?Z ??? _
BCIP   23.65 346.5 P        22:51:55.000   1.6                           T__          3412.1  1.80 __e mb     6.4 604635422   FDSN  IR       --       NEIC  ??? ??? _
BCIP   23.65 346.5 S        22:56:04.880   3.8                           T__                       __e            604635422   FDSN  IR       --       NEIC  ??? ??? _
 (Reading mb:  6.4 magdef=1
 (Station mb:  6.4 magdef=1
BDFB   25.56  97.0 P        22:52:11.087   0.2                           T__                       __e            604635423   FDSN  IR       --       NEIC  ??? ??? _
BDFB   25.56  97.0 P        22:52:11.087   0.2 254.7        11.40        T__  82.6      43.3  0.65 ___ mb     5.1 130932086   FDSN  IR       --             ??? ??? _
 (Reading mb:  5.1 magdef=1
BDFB   25.56  97.0 P        22:52:11.087   0.2                           T__                       ___            131882977   FDSN  IR       --       MOS   S?Z ??? _
BDFB   25.56  97.0 S        22:56:32.700   0.8                           T__                       __e            604635423   FDSN  IR       --       NEIC  ??? ??? _
BDFB   25.56  97.0 LR       23:04:24.215       207.0        41.10        ___          2878.0 20.27 ___            130932086   FDSN  IR       --             ??Z ??? _
BDFB   25.56  97.0 MLR                                                   ___                       ___            131882977   FDSN  IR       --       MOS   L?Z ??? _
BDFB   25.56  97.0 pmax                                                  ___                       ___            131882977   FDSN  IR       --       MOS   S?Z ??? _
 (Station mb:  5.1 magdef=0
URIC   25.66   5.5 P        22:52:09.080  -2.5                           T__                       __e            308040640   FDSN  IR       -- RSNC  RSNC  H?Z ??? _
PCRV   25.91  22.5 P        22:52:14.387   0.4 195.7         3.90        T__  23.2      55.6  0.89 ___ mb     5.1 130932130   FDSN  IR       --             ??? ??? _
PCRV   25.91  22.5 LR       23:03:38.330       217.0        38.90        ___         10105.8 21.33 ___            130932130   FDSN  IR       --             ??Z ??? _
 (Reading mb:  5.1 magdef=1
 (Station mb:  5.1 magdef=0
JTS    26.31 336.0 P        22:52:19.705   2.1 148.3         6.10        T__  38.7     166.1  1.01 ___ mb     5.5 130932112   FDSN  IR       --             ??? ??? _
 (Reading mb:  5.5 magdef=1
JTS    26.31 336.0 P        22:52:19.705   2.1                           T__                       ___            131882978   FDSN  IR       --       MOS   S?Z ??? _
JTS    26.31 336.0 P        22:52:19.705   2.1                           T__          1295.4  1.70 __e mb     6.2 604635631   FDSN  IR       --       NEIC  ??? ??? _
JTS    26.31 336.0 pmax                                                  ___                       ___            131882978   FDSN  IR       --       MOS   S?Z ??? _
 (Reading mb:  6.2 magdef=1
 (Station mb:  5.8 magdef=0
TRQA   26.37 157.5 P        22:52:17.940   0.1                           T__           380.7  1.40 __e mb     5.7 604635910   FDSN  IR       --       NEIC  ??? ??? _
TRQA   26.37 157.5 PcP      22:55:42.590   1.3                           T__                       __e            604635910   FDSN  IR       --       NEIC  ??? ??? _
 (Reading mb:  5.7 magdef=1
 (Station mb:  5.7 magdef=0
PLCA   26.83 173.5 P        22:52:23.013   0.9 348.2         9.90        T__  60.6      99.1  1.18 ___ mb     5.2 130932134   FDSN  IR       --             ??? ??? _
